{
"type": "FeatureCollection",
"name": "basar-modi",
"crs": { "type": "name", "properties": { "name": "urn:ogc:def:crs:OGC:1.3:CRS84" } },
"features": [
{ "type": "Feature", "properties": { "Name": "Básar - Móði" }, "geometry": { "type": "MultiLineString", "coordinates": [ [ [ -19.48292, 63.67802, 240.0 ], [ -19.48289, 63.67802, 240.0 ], [ -19.48279, 63.678, 240.0 ], [ -19.4827, 63.67797, 240.0 ], [ -19.48259, 63.67796, 240.0 ], [ -19.4825, 63.67794, 240.0 ], [ -19.4824, 63.67793, 240.0 ], [ -19.48229, 63.67791, 240.0 ], [ -19.48217, 63.67791, 240.0 ], [ -19.48206, 63.67791, 240.0 ], [ -19.48195, 63.67791, 240.0 ], [ -19.48187, 63.67791, 240.0 ], [ -19.48176, 63.67791, 240.0 ], [ -19.48166, 63.67793, 240.0 ], [ -19.48156, 63.67794, 240.0 ], [ -19.48145, 63.67794, 240.0 ], [ -19.48134, 63.67795, 241.0 ], [ -19.48123, 63.67795, 241.0 ], [ -19.48112, 63.67795, 242.0 ], [ -19.48102, 63.67795, 242.0 ], [ -19.48097, 63.67795, 242.0 ], [ -19.48086, 63.67795, 243.0 ], [ -19.48075, 63.67793, 244.0 ], [ -19.48065, 63.67792, 244.0 ], [ -19.48054, 63.67792, 245.0 ], [ -19.48043, 63.67792, 246.0 ], [ -19.48033, 63.67792, 247.0 ], [ -19.48032, 63.67791, 247.0 ], [ -19.48022, 63.67791, 248.0 ], [ -19.48011, 63.6779, 249.0 ], [ -19.48001, 63.67789, 251.0 ], [ -19.47989, 63.67789, 251.0 ], [ -19.47979, 63.67788, 251.0 ], [ -19.47968, 63.67787, 251.0 ], [ -19.47957, 63.67785, 252.0 ], [ -19.47947, 63.67784, 252.0 ], [ -19.47938, 63.67784, 252.0 ], [ -19.47927, 63.67784, 252.0 ], [ -19.47917, 63.67783, 252.0 ], [ -19.47907, 63.67784, 252.0 ], [ -19.47896, 63.67785, 251.0 ], [ -19.47885, 63.67785, 251.0 ], [ -19.47874, 63.67785, 251.0 ], [ -19.47864, 63.67784, 251.0 ], [ -19.47854, 63.67782, 251.0 ], [ -19.47845, 63.6778, 251.0 ], [ -19.47835, 63.67778, 251.0 ], [ -19.47827, 63.67776, 251.0 ], [ -19.47752, 63.67751, 251.0 ], [ -19.47716, 63.67735, 253.0 ], [ -19.47716, 63.67734, 253.0 ], [ -19.47705, 63.67734, 252.0 ], [ -19.47695, 63.67734, 251.0 ], [ -19.47685, 63.67736, 250.0 ], [ -19.47676, 63.67739, 248.0 ], [ -19.47666, 63.6774, 247.0 ], [ -19.47655, 63.67742, 246.0 ], [ -19.47645, 63.67743, 245.0 ], [ -19.47638, 63.67743, 245.0 ], [ -19.47627, 63.67744, 244.0 ], [ -19.47617, 63.67744, 243.0 ], [ -19.47606, 63.67743, 242.0 ], [ -19.47596, 63.67742, 242.0 ], [ -19.47585, 63.67741, 241.0 ], [ -19.47574, 63.67739, 242.0 ], [ -19.47564, 63.67738, 242.0 ], [ -19.47553, 63.67737, 242.0 ], [ -19.47542, 63.67737, 242.0 ], [ -19.47531, 63.67736, 242.0 ], [ -19.4753, 63.67736, 241.0 ], [ -19.47519, 63.67736, 241.0 ], [ -19.47508, 63.67737, 241.0 ], [ -19.47497, 63.67737, 241.0 ], [ -19.47487, 63.67738, 241.0 ], [ -19.47476, 63.67738, 240.0 ], [ -19.47466, 63.67736, 240.0 ], [ -19.47463, 63.67735, 240.0 ], [ -19.47461, 63.67735, 240.0 ], [ -19.47454, 63.67731, 241.0 ], [ -19.47445, 63.67728, 240.0 ], [ -19.47435, 63.67729, 240.0 ], [ -19.47426, 63.67727, 240.0 ], [ -19.47419, 63.67723, 240.0 ], [ -19.47417, 63.67722, 240.0 ], [ -19.4741, 63.67718, 240.0 ], [ -19.47403, 63.67715, 240.0 ], [ -19.47393, 63.67713, 240.0 ], [ -19.47383, 63.67713, 240.0 ], [ -19.47372, 63.67713, 240.0 ], [ -19.4737, 63.67712, 240.0 ], [ -19.4737, 63.67713, 240.0 ], [ -19.47361, 63.6771, 240.0 ], [ -19.47353, 63.67707, 240.0 ], [ -19.47346, 63.67704, 240.0 ], [ -19.4734, 63.677, 240.0 ], [ -19.47333, 63.67696, 240.0 ], [ -19.47327, 63.67692, 240.0 ], [ -19.47324, 63.67691, 240.0 ], [ -19.47317, 63.67687, 240.0 ], [ -19.47312, 63.67684, 240.0 ], [ -19.47303, 63.67681, 240.0 ], [ -19.47294, 63.6768, 240.0 ], [ -19.47284, 63.67678, 240.0 ], [ -19.47274, 63.67677, 240.0 ], [ -19.47273, 63.67676, 240.0 ], [ -19.47263, 63.67674, 240.0 ], [ -19.47256, 63.67671, 240.0 ], [ -19.47249, 63.67668, 240.0 ], [ -19.47246, 63.67666, 240.0 ], [ -19.47193, 63.6764, 245.0 ], [ -19.47191, 63.6764, 245.0 ], [ -19.47188, 63.67636, 246.0 ], [ -19.4718, 63.67633, 246.0 ], [ -19.47172, 63.6763, 247.0 ], [ -19.47163, 63.67628, 247.0 ], [ -19.47153, 63.67626, 247.0 ], [ -19.47145, 63.67623, 248.0 ], [ -19.47138, 63.67619, 249.0 ], [ -19.47135, 63.67615, 250.0 ], [ -19.47133, 63.67613, 250.0 ], [ -19.47123, 63.67608, 251.0 ], [ -19.47044, 63.67581, 257.0 ], [ -19.46999, 63.67569, 258.0 ], [ -19.46961, 63.67556, 258.0 ], [ -19.46944, 63.67558, 259.0 ], [ -19.46943, 63.67558, 259.0 ], [ -19.46935, 63.67561, 259.0 ], [ -19.46933, 63.67566, 259.0 ], [ -19.46932, 63.67567, 259.0 ], [ -19.46928, 63.67592, 258.0 ], [ -19.46927, 63.67593, 258.0 ], [ -19.46927, 63.67597, 258.0 ], [ -19.46927, 63.67602, 258.0 ], [ -19.46926, 63.67606, 258.0 ], [ -19.46923, 63.67611, 258.0 ], [ -19.46916, 63.67615, 258.0 ], [ -19.4691, 63.67618, 258.0 ], [ -19.46907, 63.6762, 258.0 ], [ -19.46901, 63.67623, 258.0 ], [ -19.46894, 63.67627, 259.0 ], [ -19.46889, 63.67631, 259.0 ], [ -19.46885, 63.67636, 260.0 ], [ -19.46882, 63.6764, 260.0 ], [ -19.46883, 63.67641, 260.0 ], [ -19.46881, 63.67645, 260.0 ], [ -19.4688, 63.6765, 260.0 ], [ -19.46877, 63.67654, 261.0 ], [ -19.46866, 63.67655, 262.0 ], [ -19.46857, 63.67653, 262.0 ], [ -19.46848, 63.67651, 263.0 ], [ -19.46847, 63.6765, 263.0 ], [ -19.46846, 63.6765, 263.0 ], [ -19.46836, 63.6765, 264.0 ], [ -19.46826, 63.67651, 265.0 ], [ -19.46815, 63.6765, 266.0 ], [ -19.46805, 63.67649, 267.0 ], [ -19.46796, 63.67647, 268.0 ], [ -19.46794, 63.67646, 268.0 ], [ -19.46785, 63.67644, 269.0 ], [ -19.46776, 63.67642, 270.0 ], [ -19.46767, 63.67639, 270.0 ], [ -19.46757, 63.67638, 271.0 ], [ -19.46747, 63.6764, 272.0 ], [ -19.46745, 63.6764, 273.0 ], [ -19.46743, 63.6764, 273.0 ], [ -19.46732, 63.6764, 274.0 ], [ -19.46722, 63.6764, 275.0 ], [ -19.46711, 63.6764, 277.0 ], [ -19.46702, 63.67638, 278.0 ], [ -19.46696, 63.67637, 278.0 ], [ -19.46685, 63.67637, 280.0 ], [ -19.46675, 63.67637, 281.0 ], [ -19.46664, 63.67636, 282.0 ], [ -19.46655, 63.67633, 283.0 ], [ -19.46646, 63.67631, 285.0 ], [ -19.46638, 63.67628, 286.0 ], [ -19.46635, 63.67627, 286.0 ], [ -19.46626, 63.67624, 288.0 ], [ -19.46616, 63.67624, 290.0 ], [ -19.46606, 63.67624, 291.0 ], [ -19.46598, 63.6762, 293.0 ], [ -19.46591, 63.67618, 295.0 ], [ -19.46581, 63.67617, 297.0 ], [ -19.46571, 63.67616, 299.0 ], [ -19.4656, 63.67615, 300.0 ], [ -19.4655, 63.67615, 301.0 ], [ -19.46539, 63.67615, 303.0 ], [ -19.46529, 63.67614, 305.0 ], [ -19.4652, 63.67613, 306.0 ], [ -19.46519, 63.67613, 306.0 ], [ -19.46509, 63.67612, 308.0 ], [ -19.46498, 63.67612, 309.0 ], [ -19.46488, 63.67614, 310.0 ], [ -19.46478, 63.67616, 311.0 ], [ -19.46468, 63.67618, 311.0 ], [ -19.46458, 63.67618, 312.0 ], [ -19.46457, 63.67618, 312.0 ], [ -19.46447, 63.67618, 313.0 ], [ -19.46436, 63.67618, 315.0 ], [ -19.46425, 63.67618, 316.0 ], [ -19.46415, 63.67619, 317.0 ], [ -19.46404, 63.67618, 320.0 ], [ -19.46396, 63.67617, 322.0 ], [ -19.46395, 63.67617, 322.0 ], [ -19.46385, 63.67617, 324.0 ], [ -19.46375, 63.67615, 327.0 ], [ -19.46365, 63.67613, 330.0 ], [ -19.46357, 63.6761, 333.0 ], [ -19.46347, 63.67608, 336.0 ], [ -19.46337, 63.67607, 338.0 ], [ -19.46329, 63.67604, 341.0 ], [ -19.46328, 63.67604, 341.0 ], [ -19.46326, 63.676, 343.0 ], [ -19.4633, 63.67595, 344.0 ], [ -19.46326, 63.67591, 347.0 ], [ -19.46319, 63.67587, 350.0 ], [ -19.46312, 63.67584, 352.0 ], [ -19.46311, 63.67583, 352.0 ], [ -19.4631, 63.67578, 349.0 ], [ -19.46308, 63.67574, 346.0 ], [ -19.46301, 63.6757, 344.0 ], [ -19.46291, 63.67573, 348.0 ], [ -19.46285, 63.67576, 351.0 ], [ -19.4628, 63.6758, 355.0 ], [ -19.46275, 63.67584, 359.0 ], [ -19.46266, 63.67586, 359.0 ], [ -19.46257, 63.67589, 359.0 ], [ -19.46247, 63.67591, 360.0 ], [ -19.46237, 63.67592, 360.0 ], [ -19.46226, 63.67591, 361.0 ], [ -19.46222, 63.6759, 362.0 ], [ -19.46222, 63.67591, 362.0 ], [ -19.46212, 63.67591, 362.0 ], [ -19.46202, 63.67592, 363.0 ], [ -19.46192, 63.67593, 363.0 ], [ -19.46184, 63.67596, 362.0 ], [ -19.4618, 63.67597, 362.0 ], [ -19.4617, 63.67599, 362.0 ], [ -19.46161, 63.67601, 362.0 ], [ -19.4615, 63.67602, 362.0 ], [ -19.4614, 63.67603, 362.0 ], [ -19.4613, 63.67602, 363.0 ], [ -19.46119, 63.67602, 364.0 ], [ -19.46114, 63.67601, 365.0 ], [ -19.46104, 63.67601, 365.0 ], [ -19.46095, 63.67604, 365.0 ], [ -19.46084, 63.67605, 365.0 ], [ -19.46074, 63.67604, 367.0 ], [ -19.4607, 63.67603, 367.0 ], [ -19.46069, 63.67603, 367.0 ], [ -19.46059, 63.67602, 368.0 ], [ -19.46049, 63.67601, 369.0 ], [ -19.4604, 63.67599, 371.0 ], [ -19.46036, 63.67594, 372.0 ], [ -19.46032, 63.6759, 374.0 ], [ -19.4603, 63.67588, 374.0 ], [ -19.46023, 63.67584, 376.0 ], [ -19.46013, 63.67582, 375.0 ], [ -19.46005, 63.67579, 373.0 ], [ -19.45997, 63.67576, 371.0 ], [ -19.45992, 63.67574, 369.0 ], [ -19.45986, 63.67575, 370.0 ], [ -19.4599, 63.67563, 359.0 ], [ -19.45995, 63.67554, 351.0 ], [ -19.45989, 63.6755, 347.0 ], [ -19.4598, 63.67547, 344.0 ], [ -19.45989, 63.6755, 347.0 ], [ -19.45995, 63.67554, 351.0 ], [ -19.4599, 63.67563, 359.0 ], [ -19.45986, 63.67575, 370.0 ], [ -19.45973, 63.67577, 373.0 ], [ -19.45971, 63.67577, 373.0 ], [ -19.45962, 63.67579, 375.0 ], [ -19.45953, 63.67582, 378.0 ], [ -19.45943, 63.67583, 380.0 ], [ -19.45932, 63.67583, 381.0 ], [ -19.45922, 63.67584, 381.0 ], [ -19.45915, 63.67585, 381.0 ], [ -19.45857, 63.676, 384.0 ], [ -19.45818, 63.67603, 387.0 ], [ -19.45816, 63.67603, 387.0 ], [ -19.45806, 63.67602, 387.0 ], [ -19.45795, 63.67602, 388.0 ], [ -19.45784, 63.67603, 388.0 ], [ -19.45776, 63.67601, 388.0 ], [ -19.4577, 63.67599, 388.0 ], [ -19.4576, 63.67598, 388.0 ], [ -19.45749, 63.67598, 388.0 ], [ -19.45739, 63.67598, 389.0 ], [ -19.4573, 63.67595, 389.0 ], [ -19.45721, 63.67593, 389.0 ], [ -19.45717, 63.67591, 389.0 ], [ -19.45716, 63.67591, 389.0 ], [ -19.45708, 63.67589, 389.0 ], [ -19.45698, 63.67587, 389.0 ], [ -19.45687, 63.67587, 390.0 ], [ -19.45677, 63.67587, 390.0 ], [ -19.45666, 63.67586, 391.0 ], [ -19.45657, 63.67584, 391.0 ], [ -19.45655, 63.67584, 391.0 ], [ -19.45645, 63.67583, 392.0 ], [ -19.45634, 63.67583, 393.0 ], [ -19.45624, 63.67581, 393.0 ], [ -19.45614, 63.67579, 392.0 ], [ -19.45604, 63.67579, 393.0 ], [ -19.45593, 63.67577, 393.0 ], [ -19.45585, 63.67576, 393.0 ], [ -19.45583, 63.67576, 393.0 ], [ -19.45573, 63.67575, 395.0 ], [ -19.45562, 63.67575, 397.0 ], [ -19.45553, 63.67573, 398.0 ], [ -19.45544, 63.6757, 398.0 ], [ -19.45536, 63.67567, 399.0 ], [ -19.45529, 63.67564, 399.0 ], [ -19.45527, 63.67563, 398.0 ], [ -19.45524, 63.67562, 399.0 ], [ -19.45516, 63.6756, 399.0 ], [ -19.45508, 63.67557, 399.0 ], [ -19.45502, 63.67553, 399.0 ], [ -19.45501, 63.67553, 399.0 ], [ -19.45493, 63.6755, 398.0 ], [ -19.45484, 63.67548, 399.0 ], [ -19.45478, 63.67544, 398.0 ], [ -19.45474, 63.6754, 396.0 ], [ -19.45471, 63.67535, 394.0 ], [ -19.45469, 63.67531, 393.0 ], [ -19.45469, 63.6753, 392.0 ], [ -19.45465, 63.67526, 391.0 ], [ -19.45461, 63.67522, 390.0 ], [ -19.45461, 63.67517, 387.0 ], [ -19.45466, 63.67513, 385.0 ], [ -19.45469, 63.67509, 383.0 ], [ -19.45468, 63.67504, 380.0 ], [ -19.45458, 63.67504, 382.0 ], [ -19.45448, 63.67504, 384.0 ], [ -19.45445, 63.67503, 383.0 ], [ -19.45444, 63.67503, 384.0 ], [ -19.45434, 63.67505, 386.0 ], [ -19.45428, 63.67509, 389.0 ], [ -19.45418, 63.6751, 391.0 ], [ -19.45409, 63.67508, 391.0 ], [ -19.45401, 63.67506, 392.0 ], [ -19.45393, 63.67503, 392.0 ], [ -19.45392, 63.67502, 391.0 ], [ -19.45385, 63.67499, 392.0 ], [ -19.45378, 63.67495, 393.0 ], [ -19.45372, 63.67492, 393.0 ], [ -19.45365, 63.67489, 394.0 ], [ -19.45358, 63.67485, 395.0 ], [ -19.45357, 63.67485, 395.0 ], [ -19.45326, 63.67473, 399.0 ], [ -19.45291, 63.67458, 401.0 ], [ -19.45257, 63.6745, 403.0 ], [ -19.45211, 63.67438, 403.0 ], [ -19.45142, 63.67424, 402.0 ], [ -19.45062, 63.67409, 398.0 ], [ -19.45061, 63.67408, 397.0 ], [ -19.45054, 63.67405, 396.0 ], [ -19.45049, 63.67401, 396.0 ], [ -19.45038, 63.67401, 395.0 ], [ -19.45028, 63.67401, 394.0 ], [ -19.45019, 63.67399, 393.0 ], [ -19.45015, 63.67398, 393.0 ], [ -19.45013, 63.67398, 392.0 ], [ -19.45003, 63.67396, 391.0 ], [ -19.44993, 63.67395, 390.0 ], [ -19.44982, 63.67394, 389.0 ], [ -19.44972, 63.67394, 388.0 ], [ -19.44962, 63.67392, 387.0 ], [ -19.44953, 63.6739, 386.0 ], [ -19.44944, 63.67388, 385.0 ], [ -19.44934, 63.67387, 383.0 ], [ -19.44925, 63.67384, 383.0 ], [ -19.44918, 63.67381, 382.0 ], [ -19.4491, 63.67378, 381.0 ], [ -19.44902, 63.67375, 380.0 ], [ -19.44901, 63.67374, 380.0 ], [ -19.44894, 63.6737, 379.0 ], [ -19.4489, 63.67366, 379.0 ], [ -19.44886, 63.67361, 379.0 ], [ -19.44882, 63.67358, 378.0 ], [ -19.44875, 63.67354, 378.0 ], [ -19.44865, 63.67352, 377.0 ], [ -19.44856, 63.6735, 377.0 ], [ -19.44845, 63.6735, 375.0 ], [ -19.44839, 63.6735, 375.0 ], [ -19.44838, 63.6735, 375.0 ], [ -19.44827, 63.6735, 374.0 ], [ -19.44816, 63.6735, 373.0 ], [ -19.44806, 63.6735, 372.0 ], [ -19.44796, 63.67351, 371.0 ], [ -19.44786, 63.67349, 371.0 ], [ -19.44778, 63.67348, 370.0 ], [ -19.44767, 63.67348, 369.0 ], [ -19.44756, 63.67346, 369.0 ], [ -19.44747, 63.67344, 368.0 ], [ -19.4474, 63.67342, 368.0 ], [ -19.44737, 63.67342, 368.0 ], [ -19.4473, 63.67338, 368.0 ], [ -19.44724, 63.67335, 368.0 ], [ -19.4472, 63.6733, 369.0 ], [ -19.44715, 63.67326, 370.0 ], [ -19.4471, 63.67322, 371.0 ], [ -19.44705, 63.67318, 372.0 ], [ -19.447, 63.67314, 373.0 ], [ -19.44692, 63.67311, 374.0 ], [ -19.44683, 63.67308, 374.0 ], [ -19.44676, 63.67305, 375.0 ], [ -19.44667, 63.67302, 375.0 ], [ -19.4466, 63.67301, 375.0 ], [ -19.44652, 63.67298, 376.0 ], [ -19.44645, 63.67294, 378.0 ], [ -19.44637, 63.67291, 378.0 ], [ -19.44631, 63.67287, 379.0 ], [ -19.4463, 63.67286, 380.0 ], [ -19.4457, 63.67258, 383.0 ], [ -19.44569, 63.67258, 383.0 ], [ -19.44563, 63.67254, 383.0 ], [ -19.44557, 63.6725, 383.0 ], [ -19.44549, 63.67247, 383.0 ], [ -19.4454, 63.67245, 383.0 ], [ -19.44539, 63.67245, 383.0 ], [ -19.44529, 63.67244, 383.0 ], [ -19.44519, 63.67243, 382.0 ], [ -19.44509, 63.67242, 382.0 ], [ -19.44498, 63.67241, 382.0 ], [ -19.44488, 63.67241, 382.0 ], [ -19.44477, 63.6724, 382.0 ], [ -19.44466, 63.67239, 382.0 ], [ -19.44399, 63.67228, 386.0 ], [ -19.4439, 63.67222, 388.0 ], [ -19.44383, 63.6722, 389.0 ], [ -19.44366, 63.67215, 391.0 ], [ -19.4436, 63.67188, 394.0 ], [ -19.44353, 63.67183, 395.0 ], [ -19.44354, 63.67178, 395.0 ], [ -19.44356, 63.67176, 395.0 ], [ -19.4438, 63.67173, 395.0 ], [ -19.44395, 63.67163, 395.0 ], [ -19.44393, 63.67155, 395.0 ], [ -19.44392, 63.67155, 395.0 ], [ -19.44391, 63.6715, 396.0 ], [ -19.44389, 63.67146, 396.0 ], [ -19.44384, 63.67141, 396.0 ], [ -19.44378, 63.67138, 396.0 ], [ -19.4437, 63.67135, 396.0 ], [ -19.44368, 63.67134, 396.0 ], [ -19.44358, 63.67135, 396.0 ], [ -19.44352, 63.67139, 396.0 ], [ -19.44341, 63.6714, 396.0 ], [ -19.44331, 63.6714, 397.0 ], [ -19.4433, 63.6714, 397.0 ], [ -19.4432, 63.67142, 397.0 ], [ -19.4431, 63.67143, 397.0 ], [ -19.443, 63.67141, 397.0 ], [ -19.44294, 63.67141, 397.0 ], [ -19.44284, 63.67143, 398.0 ], [ -19.44276, 63.67146, 398.0 ], [ -19.44267, 63.67148, 398.0 ], [ -19.44258, 63.6715, 398.0 ], [ -19.44257, 63.6715, 398.0 ], [ -19.44246, 63.6715, 399.0 ], [ -19.44236, 63.6715, 400.0 ], [ -19.44225, 63.6715, 402.0 ], [ -19.44222, 63.6715, 402.0 ], [ -19.44218, 63.67154, 403.0 ], [ -19.4422, 63.67159, 402.0 ], [ -19.44222, 63.67162, 402.0 ], [ -19.44226, 63.67168, 402.0 ], [ -19.44223, 63.67175, 403.0 ], [ -19.4422, 63.67178, 404.0 ], [ -19.44217, 63.6718, 405.0 ], [ -19.44208, 63.67185, 407.0 ], [ -19.44194, 63.67185, 409.0 ], [ -19.44179, 63.6718, 411.0 ], [ -19.44166, 63.67175, 412.0 ], [ -19.44156, 63.67171, 416.0 ], [ -19.44145, 63.67165, 421.0 ], [ -19.44143, 63.67165, 422.0 ], [ -19.44133, 63.67163, 426.0 ], [ -19.44123, 63.67162, 431.0 ], [ -19.44113, 63.67161, 436.0 ], [ -19.44103, 63.67159, 441.0 ], [ -19.44093, 63.67159, 446.0 ], [ -19.44082, 63.67159, 451.0 ], [ -19.44071, 63.6716, 457.0 ], [ -19.44061, 63.67161, 461.0 ], [ -19.44055, 63.67161, 464.0 ], [ -19.44054, 63.67161, 465.0 ], [ -19.44043, 63.67162, 470.0 ], [ -19.44033, 63.67162, 475.0 ], [ -19.44023, 63.67162, 480.0 ], [ -19.44014, 63.67159, 485.0 ], [ -19.44009, 63.67158, 487.0 ], [ -19.43969, 63.67148, 501.0 ], [ -19.43929, 63.67142, 512.0 ], [ -19.43901, 63.67133, 518.0 ], [ -19.43899, 63.67132, 519.0 ], [ -19.43889, 63.67132, 520.0 ], [ -19.43879, 63.6713, 522.0 ], [ -19.43868, 63.67129, 524.0 ], [ -19.43858, 63.67128, 526.0 ], [ -19.43848, 63.67126, 528.0 ], [ -19.43838, 63.67124, 530.0 ], [ -19.43828, 63.67122, 531.0 ], [ -19.43824, 63.6712, 531.0 ], [ -19.43823, 63.6712, 531.0 ], [ -19.43813, 63.67118, 532.0 ], [ -19.43803, 63.67117, 533.0 ], [ -19.43794, 63.67114, 534.0 ], [ -19.43785, 63.67112, 534.0 ], [ -19.43777, 63.6711, 535.0 ], [ -19.43767, 63.67108, 536.0 ], [ -19.43758, 63.67106, 537.0 ], [ -19.43748, 63.67104, 538.0 ], [ -19.43738, 63.67103, 539.0 ], [ -19.43729, 63.67101, 539.0 ], [ -19.43721, 63.67099, 539.0 ], [ -19.43711, 63.67099, 540.0 ], [ -19.437, 63.67098, 540.0 ], [ -19.4369, 63.67096, 541.0 ], [ -19.4368, 63.67096, 542.0 ], [ -19.43674, 63.67095, 542.0 ], [ -19.43672, 63.67095, 542.0 ], [ -19.43662, 63.67094, 542.0 ], [ -19.43653, 63.67091, 543.0 ], [ -19.43644, 63.67088, 543.0 ], [ -19.43635, 63.67086, 544.0 ], [ -19.43626, 63.67084, 544.0 ], [ -19.43616, 63.67083, 545.0 ], [ -19.43607, 63.67081, 545.0 ], [ -19.43599, 63.67078, 545.0 ], [ -19.4359, 63.67075, 546.0 ], [ -19.43588, 63.67075, 546.0 ], [ -19.43586, 63.67075, 546.0 ], [ -19.43576, 63.67073, 546.0 ], [ -19.43566, 63.67071, 547.0 ], [ -19.43556, 63.67069, 547.0 ], [ -19.43547, 63.67067, 547.0 ], [ -19.4354, 63.67065, 547.0 ], [ -19.43467, 63.67049, 550.0 ], [ -19.43465, 63.67049, 550.0 ], [ -19.43455, 63.67048, 551.0 ], [ -19.43445, 63.67047, 551.0 ], [ -19.43435, 63.67046, 552.0 ], [ -19.43424, 63.67045, 552.0 ], [ -19.43414, 63.67043, 553.0 ], [ -19.43405, 63.67041, 553.0 ], [ -19.43397, 63.6704, 553.0 ], [ -19.43388, 63.67037, 554.0 ], [ -19.43378, 63.67036, 554.0 ], [ -19.43368, 63.67035, 554.0 ], [ -19.43357, 63.67034, 555.0 ], [ -19.43347, 63.67033, 555.0 ], [ -19.43344, 63.67032, 555.0 ], [ -19.43295, 63.67023, 558.0 ], [ -19.43249, 63.6701, 561.0 ], [ -19.43196, 63.66996, 561.0 ], [ -19.43145, 63.6698, 562.0 ], [ -19.43112, 63.66967, 562.0 ], [ -19.43082, 63.66952, 563.0 ], [ -19.43046, 63.66932, 565.0 ], [ -19.43004, 63.66907, 567.0 ], [ -19.42985, 63.66892, 569.0 ], [ -19.42954, 63.66861, 573.0 ], [ -19.42906, 63.6683, 578.0 ], [ -19.42895, 63.66818, 580.0 ], [ -19.42885, 63.66804, 583.0 ], [ -19.42868, 63.66796, 584.0 ], [ -19.42847, 63.6679, 586.0 ], [ -19.42842, 63.66786, 587.0 ], [ -19.4284, 63.66781, 588.0 ], [ -19.42842, 63.66777, 588.0 ], [ -19.42845, 63.66772, 589.0 ], [ -19.42846, 63.66768, 589.0 ], [ -19.42847, 63.66763, 590.0 ], [ -19.42847, 63.66758, 591.0 ], [ -19.42846, 63.66754, 591.0 ], [ -19.42844, 63.66744, 593.0 ], [ -19.42852, 63.66728, 595.0 ], [ -19.42843, 63.66701, 600.0 ], [ -19.42842, 63.66701, 600.0 ], [ -19.42843, 63.66696, 600.0 ], [ -19.42844, 63.66691, 601.0 ], [ -19.42842, 63.66687, 602.0 ], [ -19.4284, 63.66682, 603.0 ], [ -19.4284, 63.66681, 603.0 ], [ -19.42841, 63.66677, 604.0 ], [ -19.42841, 63.66672, 604.0 ], [ -19.42838, 63.66668, 605.0 ], [ -19.42836, 63.66663, 606.0 ], [ -19.42836, 63.66658, 606.0 ], [ -19.42836, 63.66657, 606.0 ], [ -19.42837, 63.66652, 606.0 ], [ -19.42841, 63.66648, 606.0 ], [ -19.42843, 63.66644, 606.0 ], [ -19.42844, 63.6664, 606.0 ], [ -19.42843, 63.66635, 606.0 ], [ -19.42841, 63.66631, 606.0 ], [ -19.42839, 63.66626, 607.0 ], [ -19.42836, 63.66622, 607.0 ], [ -19.42834, 63.66618, 607.0 ], [ -19.42824, 63.66609, 608.0 ], [ -19.42812, 63.66603, 609.0 ], [ -19.42785, 63.66595, 610.0 ], [ -19.42758, 63.66585, 612.0 ], [ -19.4272, 63.66586, 614.0 ], [ -19.42701, 63.66577, 615.0 ], [ -19.42699, 63.66567, 617.0 ], [ -19.42709, 63.66551, 618.0 ], [ -19.42706, 63.66521, 621.0 ], [ -19.42723, 63.66507, 621.0 ], [ -19.42722, 63.66494, 622.0 ], [ -19.42721, 63.66494, 622.0 ], [ -19.4272, 63.66489, 623.0 ], [ -19.4272, 63.66484, 623.0 ], [ -19.42721, 63.6648, 623.0 ], [ -19.42723, 63.66475, 623.0 ], [ -19.42724, 63.6647, 624.0 ], [ -19.42723, 63.66466, 624.0 ], [ -19.42721, 63.66461, 624.0 ], [ -19.4272, 63.66461, 624.0 ], [ -19.4272, 63.66446, 625.0 ], [ -19.42725, 63.66437, 626.0 ], [ -19.42753, 63.66429, 625.0 ], [ -19.42769, 63.66419, 624.0 ], [ -19.42776, 63.66385, 632.0 ], [ -19.42777, 63.66385, 632.0 ], [ -19.42775, 63.6638, 633.0 ], [ -19.42769, 63.66376, 635.0 ], [ -19.42765, 63.66372, 636.0 ], [ -19.42765, 63.66367, 637.0 ], [ -19.42767, 63.66363, 638.0 ], [ -19.42762, 63.66359, 639.0 ], [ -19.42757, 63.66355, 641.0 ], [ -19.42756, 63.66354, 641.0 ], [ -19.42754, 63.6635, 642.0 ], [ -19.42749, 63.66346, 643.0 ], [ -19.4274, 63.66343, 645.0 ], [ -19.42731, 63.6634, 646.0 ], [ -19.42722, 63.66338, 647.0 ], [ -19.42719, 63.66336, 648.0 ], [ -19.42717, 63.66336, 648.0 ], [ -19.42714, 63.66332, 649.0 ], [ -19.42713, 63.66327, 650.0 ], [ -19.4271, 63.66322, 651.0 ], [ -19.42703, 63.66319, 653.0 ], [ -19.42693, 63.66319, 653.0 ], [ -19.42687, 63.66318, 654.0 ], [ -19.42687, 63.66314, 655.0 ], [ -19.42682, 63.6631, 656.0 ], [ -19.42672, 63.66309, 657.0 ], [ -19.42661, 63.6631, 657.0 ], [ -19.42653, 63.66307, 659.0 ], [ -19.42652, 63.66302, 660.0 ], [ -19.42652, 63.66301, 660.0 ], [ -19.42652, 63.6629, 662.0 ], [ -19.42634, 63.66264, 669.0 ], [ -19.42633, 63.66264, 669.0 ], [ -19.42631, 63.66259, 670.0 ], [ -19.42626, 63.66255, 671.0 ], [ -19.42622, 63.6625, 673.0 ], [ -19.42622, 63.66246, 673.0 ], [ -19.42623, 63.66241, 674.0 ], [ -19.42624, 63.66236, 674.0 ], [ -19.42623, 63.66236, 674.0 ], [ -19.42624, 63.66231, 675.0 ], [ -19.42626, 63.66227, 675.0 ], [ -19.42624, 63.66222, 676.0 ], [ -19.42619, 63.66218, 677.0 ], [ -19.42618, 63.66217, 677.0 ], [ -19.42607, 63.66208, 679.0 ], [ -19.42596, 63.66182, 683.0 ], [ -19.42583, 63.66163, 687.0 ], [ -19.4257, 63.66144, 692.0 ], [ -19.42559, 63.66125, 696.0 ], [ -19.42552, 63.66112, 699.0 ], [ -19.42548, 63.66082, 704.0 ], [ -19.42537, 63.66061, 709.0 ], [ -19.42545, 63.66035, 713.0 ], [ -19.42531, 63.66004, 719.0 ], [ -19.42544, 63.6597, 727.0 ], [ -19.42545, 63.6597, 727.0 ], [ -19.42549, 63.65966, 728.0 ], [ -19.42558, 63.65963, 728.0 ], [ -19.42563, 63.65959, 729.0 ], [ -19.42565, 63.65955, 730.0 ], [ -19.4257, 63.65951, 731.0 ], [ -19.42576, 63.65949, 731.0 ], [ -19.42586, 63.65947, 731.0 ], [ -19.42595, 63.65945, 731.0 ], [ -19.42603, 63.65942, 732.0 ], [ -19.42612, 63.6594, 733.0 ], [ -19.42603, 63.65937, 734.0 ], [ -19.42592, 63.65937, 733.0 ], [ -19.42581, 63.65937, 734.0 ], [ -19.42571, 63.65937, 734.0 ], [ -19.42562, 63.65934, 736.0 ], [ -19.42557, 63.6593, 737.0 ], [ -19.42556, 63.65926, 739.0 ], [ -19.4256, 63.65923, 739.0 ], [ -19.42561, 63.65923, 739.0 ], [ -19.42561, 63.65908, 745.0 ], [ -19.42554, 63.65896, 751.0 ], [ -19.42561, 63.65879, 759.0 ], [ -19.42554, 63.65871, 763.0 ], [ -19.42557, 63.65866, 765.0 ], [ -19.42562, 63.65856, 770.0 ], [ -19.4255, 63.65844, 776.0 ], [ -19.42579, 63.65818, 785.0 ], [ -19.42583, 63.65798, 790.0 ], [ -19.42594, 63.65783, 794.0 ], [ -19.42599, 63.65775, 796.0 ], [ -19.42604, 63.65762, 799.0 ], [ -19.42632, 63.6573, 804.0 ], [ -19.42643, 63.65712, 806.0 ], [ -19.42647, 63.65696, 808.0 ], [ -19.42671, 63.65663, 811.0 ], [ -19.42683, 63.6565, 812.0 ], [ -19.42693, 63.65631, 814.0 ], [ -19.42719, 63.65603, 816.0 ], [ -19.42728, 63.6559, 817.0 ], [ -19.42733, 63.6557, 818.0 ], [ -19.42746, 63.65542, 819.0 ], [ -19.42762, 63.65508, 820.0 ], [ -19.42779, 63.65473, 821.0 ], [ -19.42786, 63.65456, 821.0 ], [ -19.42805, 63.65438, 821.0 ], [ -19.42806, 63.6542, 821.0 ], [ -19.42817, 63.65394, 821.0 ], [ -19.42823, 63.65382, 821.0 ], [ -19.42824, 63.65382, 821.0 ], [ -19.42829, 63.65378, 821.0 ], [ -19.42831, 63.65374, 821.0 ], [ -19.42829, 63.65369, 821.0 ], [ -19.42829, 63.65364, 821.0 ], [ -19.42831, 63.6536, 821.0 ], [ -19.42833, 63.65356, 821.0 ], [ -19.42839, 63.65344, 820.0 ], [ -19.42853, 63.65314, 823.0 ], [ -19.42861, 63.65298, 824.0 ], [ -19.42862, 63.65298, 824.0 ], [ -19.42866, 63.65293, 825.0 ], [ -19.42869, 63.65288, 826.0 ], [ -19.42871, 63.65284, 826.0 ], [ -19.42874, 63.65279, 827.0 ], [ -19.42874, 63.65274, 827.0 ], [ -19.42875, 63.6527, 828.0 ], [ -19.42876, 63.65268, 828.0 ], [ -19.42888, 63.65245, 831.0 ], [ -19.42892, 63.65236, 832.0 ], [ -19.429, 63.65219, 835.0 ], [ -19.42901, 63.65218, 835.0 ], [ -19.42901, 63.65213, 835.0 ], [ -19.42903, 63.65209, 836.0 ], [ -19.42905, 63.65204, 837.0 ], [ -19.4291, 63.652, 837.0 ], [ -19.42914, 63.65196, 838.0 ], [ -19.42917, 63.65191, 839.0 ], [ -19.42919, 63.65187, 839.0 ], [ -19.42919, 63.65182, 840.0 ], [ -19.4293, 63.65159, 843.0 ], [ -19.42932, 63.65158, 843.0 ], [ -19.42932, 63.65153, 843.0 ], [ -19.42933, 63.65148, 843.0 ], [ -19.42934, 63.65144, 843.0 ], [ -19.42937, 63.65139, 843.0 ], [ -19.42938, 63.65138, 843.0 ], [ -19.4294, 63.65137, 843.0 ], [ -19.42941, 63.65132, 844.0 ], [ -19.42945, 63.65128, 844.0 ], [ -19.42947, 63.65123, 844.0 ], [ -19.42949, 63.65119, 844.0 ], [ -19.4295, 63.65114, 844.0 ], [ -19.4295, 63.65112, 844.0 ], [ -19.42951, 63.65108, 844.0 ], [ -19.42953, 63.65103, 844.0 ], [ -19.42954, 63.65098, 845.0 ], [ -19.42956, 63.65094, 845.0 ], [ -19.4296, 63.6509, 845.0 ], [ -19.42962, 63.65086, 845.0 ], [ -19.42975, 63.65062, 844.0 ], [ -19.42974, 63.65061, 844.0 ], [ -19.42976, 63.65057, 844.0 ], [ -19.4298, 63.65053, 844.0 ], [ -19.42984, 63.65048, 844.0 ], [ -19.42988, 63.65044, 843.0 ], [ -19.4299, 63.65039, 843.0 ], [ -19.42992, 63.65035, 843.0 ], [ -19.42996, 63.6503, 843.0 ], [ -19.42998, 63.65026, 842.0 ], [ -19.42999, 63.65025, 842.0 ], [ -19.43034, 63.64995, 833.0 ], [ -19.43034, 63.64982, 833.0 ], [ -19.43034, 63.6498, 833.0 ], [ -19.43039, 63.64976, 831.0 ], [ -19.43047, 63.64973, 829.0 ], [ -19.43053, 63.64969, 827.0 ], [ -19.43049, 63.64965, 828.0 ], [ -19.43048, 63.6496, 828.0 ], [ -19.43049, 63.64956, 827.0 ], [ -19.43054, 63.64952, 826.0 ], [ -19.43058, 63.64947, 824.0 ], [ -19.4306, 63.64943, 823.0 ], [ -19.4306, 63.64938, 823.0 ], [ -19.4306, 63.64933, 822.0 ], [ -19.4306, 63.6493, 822.0 ], [ -19.43059, 63.64916, 821.0 ], [ -19.43065, 63.64893, 820.0 ], [ -19.43066, 63.64892, 820.0 ], [ -19.43067, 63.6489, 820.0 ], [ -19.43069, 63.6489, 819.0 ], [ -19.43076, 63.64886, 817.0 ], [ -19.43088, 63.64884, 814.0 ], [ -19.43096, 63.64877, 812.0 ], [ -19.43099, 63.64875, 811.0 ], [ -19.43151, 63.64859, 796.0 ], [ -19.43222, 63.64822, 789.0 ], [ -19.43261, 63.64809, 788.0 ], [ -19.43271, 63.64791, 792.0 ], [ -19.43304, 63.64782, 792.0 ], [ -19.43313, 63.64777, 793.0 ], [ -19.43314, 63.64777, 793.0 ], [ -19.43329, 63.6477, 794.0 ], [ -19.43345, 63.64759, 797.0 ], [ -19.43377, 63.64748, 801.0 ], [ -19.43397, 63.64749, 800.0 ], [ -19.43414, 63.64746, 801.0 ], [ -19.43445, 63.64727, 808.0 ], [ -19.43467, 63.64722, 810.0 ], [ -19.43495, 63.64704, 816.0 ], [ -19.43501, 63.647, 817.0 ], [ -19.43506, 63.64696, 819.0 ], [ -19.4351, 63.64692, 820.0 ], [ -19.43514, 63.64687, 822.0 ], [ -19.43519, 63.64683, 823.0 ], [ -19.43527, 63.6468, 825.0 ], [ -19.43533, 63.64676, 826.0 ], [ -19.43539, 63.64673, 827.0 ], [ -19.43547, 63.6467, 828.0 ], [ -19.43557, 63.64669, 829.0 ], [ -19.43566, 63.64667, 829.0 ], [ -19.43568, 63.64664, 831.0 ], [ -19.43571, 63.64659, 833.0 ], [ -19.43577, 63.64655, 836.0 ], [ -19.43585, 63.64652, 837.0 ], [ -19.43594, 63.6465, 839.0 ], [ -19.43603, 63.64647, 841.0 ], [ -19.43611, 63.64645, 843.0 ], [ -19.43614, 63.6464, 845.0 ], [ -19.43614, 63.64636, 848.0 ], [ -19.43615, 63.64631, 850.0 ], [ -19.43621, 63.64627, 853.0 ], [ -19.43623, 63.64626, 854.0 ], [ -19.43625, 63.64625, 854.0 ], [ -19.43635, 63.64624, 856.0 ], [ -19.43643, 63.64621, 858.0 ], [ -19.43644, 63.64616, 861.0 ], [ -19.43651, 63.64613, 864.0 ], [ -19.4366, 63.6461, 866.0 ], [ -19.43661, 63.64605, 869.0 ], [ -19.43663, 63.64601, 872.0 ], [ -19.43671, 63.64598, 875.0 ], [ -19.43679, 63.64595, 878.0 ], [ -19.43684, 63.6459, 882.0 ], [ -19.43685, 63.64589, 882.0 ], [ -19.43688, 63.64584, 886.0 ], [ -19.43692, 63.6458, 888.0 ], [ -19.43697, 63.64576, 890.0 ], [ -19.4369, 63.64572, 890.0 ], [ -19.43689, 63.64567, 891.0 ], [ -19.43689, 63.64562, 892.0 ], [ -19.43686, 63.64558, 893.0 ], [ -19.43685, 63.64557, 893.0 ], [ -19.43679, 63.64554, 893.0 ], [ -19.43681, 63.64547, 895.0 ], [ -19.43672, 63.64542, 895.0 ], [ -19.4367, 63.64532, 898.0 ], [ -19.43669, 63.6453, 898.0 ], [ -19.43668, 63.64531, 898.0 ], [ -19.43665, 63.64526, 899.0 ], [ -19.43663, 63.64522, 900.0 ], [ -19.43663, 63.64517, 901.0 ], [ -19.43664, 63.64513, 903.0 ], [ -19.43669, 63.64509, 904.0 ], [ -19.43678, 63.64506, 906.0 ], [ -19.43688, 63.64506, 906.0 ], [ -19.43697, 63.64503, 908.0 ], [ -19.43698, 63.64501, 908.0 ], [ -19.43701, 63.64497, 910.0 ], [ -19.43705, 63.64493, 913.0 ], [ -19.4371, 63.64488, 916.0 ], [ -19.43715, 63.64484, 919.0 ], [ -19.4372, 63.6448, 921.0 ], [ -19.43719, 63.64479, 922.0 ], [ -19.43718, 63.64475, 924.0 ], [ -19.43718, 63.6447, 926.0 ], [ -19.4372, 63.64466, 929.0 ], [ -19.43726, 63.64462, 932.0 ], [ -19.43733, 63.64458, 935.0 ], [ -19.43734, 63.64457, 936.0 ], [ -19.43739, 63.64453, 939.0 ], [ -19.4374, 63.64449, 941.0 ], [ -19.43741, 63.64444, 945.0 ], [ -19.43741, 63.6444, 947.0 ], [ -19.43741, 63.64439, 947.0 ], [ -19.43741, 63.64434, 950.0 ], [ -19.43744, 63.6443, 953.0 ], [ -19.43745, 63.64425, 957.0 ], [ -19.43748, 63.6442, 960.0 ], [ -19.43748, 63.64419, 961.0 ], [ -19.43752, 63.64414, 963.0 ], [ -19.4376, 63.64411, 965.0 ], [ -19.43767, 63.64407, 967.0 ], [ -19.43776, 63.64406, 968.0 ], [ -19.43786, 63.64404, 969.0 ], [ -19.43794, 63.64401, 971.0 ], [ -19.43802, 63.64397, 972.0 ], [ -19.43804, 63.64395, 973.0 ], [ -19.4381, 63.64391, 975.0 ], [ -19.43815, 63.64387, 976.0 ], [ -19.43814, 63.64383, 977.0 ], [ -19.43805, 63.6438, 977.0 ], [ -19.438, 63.64376, 977.0 ], [ -19.43797, 63.64372, 978.0 ], [ -19.43797, 63.6437, 979.0 ], [ -19.43791, 63.64366, 979.0 ], [ -19.4379, 63.64361, 980.0 ], [ -19.4379, 63.64357, 981.0 ], [ -19.43794, 63.64352, 983.0 ], [ -19.43794, 63.64348, 984.0 ], [ -19.43802, 63.64345, 985.0 ], [ -19.43811, 63.64342, 987.0 ], [ -19.43817, 63.6434, 988.0 ], [ -19.43826, 63.64337, 989.0 ], [ -19.43834, 63.64334, 990.0 ], [ -19.43842, 63.64331, 991.0 ], [ -19.4385, 63.64328, 992.0 ], [ -19.43851, 63.64324, 993.0 ], [ -19.43851, 63.64319, 993.0 ], [ -19.43851, 63.64318, 993.0 ], [ -19.43854, 63.64313, 994.0 ], [ -19.4386, 63.64309, 995.0 ], [ -19.43864, 63.64305, 995.0 ], [ -19.43869, 63.64301, 996.0 ], [ -19.43875, 63.64297, 997.0 ], [ -19.43881, 63.64294, 997.0 ], [ -19.43889, 63.6429, 998.0 ], [ -19.43897, 63.64288, 998.0 ], [ -19.43906, 63.64285, 999.0 ], [ -19.43908, 63.64285, 999.0 ], [ -19.43909, 63.64284, 999.0 ], [ -19.43915, 63.64275, 1000.0 ], [ -19.43918, 63.6425, 1001.0 ], [ -19.43914, 63.64224, 1002.0 ], [ -19.43916, 63.64224, 1002.0 ], [ -19.43916, 63.64219, 1002.0 ], [ -19.43916, 63.64214, 1002.0 ], [ -19.43916, 63.64209, 1002.0 ], [ -19.43916, 63.64205, 1002.0 ], [ -19.43916, 63.642, 1002.0 ], [ -19.43916, 63.64196, 1002.0 ], [ -19.43917, 63.64191, 1002.0 ], [ -19.43918, 63.64186, 1002.0 ], [ -19.43918, 63.64181, 1002.0 ], [ -19.43918, 63.64179, 1002.0 ], [ -19.43906, 63.64169, 1002.0 ], [ -19.43891, 63.64154, 1003.0 ], [ -19.43861, 63.6414, 1004.0 ], [ -19.43839, 63.64122, 1005.0 ], [ -19.4381, 63.64096, 1006.0 ], [ -19.43809, 63.6408, 1007.0 ], [ -19.43837, 63.64063, 1008.0 ], [ -19.43845, 63.64059, 1008.0 ], [ -19.43862, 63.64051, 1008.0 ], [ -19.43878, 63.64042, 1009.0 ], [ -19.43906, 63.64036, 1009.0 ], [ -19.4394, 63.6403, 1009.0 ], [ -19.43982, 63.64018, 1010.0 ], [ -19.44041, 63.64013, 1009.0 ], [ -19.44065, 63.64013, 1009.0 ], [ -19.44067, 63.64013, 1009.0 ], [ -19.44077, 63.64013, 1009.0 ], [ -19.44087, 63.64012, 1009.0 ], [ -19.44098, 63.64012, 1009.0 ], [ -19.44108, 63.64013, 1009.0 ], [ -19.44119, 63.64013, 1009.0 ], [ -19.4413, 63.64014, 1009.0 ], [ -19.4414, 63.64015, 1008.0 ], [ -19.44144, 63.64015, 1008.0 ], [ -19.44155, 63.64015, 1008.0 ], [ -19.44166, 63.64016, 1008.0 ], [ -19.44176, 63.64017, 1008.0 ], [ -19.44186, 63.64018, 1008.0 ], [ -19.44197, 63.64019, 1008.0 ], [ -19.44207, 63.64019, 1008.0 ], [ -19.44218, 63.6402, 1008.0 ], [ -19.4422, 63.64021, 1008.0 ], [ -19.4423, 63.64021, 1008.0 ], [ -19.44241, 63.64022, 1008.0 ], [ -19.44252, 63.64022, 1008.0 ], [ -19.44263, 63.64022, 1008.0 ], [ -19.44273, 63.64022, 1008.0 ], [ -19.44283, 63.64022, 1008.0 ], [ -19.44294, 63.64022, 1007.0 ], [ -19.44297, 63.64022, 1007.0 ], [ -19.44299, 63.64022, 1007.0 ], [ -19.4431, 63.64021, 1007.0 ], [ -19.4432, 63.64021, 1007.0 ], [ -19.4433, 63.6402, 1007.0 ], [ -19.44341, 63.6402, 1007.0 ], [ -19.44352, 63.6402, 1007.0 ], [ -19.44363, 63.6402, 1007.0 ], [ -19.44374, 63.6402, 1007.0 ], [ -19.44383, 63.6402, 1006.0 ], [ -19.44383, 63.64019, 1006.0 ], [ -19.44409, 63.64018, 1006.0 ], [ -19.44464, 63.64004, 1006.0 ], [ -19.44466, 63.64003, 1006.0 ], [ -19.44475, 63.64001, 1006.0 ], [ -19.44482, 63.63998, 1006.0 ], [ -19.44489, 63.63995, 1006.0 ], [ -19.44498, 63.63992, 1006.0 ], [ -19.44508, 63.63991, 1006.0 ], [ -19.44518, 63.63989, 1006.0 ], [ -19.44522, 63.63984, 1006.0 ], [ -19.44521, 63.6398, 1006.0 ], [ -19.44522, 63.63975, 1006.0 ], [ -19.44526, 63.63971, 1006.0 ], [ -19.44529, 63.63967, 1006.0 ], [ -19.44531, 63.63965, 1006.0 ], [ -19.44532, 63.63961, 1006.0 ], [ -19.44531, 63.63956, 1006.0 ], [ -19.4453, 63.63952, 1006.0 ], [ -19.44531, 63.63947, 1006.0 ], [ -19.44533, 63.63943, 1006.0 ], [ -19.44533, 63.63941, 1007.0 ], [ -19.44531, 63.63936, 1007.0 ], [ -19.44531, 63.63931, 1007.0 ], [ -19.44527, 63.63927, 1007.0 ], [ -19.44517, 63.63926, 1007.0 ], [ -19.44507, 63.63925, 1007.0 ], [ -19.44498, 63.63923, 1007.0 ], [ -19.44491, 63.63921, 1008.0 ], [ -19.4449, 63.63921, 1008.0 ], [ -19.44483, 63.63917, 1008.0 ], [ -19.44475, 63.63914, 1008.0 ], [ -19.44467, 63.63911, 1008.0 ], [ -19.44461, 63.63908, 1008.0 ], [ -19.44454, 63.63904, 1008.0 ], [ -19.44448, 63.63902, 1008.0 ], [ -19.44439, 63.63899, 1009.0 ], [ -19.44432, 63.63896, 1009.0 ], [ -19.44424, 63.63893, 1009.0 ], [ -19.44417, 63.63889, 1009.0 ], [ -19.44409, 63.63886, 1009.0 ], [ -19.44404, 63.63884, 1009.0 ], [ -19.44395, 63.63882, 1010.0 ], [ -19.44385, 63.6388, 1010.0 ], [ -19.44376, 63.63877, 1010.0 ], [ -19.44367, 63.63875, 1010.0 ], [ -19.4436, 63.63871, 1010.0 ], [ -19.44354, 63.63867, 1010.0 ], [ -19.44347, 63.63864, 1011.0 ], [ -19.44343, 63.63862, 1011.0 ], [ -19.44341, 63.63862, 1011.0 ], [ -19.44334, 63.63858, 1011.0 ], [ -19.44328, 63.63854, 1011.0 ], [ -19.44321, 63.63851, 1011.0 ], [ -19.44313, 63.63847, 1011.0 ], [ -19.44312, 63.63847, 1011.0 ], [ -19.44311, 63.63847, 1011.0 ], [ -19.44305, 63.63843, 1012.0 ], [ -19.44301, 63.63839, 1012.0 ], [ -19.44296, 63.63835, 1012.0 ], [ -19.44294, 63.63833, 1012.0 ], [ -19.44287, 63.63829, 1012.0 ], [ -19.44282, 63.63825, 1012.0 ], [ -19.44278, 63.63821, 1012.0 ], [ -19.44271, 63.63817, 1013.0 ], [ -19.44264, 63.63814, 1013.0 ], [ -19.44258, 63.6381, 1013.0 ], [ -19.44254, 63.63806, 1013.0 ], [ -19.4425, 63.63803, 1013.0 ], [ -19.44248, 63.63802, 1013.0 ], [ -19.44244, 63.63798, 1013.0 ], [ -19.44239, 63.63794, 1014.0 ], [ -19.44236, 63.63789, 1014.0 ], [ -19.44235, 63.63785, 1014.0 ], [ -19.44233, 63.63784, 1014.0 ], [ -19.44228, 63.6378, 1014.0 ], [ -19.4422, 63.63777, 1014.0 ], [ -19.44214, 63.63773, 1014.0 ], [ -19.44212, 63.63769, 1014.0 ], [ -19.44211, 63.63764, 1015.0 ], [ -19.44206, 63.6376, 1015.0 ], [ -19.44204, 63.63756, 1015.0 ], [ -19.44204, 63.63754, 1015.0 ], [ -19.44204, 63.63749, 1015.0 ], [ -19.44205, 63.63745, 1015.0 ], [ -19.44205, 63.6374, 1015.0 ], [ -19.44207, 63.63736, 1015.0 ], [ -19.44212, 63.63732, 1015.0 ], [ -19.44217, 63.63728, 1015.0 ], [ -19.4422, 63.63727, 1015.0 ], [ -19.44221, 63.63726, 1015.0 ], [ -19.44226, 63.63722, 1015.0 ], [ -19.44232, 63.63718, 1015.0 ], [ -19.44239, 63.63714, 1015.0 ], [ -19.44248, 63.63711, 1015.0 ], [ -19.44257, 63.63709, 1015.0 ], [ -19.44265, 63.63707, 1015.0 ], [ -19.44267, 63.63705, 1015.0 ], [ -19.44271, 63.637, 1015.0 ], [ -19.44274, 63.63696, 1016.0 ], [ -19.44277, 63.63691, 1016.0 ], [ -19.44281, 63.63687, 1016.0 ], [ -19.44286, 63.63683, 1016.0 ], [ -19.44293, 63.63679, 1016.0 ], [ -19.44289, 63.63675, 1016.0 ], [ -19.44283, 63.63671, 1016.0 ], [ -19.44281, 63.63667, 1016.0 ], [ -19.4428, 63.63666, 1016.0 ], [ -19.4429, 63.63665, 1016.0 ], [ -19.44301, 63.63665, 1016.0 ], [ -19.44311, 63.63665, 1016.0 ], [ -19.44321, 63.63665, 1016.0 ], [ -19.44331, 63.63666, 1016.0 ], [ -19.44341, 63.63667, 1015.0 ], [ -19.44352, 63.63669, 1015.0 ], [ -19.44357, 63.6367, 1015.0 ], [ -19.44365, 63.63673, 1015.0 ], [ -19.44375, 63.63675, 1015.0 ], [ -19.44382, 63.63678, 1015.0 ], [ -19.44383, 63.63683, 1015.0 ], [ -19.44384, 63.63688, 1014.0 ], [ -19.44384, 63.63693, 1014.0 ], [ -19.44384, 63.63697, 1014.0 ], [ -19.44385, 63.63702, 1014.0 ], [ -19.44384, 63.63707, 1014.0 ], [ -19.44382, 63.63711, 1014.0 ], [ -19.44381, 63.63716, 1014.0 ], [ -19.44381, 63.63721, 1014.0 ], [ -19.44385, 63.63726, 1013.0 ], [ -19.4439, 63.6373, 1013.0 ], [ -19.44395, 63.63734, 1013.0 ], [ -19.44403, 63.63736, 1013.0 ], [ -19.44403, 63.63735, 1013.0 ], [ -19.44403, 63.63736, 1013.0 ], [ -19.44403, 63.63735, 1013.0 ], [ -19.44403, 63.63736, 1013.0 ], [ -19.44395, 63.63734, 1013.0 ], [ -19.4439, 63.6373, 1013.0 ], [ -19.44385, 63.63726, 1013.0 ], [ -19.44381, 63.63721, 1014.0 ], [ -19.44381, 63.63716, 1014.0 ], [ -19.44382, 63.63711, 1014.0 ], [ -19.44384, 63.63707, 1014.0 ], [ -19.44385, 63.63702, 1014.0 ], [ -19.44384, 63.63697, 1014.0 ], [ -19.44384, 63.63693, 1014.0 ], [ -19.44384, 63.63688, 1014.0 ], [ -19.44383, 63.63683, 1015.0 ], [ -19.44382, 63.63678, 1015.0 ], [ -19.44375, 63.63675, 1015.0 ], [ -19.44365, 63.63673, 1015.0 ], [ -19.44357, 63.6367, 1015.0 ], [ -19.44352, 63.63669, 1015.0 ], [ -19.44341, 63.63667, 1015.0 ], [ -19.44331, 63.63666, 1016.0 ], [ -19.44321, 63.63665, 1016.0 ], [ -19.44311, 63.63665, 1016.0 ], [ -19.44301, 63.63665, 1016.0 ], [ -19.4429, 63.63665, 1016.0 ], [ -19.4428, 63.63666, 1016.0 ], [ -19.44281, 63.63667, 1016.0 ], [ -19.44283, 63.63671, 1016.0 ], [ -19.44289, 63.63675, 1016.0 ], [ -19.44293, 63.63679, 1016.0 ], [ -19.44286, 63.63683, 1016.0 ], [ -19.44281, 63.63687, 1016.0 ], [ -19.44277, 63.63691, 1016.0 ], [ -19.44274, 63.63696, 1016.0 ], [ -19.44271, 63.637, 1015.0 ], [ -19.44267, 63.63705, 1015.0 ], [ -19.44265, 63.63707, 1015.0 ], [ -19.44257, 63.63709, 1015.0 ], [ -19.44248, 63.63711, 1015.0 ], [ -19.44239, 63.63714, 1015.0 ], [ -19.44232, 63.63718, 1015.0 ], [ -19.44226, 63.63722, 1015.0 ], [ -19.44221, 63.63726, 1015.0 ], [ -19.4422, 63.63727, 1015.0 ], [ -19.44217, 63.63728, 1015.0 ], [ -19.44212, 63.63732, 1015.0 ], [ -19.44207, 63.63736, 1015.0 ], [ -19.44205, 63.6374, 1015.0 ], [ -19.44205, 63.63745, 1015.0 ], [ -19.44204, 63.63749, 1015.0 ], [ -19.44204, 63.63754, 1015.0 ], [ -19.44204, 63.63756, 1015.0 ], [ -19.44206, 63.6376, 1015.0 ], [ -19.44211, 63.63764, 1015.0 ], [ -19.44212, 63.63769, 1014.0 ], [ -19.44214, 63.63773, 1014.0 ], [ -19.4422, 63.63777, 1014.0 ], [ -19.44228, 63.6378, 1014.0 ], [ -19.44233, 63.63784, 1014.0 ], [ -19.44235, 63.63785, 1014.0 ], [ -19.44236, 63.63789, 1014.0 ], [ -19.44239, 63.63794, 1014.0 ], [ -19.44244, 63.63798, 1013.0 ], [ -19.44248, 63.63802, 1013.0 ], [ -19.4425, 63.63803, 1013.0 ], [ -19.44254, 63.63806, 1013.0 ], [ -19.44258, 63.6381, 1013.0 ], [ -19.44264, 63.63814, 1013.0 ], [ -19.44271, 63.63817, 1013.0 ], [ -19.44278, 63.63821, 1012.0 ], [ -19.44282, 63.63825, 1012.0 ], [ -19.44287, 63.63829, 1012.0 ], [ -19.44294, 63.63833, 1012.0 ], [ -19.44296, 63.63835, 1012.0 ], [ -19.44301, 63.63839, 1012.0 ], [ -19.44305, 63.63843, 1012.0 ], [ -19.44311, 63.63847, 1011.0 ], [ -19.44312, 63.63847, 1011.0 ], [ -19.44313, 63.63847, 1011.0 ], [ -19.44321, 63.63851, 1011.0 ], [ -19.44328, 63.63854, 1011.0 ], [ -19.44334, 63.63858, 1011.0 ], [ -19.44341, 63.63862, 1011.0 ], [ -19.44343, 63.63862, 1011.0 ], [ -19.44347, 63.63864, 1011.0 ], [ -19.44354, 63.63867, 1010.0 ], [ -19.4436, 63.63871, 1010.0 ], [ -19.44367, 63.63875, 1010.0 ], [ -19.44376, 63.63877, 1010.0 ], [ -19.44385, 63.6388, 1010.0 ], [ -19.44395, 63.63882, 1010.0 ], [ -19.44404, 63.63884, 1009.0 ], [ -19.44409, 63.63886, 1009.0 ], [ -19.44417, 63.63889, 1009.0 ], [ -19.44424, 63.63893, 1009.0 ], [ -19.44432, 63.63896, 1009.0 ], [ -19.44439, 63.63899, 1009.0 ], [ -19.44448, 63.63902, 1008.0 ], [ -19.44454, 63.63904, 1008.0 ], [ -19.44461, 63.63908, 1008.0 ], [ -19.44467, 63.63911, 1008.0 ], [ -19.44475, 63.63914, 1008.0 ], [ -19.44483, 63.63917, 1008.0 ], [ -19.4449, 63.63921, 1008.0 ], [ -19.44491, 63.63921, 1008.0 ], [ -19.44498, 63.63923, 1007.0 ], [ -19.44507, 63.63925, 1007.0 ], [ -19.44517, 63.63926, 1007.0 ], [ -19.44527, 63.63927, 1007.0 ], [ -19.44531, 63.63931, 1007.0 ], [ -19.44531, 63.63936, 1007.0 ], [ -19.44533, 63.63941, 1007.0 ], [ -19.44533, 63.63943, 1006.0 ], [ -19.44531, 63.63947, 1006.0 ], [ -19.4453, 63.63952, 1006.0 ], [ -19.44531, 63.63956, 1006.0 ], [ -19.44532, 63.63961, 1006.0 ], [ -19.44531, 63.63965, 1006.0 ], [ -19.44529, 63.63967, 1006.0 ], [ -19.44526, 63.63971, 1006.0 ], [ -19.44522, 63.63975, 1006.0 ], [ -19.44521, 63.6398, 1006.0 ], [ -19.44522, 63.63984, 1006.0 ], [ -19.44518, 63.63989, 1006.0 ], [ -19.44508, 63.63991, 1006.0 ], [ -19.44498, 63.63992, 1006.0 ], [ -19.44489, 63.63995, 1006.0 ], [ -19.44482, 63.63998, 1006.0 ], [ -19.44475, 63.64001, 1006.0 ], [ -19.44466, 63.64003, 1006.0 ], [ -19.44464, 63.64004, 1006.0 ], [ -19.44409, 63.64018, 1006.0 ], [ -19.44383, 63.64019, 1006.0 ], [ -19.44383, 63.6402, 1006.0 ], [ -19.44374, 63.6402, 1007.0 ], [ -19.44363, 63.6402, 1007.0 ], [ -19.44352, 63.6402, 1007.0 ], [ -19.44341, 63.6402, 1007.0 ], [ -19.4433, 63.6402, 1007.0 ], [ -19.4432, 63.64021, 1007.0 ], [ -19.4431, 63.64021, 1007.0 ], [ -19.44299, 63.64022, 1007.0 ], [ -19.44297, 63.64022, 1007.0 ], [ -19.44294, 63.64022, 1007.0 ], [ -19.44283, 63.64022, 1008.0 ], [ -19.44273, 63.64022, 1008.0 ], [ -19.44263, 63.64022, 1008.0 ], [ -19.44252, 63.64022, 1008.0 ], [ -19.44241, 63.64022, 1008.0 ], [ -19.4423, 63.64021, 1008.0 ], [ -19.4422, 63.64021, 1008.0 ], [ -19.44218, 63.6402, 1008.0 ], [ -19.44207, 63.64019, 1008.0 ], [ -19.44197, 63.64019, 1008.0 ], [ -19.44186, 63.64018, 1008.0 ], [ -19.44176, 63.64017, 1008.0 ], [ -19.44166, 63.64016, 1008.0 ], [ -19.44155, 63.64015, 1008.0 ], [ -19.44144, 63.64015, 1008.0 ], [ -19.4414, 63.64015, 1008.0 ], [ -19.4413, 63.64014, 1009.0 ], [ -19.44119, 63.64013, 1009.0 ], [ -19.44108, 63.64013, 1009.0 ], [ -19.44098, 63.64012, 1009.0 ], [ -19.44087, 63.64012, 1009.0 ], [ -19.44077, 63.64013, 1009.0 ], [ -19.44067, 63.64013, 1009.0 ], [ -19.44065, 63.64013, 1009.0 ], [ -19.44041, 63.64013, 1009.0 ], [ -19.43982, 63.64018, 1010.0 ], [ -19.4394, 63.6403, 1009.0 ], [ -19.43906, 63.64036, 1009.0 ], [ -19.43878, 63.64042, 1009.0 ], [ -19.43862, 63.64051, 1008.0 ], [ -19.43837, 63.64063, 1008.0 ], [ -19.43809, 63.6408, 1007.0 ], [ -19.4381, 63.64096, 1006.0 ], [ -19.43839, 63.64122, 1005.0 ], [ -19.43861, 63.6414, 1004.0 ], [ -19.43891, 63.64154, 1003.0 ], [ -19.43906, 63.64169, 1002.0 ], [ -19.43918, 63.64179, 1002.0 ], [ -19.43918, 63.64181, 1002.0 ], [ -19.43918, 63.64186, 1002.0 ], [ -19.43917, 63.64191, 1002.0 ], [ -19.43916, 63.64196, 1002.0 ], [ -19.43916, 63.642, 1002.0 ], [ -19.43916, 63.64205, 1002.0 ], [ -19.43916, 63.64209, 1002.0 ], [ -19.43916, 63.64214, 1002.0 ], [ -19.43916, 63.64219, 1002.0 ], [ -19.43916, 63.64224, 1002.0 ], [ -19.43914, 63.64224, 1002.0 ], [ -19.43918, 63.6425, 1001.0 ], [ -19.43915, 63.64275, 1000.0 ], [ -19.43909, 63.64284, 999.0 ], [ -19.43908, 63.64285, 999.0 ], [ -19.43906, 63.64285, 999.0 ], [ -19.43897, 63.64288, 998.0 ], [ -19.43889, 63.6429, 998.0 ], [ -19.43881, 63.64294, 997.0 ], [ -19.43875, 63.64297, 997.0 ], [ -19.43869, 63.64301, 996.0 ], [ -19.43864, 63.64305, 995.0 ], [ -19.4386, 63.64309, 995.0 ], [ -19.43854, 63.64313, 994.0 ], [ -19.43851, 63.64318, 993.0 ], [ -19.43851, 63.64319, 993.0 ], [ -19.43851, 63.64324, 993.0 ], [ -19.4385, 63.64328, 992.0 ], [ -19.43842, 63.64331, 991.0 ], [ -19.43834, 63.64334, 990.0 ], [ -19.43826, 63.64337, 989.0 ], [ -19.43817, 63.6434, 988.0 ], [ -19.43811, 63.64342, 987.0 ], [ -19.43802, 63.64345, 985.0 ], [ -19.43794, 63.64348, 984.0 ], [ -19.43794, 63.64352, 983.0 ], [ -19.4379, 63.64357, 981.0 ], [ -19.4379, 63.64361, 980.0 ], [ -19.43791, 63.64366, 979.0 ], [ -19.43797, 63.6437, 979.0 ], [ -19.43797, 63.64372, 978.0 ], [ -19.438, 63.64376, 977.0 ], [ -19.43805, 63.6438, 977.0 ], [ -19.43814, 63.64383, 977.0 ], [ -19.43815, 63.64387, 976.0 ], [ -19.4381, 63.64391, 975.0 ], [ -19.43804, 63.64395, 973.0 ], [ -19.43802, 63.64397, 972.0 ], [ -19.43794, 63.64401, 971.0 ], [ -19.43786, 63.64404, 969.0 ], [ -19.43776, 63.64406, 968.0 ], [ -19.43767, 63.64407, 967.0 ], [ -19.4376, 63.64411, 965.0 ], [ -19.43752, 63.64414, 963.0 ], [ -19.43748, 63.64419, 961.0 ], [ -19.43748, 63.6442, 960.0 ], [ -19.43745, 63.64425, 957.0 ], [ -19.43744, 63.6443, 953.0 ], [ -19.43741, 63.64434, 950.0 ], [ -19.43741, 63.64439, 947.0 ], [ -19.43741, 63.6444, 947.0 ], [ -19.43741, 63.64444, 945.0 ], [ -19.4374, 63.64449, 941.0 ], [ -19.43739, 63.64453, 939.0 ], [ -19.43734, 63.64457, 936.0 ], [ -19.43733, 63.64458, 935.0 ], [ -19.43726, 63.64462, 932.0 ], [ -19.4372, 63.64466, 929.0 ], [ -19.43718, 63.6447, 926.0 ], [ -19.43718, 63.64475, 924.0 ], [ -19.43719, 63.64479, 922.0 ], [ -19.4372, 63.6448, 921.0 ], [ -19.43715, 63.64484, 919.0 ], [ -19.4371, 63.64488, 916.0 ], [ -19.43705, 63.64493, 913.0 ], [ -19.43701, 63.64497, 910.0 ], [ -19.43698, 63.64501, 908.0 ], [ -19.43697, 63.64503, 908.0 ], [ -19.43688, 63.64506, 906.0 ], [ -19.43678, 63.64506, 906.0 ], [ -19.43669, 63.64509, 904.0 ], [ -19.43664, 63.64513, 903.0 ], [ -19.43663, 63.64517, 901.0 ], [ -19.43663, 63.64522, 900.0 ], [ -19.43665, 63.64526, 899.0 ], [ -19.43668, 63.64531, 898.0 ], [ -19.43669, 63.6453, 898.0 ], [ -19.4367, 63.64532, 898.0 ], [ -19.43672, 63.64542, 895.0 ], [ -19.43681, 63.64547, 895.0 ], [ -19.43679, 63.64554, 893.0 ], [ -19.43685, 63.64557, 893.0 ], [ -19.43686, 63.64558, 893.0 ], [ -19.43689, 63.64562, 892.0 ], [ -19.43689, 63.64567, 891.0 ], [ -19.4369, 63.64572, 890.0 ], [ -19.43697, 63.64576, 890.0 ], [ -19.43692, 63.6458, 888.0 ], [ -19.43688, 63.64584, 886.0 ], [ -19.43685, 63.64589, 882.0 ], [ -19.43684, 63.6459, 882.0 ], [ -19.43679, 63.64595, 878.0 ], [ -19.43671, 63.64598, 875.0 ], [ -19.43663, 63.64601, 872.0 ], [ -19.43661, 63.64605, 869.0 ], [ -19.4366, 63.6461, 866.0 ], [ -19.43651, 63.64613, 864.0 ], [ -19.43644, 63.64616, 861.0 ], [ -19.43643, 63.64621, 858.0 ], [ -19.43635, 63.64624, 856.0 ], [ -19.43625, 63.64625, 854.0 ], [ -19.43623, 63.64626, 854.0 ], [ -19.43621, 63.64627, 853.0 ], [ -19.43615, 63.64631, 850.0 ], [ -19.43614, 63.64636, 848.0 ], [ -19.43614, 63.6464, 845.0 ], [ -19.43611, 63.64645, 843.0 ], [ -19.43603, 63.64647, 841.0 ], [ -19.43594, 63.6465, 839.0 ], [ -19.43585, 63.64652, 837.0 ], [ -19.43577, 63.64655, 836.0 ], [ -19.43571, 63.64659, 833.0 ], [ -19.43568, 63.64664, 831.0 ], [ -19.43566, 63.64667, 829.0 ], [ -19.43557, 63.64669, 829.0 ], [ -19.43547, 63.6467, 828.0 ], [ -19.43539, 63.64673, 827.0 ], [ -19.43533, 63.64676, 826.0 ], [ -19.43527, 63.6468, 825.0 ], [ -19.43519, 63.64683, 823.0 ], [ -19.43514, 63.64687, 822.0 ], [ -19.4351, 63.64692, 820.0 ], [ -19.43506, 63.64696, 819.0 ], [ -19.43501, 63.647, 817.0 ], [ -19.43495, 63.64704, 816.0 ], [ -19.43467, 63.64722, 810.0 ], [ -19.43445, 63.64727, 808.0 ], [ -19.43414, 63.64746, 801.0 ], [ -19.43397, 63.64749, 800.0 ], [ -19.43377, 63.64748, 801.0 ], [ -19.43345, 63.64759, 797.0 ], [ -19.43329, 63.6477, 794.0 ], [ -19.43304, 63.64782, 792.0 ], [ -19.43271, 63.64791, 792.0 ], [ -19.43261, 63.64809, 788.0 ], [ -19.43222, 63.64822, 789.0 ], [ -19.43151, 63.64859, 796.0 ], [ -19.43127, 63.64866, 803.0 ], [ -19.4312, 63.64868, 805.0 ], [ -19.4312, 63.64869, 805.0 ], [ -19.43119, 63.64873, 805.0 ], [ -19.4312, 63.64873, 805.0 ], [ -19.43125, 63.64877, 803.0 ], [ -19.43124, 63.64877, 804.0 ], [ -19.4313, 63.64881, 802.0 ], [ -19.43131, 63.64882, 802.0 ], [ -19.43138, 63.64885, 799.0 ], [ -19.43144, 63.64889, 798.0 ], [ -19.43145, 63.64889, 797.0 ], [ -19.43153, 63.64892, 795.0 ], [ -19.43163, 63.64893, 792.0 ], [ -19.43172, 63.6489, 790.0 ], [ -19.43175, 63.6489, 789.0 ], [ -19.43185, 63.64891, 786.0 ], [ -19.4319, 63.64894, 785.0 ], [ -19.43196, 63.64898, 783.0 ], [ -19.43207, 63.64898, 780.0 ], [ -19.43209, 63.64898, 779.0 ], [ -19.43211, 63.64898, 779.0 ], [ -19.4322, 63.64896, 777.0 ], [ -19.43229, 63.64896, 774.0 ], [ -19.43241, 63.64896, 771.0 ], [ -19.43251, 63.64896, 768.0 ], [ -19.43263, 63.64896, 766.0 ], [ -19.43273, 63.64896, 764.0 ], [ -19.43283, 63.64897, 762.0 ], [ -19.43293, 63.64895, 761.0 ], [ -19.43303, 63.64894, 759.0 ], [ -19.43313, 63.64894, 757.0 ], [ -19.43323, 63.64895, 755.0 ], [ -19.43334, 63.64896, 752.0 ], [ -19.43341, 63.64897, 751.0 ], [ -19.43351, 63.64898, 748.0 ], [ -19.4336, 63.64901, 746.0 ], [ -19.4337, 63.64903, 743.0 ], [ -19.43381, 63.64903, 741.0 ], [ -19.43391, 63.64903, 739.0 ], [ -19.43402, 63.64903, 737.0 ], [ -19.43411, 63.64906, 733.0 ], [ -19.43419, 63.64908, 731.0 ], [ -19.4343, 63.6491, 728.0 ], [ -19.43436, 63.64911, 726.0 ], [ -19.43438, 63.64911, 726.0 ], [ -19.43445, 63.64915, 722.0 ], [ -19.43447, 63.64919, 720.0 ], [ -19.43454, 63.64923, 718.0 ], [ -19.43465, 63.64923, 716.0 ], [ -19.43475, 63.64926, 713.0 ], [ -19.43484, 63.64928, 711.0 ], [ -19.43492, 63.6493, 710.0 ], [ -19.43492, 63.64935, 709.0 ], [ -19.43492, 63.6494, 708.0 ], [ -19.43493, 63.64945, 707.0 ], [ -19.43498, 63.64949, 706.0 ], [ -19.43504, 63.64953, 705.0 ], [ -19.43511, 63.64956, 705.0 ], [ -19.43518, 63.6496, 704.0 ], [ -19.43525, 63.64963, 704.0 ], [ -19.43533, 63.64966, 703.0 ], [ -19.43539, 63.64967, 703.0 ], [ -19.43549, 63.64969, 702.0 ], [ -19.43557, 63.64972, 702.0 ], [ -19.43566, 63.64974, 701.0 ], [ -19.43576, 63.64976, 701.0 ], [ -19.43586, 63.64978, 700.0 ], [ -19.43595, 63.6498, 700.0 ], [ -19.43606, 63.64982, 700.0 ], [ -19.43615, 63.64984, 700.0 ], [ -19.43618, 63.64985, 700.0 ], [ -19.43625, 63.64988, 700.0 ], [ -19.43636, 63.6499, 699.0 ], [ -19.43646, 63.64992, 699.0 ], [ -19.43655, 63.64996, 698.0 ], [ -19.43662, 63.64999, 698.0 ], [ -19.43671, 63.65001, 698.0 ], [ -19.43679, 63.65004, 699.0 ], [ -19.43687, 63.65007, 700.0 ], [ -19.43689, 63.65008, 700.0 ], [ -19.43692, 63.65009, 701.0 ], [ -19.43699, 63.65012, 701.0 ], [ -19.43706, 63.65016, 703.0 ], [ -19.43715, 63.65019, 703.0 ], [ -19.43724, 63.65022, 704.0 ], [ -19.43733, 63.65023, 704.0 ], [ -19.43743, 63.65025, 705.0 ], [ -19.43754, 63.65026, 705.0 ], [ -19.43763, 63.65028, 705.0 ], [ -19.43773, 63.6503, 706.0 ], [ -19.43783, 63.65032, 706.0 ], [ -19.43794, 63.65034, 706.0 ], [ -19.43796, 63.65034, 706.0 ], [ -19.43807, 63.65035, 706.0 ], [ -19.43817, 63.65037, 706.0 ], [ -19.43828, 63.65038, 706.0 ], [ -19.43837, 63.65036, 706.0 ], [ -19.43847, 63.65036, 706.0 ], [ -19.43858, 63.65036, 705.0 ], [ -19.4387, 63.65036, 705.0 ], [ -19.4388, 63.65036, 705.0 ], [ -19.4389, 63.65034, 705.0 ], [ -19.439, 63.65032, 704.0 ], [ -19.43908, 63.6503, 704.0 ], [ -19.43914, 63.65026, 703.0 ], [ -19.43919, 63.65022, 703.0 ], [ -19.43928, 63.65019, 702.0 ], [ -19.4393, 63.65018, 702.0 ], [ -19.43941, 63.65018, 702.0 ], [ -19.43951, 63.65016, 702.0 ], [ -19.43959, 63.65013, 701.0 ], [ -19.43969, 63.65011, 701.0 ], [ -19.43979, 63.65008, 701.0 ], [ -19.4399, 63.65006, 701.0 ], [ -19.44, 63.65006, 701.0 ], [ -19.44011, 63.65007, 701.0 ], [ -19.44022, 63.65008, 701.0 ], [ -19.44032, 63.65009, 701.0 ], [ -19.44043, 63.65009, 702.0 ], [ -19.44054, 63.65009, 702.0 ], [ -19.44057, 63.65009, 702.0 ], [ -19.44058, 63.65011, 702.0 ], [ -19.44069, 63.65012, 702.0 ], [ -19.44079, 63.65014, 702.0 ], [ -19.4409, 63.65015, 702.0 ], [ -19.441, 63.65015, 702.0 ], [ -19.44112, 63.65015, 703.0 ], [ -19.44122, 63.65017, 702.0 ], [ -19.44132, 63.65019, 702.0 ], [ -19.44141, 63.65021, 702.0 ], [ -19.4415, 63.65024, 701.0 ], [ -19.44158, 63.65027, 700.0 ], [ -19.44162, 63.65028, 700.0 ], [ -19.44171, 63.65031, 699.0 ], [ -19.44179, 63.65035, 698.0 ], [ -19.44188, 63.65038, 697.0 ], [ -19.44199, 63.65039, 697.0 ], [ -19.4421, 63.6504, 697.0 ], [ -19.44218, 63.65044, 696.0 ], [ -19.44225, 63.65047, 695.0 ], [ -19.44236, 63.65049, 694.0 ], [ -19.44246, 63.65051, 693.0 ], [ -19.44255, 63.65053, 693.0 ], [ -19.44265, 63.65055, 692.0 ], [ -19.44275, 63.65057, 691.0 ], [ -19.44286, 63.65056, 692.0 ], [ -19.44287, 63.65056, 692.0 ], [ -19.44291, 63.65056, 692.0 ], [ -19.44296, 63.65052, 694.0 ], [ -19.44305, 63.65049, 696.0 ], [ -19.44316, 63.65049, 696.0 ], [ -19.44327, 63.65049, 696.0 ], [ -19.44337, 63.65049, 696.0 ], [ -19.44347, 63.65048, 697.0 ], [ -19.44357, 63.65047, 698.0 ], [ -19.44366, 63.65044, 700.0 ], [ -19.44375, 63.65042, 701.0 ], [ -19.44385, 63.6504, 703.0 ], [ -19.44395, 63.6504, 703.0 ], [ -19.44396, 63.6504, 703.0 ], [ -19.44407, 63.6504, 703.0 ], [ -19.44417, 63.6504, 704.0 ], [ -19.44428, 63.65039, 704.0 ], [ -19.44438, 63.65038, 705.0 ], [ -19.44444, 63.65034, 708.0 ], [ -19.4445, 63.6503, 711.0 ], [ -19.4446, 63.6503, 711.0 ], [ -19.4447, 63.65032, 711.0 ], [ -19.44479, 63.65035, 709.0 ], [ -19.44488, 63.65038, 707.0 ], [ -19.44497, 63.6504, 706.0 ], [ -19.44507, 63.65042, 705.0 ], [ -19.44512, 63.65042, 705.0 ], [ -19.44521, 63.65044, 704.0 ], [ -19.44529, 63.65047, 702.0 ], [ -19.44538, 63.65049, 701.0 ], [ -19.44548, 63.6505, 700.0 ], [ -19.44556, 63.65053, 698.0 ], [ -19.44562, 63.65057, 695.0 ], [ -19.44569, 63.65061, 692.0 ], [ -19.44574, 63.65064, 690.0 ], [ -19.44583, 63.65067, 688.0 ], [ -19.4459, 63.6507, 686.0 ], [ -19.44596, 63.65074, 683.0 ], [ -19.446, 63.65079, 679.0 ], [ -19.44608, 63.65082, 677.0 ], [ -19.44617, 63.65085, 675.0 ], [ -19.44625, 63.65088, 673.0 ], [ -19.44627, 63.65093, 670.0 ], [ -19.44626, 63.65098, 667.0 ], [ -19.44626, 63.65099, 667.0 ], [ -19.44626, 63.65104, 664.0 ], [ -19.44625, 63.65108, 661.0 ], [ -19.44623, 63.65113, 658.0 ], [ -19.44615, 63.65116, 657.0 ], [ -19.44605, 63.65115, 658.0 ], [ -19.44603, 63.6512, 655.0 ], [ -19.44604, 63.65125, 652.0 ], [ -19.44611, 63.65129, 650.0 ], [ -19.44617, 63.65133, 647.0 ], [ -19.44623, 63.65137, 644.0 ], [ -19.44627, 63.65139, 643.0 ], [ -19.44628, 63.6514, 642.0 ], [ -19.44634, 63.65144, 639.0 ], [ -19.4464, 63.65148, 636.0 ], [ -19.44645, 63.65152, 633.0 ], [ -19.4465, 63.65156, 630.0 ], [ -19.44655, 63.65161, 626.0 ], [ -19.4466, 63.65165, 623.0 ], [ -19.44663, 63.6517, 621.0 ], [ -19.44664, 63.65175, 618.0 ], [ -19.44668, 63.65179, 616.0 ], [ -19.44669, 63.65183, 615.0 ], [ -19.44669, 63.65188, 613.0 ], [ -19.44669, 63.65193, 610.0 ], [ -19.44669, 63.65198, 608.0 ], [ -19.44673, 63.65203, 606.0 ], [ -19.44677, 63.65207, 604.0 ], [ -19.44682, 63.65211, 603.0 ], [ -19.44688, 63.65215, 601.0 ], [ -19.4469, 63.65219, 599.0 ], [ -19.4469, 63.65224, 597.0 ], [ -19.44686, 63.65228, 595.0 ], [ -19.44676, 63.6523, 595.0 ], [ -19.44669, 63.65234, 593.0 ], [ -19.44662, 63.65237, 592.0 ], [ -19.44657, 63.65241, 591.0 ], [ -19.44653, 63.65245, 590.0 ], [ -19.44652, 63.65246, 590.0 ], [ -19.44653, 63.65248, 588.0 ], [ -19.44654, 63.65252, 587.0 ], [ -19.44657, 63.65256, 586.0 ], [ -19.44663, 63.6526, 585.0 ], [ -19.4467, 63.65264, 584.0 ], [ -19.44677, 63.65268, 583.0 ], [ -19.44683, 63.65272, 582.0 ], [ -19.44691, 63.65275, 581.0 ], [ -19.44693, 63.65276, 581.0 ], [ -19.447, 63.65279, 580.0 ], [ -19.44708, 63.65283, 578.0 ], [ -19.44715, 63.65287, 577.0 ], [ -19.44723, 63.6529, 576.0 ], [ -19.4473, 63.65293, 575.0 ], [ -19.44738, 63.65296, 574.0 ], [ -19.44747, 63.65299, 572.0 ], [ -19.44756, 63.65302, 571.0 ], [ -19.44766, 63.65303, 570.0 ], [ -19.44775, 63.65306, 569.0 ], [ -19.44785, 63.65308, 567.0 ], [ -19.44793, 63.65311, 566.0 ], [ -19.448, 63.65315, 564.0 ], [ -19.44809, 63.65318, 563.0 ], [ -19.44816, 63.65321, 561.0 ], [ -19.44823, 63.65325, 559.0 ], [ -19.44832, 63.65328, 557.0 ], [ -19.44839, 63.65332, 555.0 ], [ -19.44845, 63.65335, 554.0 ], [ -19.44846, 63.65335, 554.0 ], [ -19.44847, 63.6534, 552.0 ], [ -19.44847, 63.65344, 551.0 ], [ -19.44844, 63.65349, 550.0 ], [ -19.44848, 63.65353, 548.0 ], [ -19.44851, 63.65358, 547.0 ], [ -19.44853, 63.65359, 546.0 ], [ -19.44855, 63.65364, 545.0 ], [ -19.44859, 63.65368, 543.0 ], [ -19.44859, 63.65373, 542.0 ], [ -19.44853, 63.65377, 541.0 ], [ -19.44845, 63.6538, 541.0 ], [ -19.44843, 63.65385, 540.0 ], [ -19.44851, 63.65388, 538.0 ], [ -19.44857, 63.65391, 537.0 ], [ -19.44856, 63.65396, 535.0 ], [ -19.44851, 63.654, 535.0 ], [ -19.4485, 63.65404, 534.0 ], [ -19.44854, 63.65409, 532.0 ], [ -19.44853, 63.65413, 531.0 ], [ -19.44855, 63.65418, 530.0 ], [ -19.44856, 63.65419, 529.0 ], [ -19.44857, 63.65421, 529.0 ], [ -19.44865, 63.65424, 528.0 ], [ -19.44872, 63.65428, 526.0 ], [ -19.4488, 63.65431, 525.0 ], [ -19.44888, 63.65434, 524.0 ], [ -19.44895, 63.65437, 523.0 ], [ -19.44902, 63.65441, 521.0 ], [ -19.44909, 63.65444, 520.0 ], [ -19.44916, 63.65448, 518.0 ], [ -19.44923, 63.65451, 517.0 ], [ -19.4493, 63.65455, 515.0 ], [ -19.44934, 63.65459, 514.0 ], [ -19.44938, 63.65464, 512.0 ], [ -19.44939, 63.65468, 511.0 ], [ -19.44939, 63.65473, 510.0 ], [ -19.44938, 63.65477, 510.0 ], [ -19.44939, 63.65479, 509.0 ], [ -19.44942, 63.65484, 508.0 ], [ -19.44948, 63.65488, 507.0 ], [ -19.44949, 63.65492, 506.0 ], [ -19.44951, 63.65497, 505.0 ], [ -19.44956, 63.65502, 504.0 ], [ -19.44962, 63.65505, 503.0 ], [ -19.44967, 63.65509, 503.0 ], [ -19.44971, 63.65514, 502.0 ], [ -19.44972, 63.65519, 502.0 ], [ -19.44969, 63.65523, 502.0 ], [ -19.44968, 63.65528, 502.0 ], [ -19.44969, 63.65532, 502.0 ], [ -19.44975, 63.65536, 502.0 ], [ -19.44979, 63.6554, 501.0 ], [ -19.44985, 63.65544, 501.0 ], [ -19.44985, 63.65545, 500.0 ], [ -19.44984, 63.65546, 501.0 ], [ -19.44989, 63.6555, 500.0 ], [ -19.44993, 63.65555, 500.0 ], [ -19.45, 63.65558, 499.0 ], [ -19.45005, 63.65562, 499.0 ], [ -19.45012, 63.65567, 498.0 ], [ -19.45016, 63.65571, 498.0 ], [ -19.45017, 63.65572, 498.0 ], [ -19.45017, 63.65577, 498.0 ], [ -19.45019, 63.65581, 498.0 ], [ -19.45023, 63.65586, 498.0 ], [ -19.45027, 63.65592, 498.0 ], [ -19.4503, 63.65596, 498.0 ], [ -19.45033, 63.65601, 499.0 ], [ -19.45036, 63.65605, 499.0 ], [ -19.4504, 63.65609, 499.0 ], [ -19.45044, 63.65614, 499.0 ], [ -19.45049, 63.65618, 499.0 ], [ -19.45055, 63.65622, 499.0 ], [ -19.45063, 63.65625, 498.0 ], [ -19.45065, 63.65626, 498.0 ], [ -19.45075, 63.65626, 497.0 ], [ -19.45086, 63.65626, 496.0 ], [ -19.45096, 63.65627, 496.0 ], [ -19.45104, 63.6563, 496.0 ], [ -19.45109, 63.65634, 496.0 ], [ -19.45118, 63.65637, 495.0 ], [ -19.45127, 63.65639, 495.0 ], [ -19.4513, 63.6564, 495.0 ], [ -19.45128, 63.65638, 495.0 ], [ -19.45138, 63.6564, 494.0 ], [ -19.45149, 63.65638, 494.0 ], [ -19.45159, 63.65638, 493.0 ], [ -19.45166, 63.65642, 492.0 ], [ -19.4517, 63.65646, 492.0 ], [ -19.45179, 63.6565, 491.0 ], [ -19.45189, 63.65651, 491.0 ], [ -19.45199, 63.65653, 490.0 ], [ -19.4521, 63.65654, 489.0 ], [ -19.4522, 63.65655, 489.0 ], [ -19.45226, 63.65656, 488.0 ], [ -19.45223, 63.65661, 488.0 ], [ -19.45216, 63.65664, 488.0 ], [ -19.45205, 63.65665, 488.0 ], [ -19.45195, 63.65667, 489.0 ], [ -19.45184, 63.65669, 490.0 ], [ -19.45174, 63.65671, 490.0 ], [ -19.45176, 63.65676, 491.0 ], [ -19.45187, 63.65677, 490.0 ], [ -19.45197, 63.65677, 490.0 ], [ -19.45207, 63.65678, 489.0 ], [ -19.45217, 63.65681, 489.0 ], [ -19.4522, 63.65681, 489.0 ], [ -19.45229, 63.65684, 488.0 ], [ -19.45239, 63.65686, 488.0 ], [ -19.45248, 63.65689, 488.0 ], [ -19.45255, 63.65693, 488.0 ], [ -19.45263, 63.65696, 488.0 ], [ -19.45271, 63.65698, 488.0 ], [ -19.45281, 63.65701, 488.0 ], [ -19.45291, 63.65703, 488.0 ], [ -19.453, 63.65705, 488.0 ], [ -19.45307, 63.65707, 488.0 ], [ -19.45312, 63.65708, 488.0 ], [ -19.4532, 63.65711, 487.0 ], [ -19.45329, 63.65714, 487.0 ], [ -19.45337, 63.65717, 487.0 ], [ -19.45345, 63.65721, 486.0 ], [ -19.45353, 63.65724, 486.0 ], [ -19.45361, 63.65727, 485.0 ], [ -19.4537, 63.6573, 485.0 ], [ -19.4538, 63.65733, 484.0 ], [ -19.4539, 63.65735, 484.0 ], [ -19.45399, 63.65737, 483.0 ], [ -19.45409, 63.65739, 482.0 ], [ -19.45418, 63.65741, 482.0 ], [ -19.45428, 63.65743, 481.0 ], [ -19.45431, 63.65744, 481.0 ], [ -19.45441, 63.65744, 480.0 ], [ -19.45452, 63.65744, 480.0 ], [ -19.45462, 63.65745, 479.0 ], [ -19.45473, 63.65746, 479.0 ], [ -19.45483, 63.65748, 478.0 ], [ -19.4549, 63.65752, 477.0 ], [ -19.45498, 63.65755, 478.0 ], [ -19.45505, 63.65758, 478.0 ], [ -19.45515, 63.6576, 477.0 ], [ -19.45517, 63.6576, 477.0 ], [ -19.45528, 63.65761, 477.0 ], [ -19.45536, 63.65763, 477.0 ], [ -19.45545, 63.65765, 477.0 ], [ -19.45556, 63.65766, 477.0 ], [ -19.45566, 63.65766, 476.0 ], [ -19.45577, 63.65767, 476.0 ], [ -19.45587, 63.65768, 475.0 ], [ -19.45598, 63.65768, 475.0 ], [ -19.45609, 63.65768, 474.0 ], [ -19.45619, 63.65767, 473.0 ], [ -19.45628, 63.65764, 472.0 ], [ -19.45632, 63.65764, 472.0 ], [ -19.45643, 63.65764, 471.0 ], [ -19.45653, 63.65764, 471.0 ], [ -19.45663, 63.65764, 470.0 ], [ -19.45674, 63.65763, 470.0 ], [ -19.45684, 63.65761, 469.0 ], [ -19.45695, 63.6576, 468.0 ], [ -19.45705, 63.65759, 467.0 ], [ -19.45715, 63.65758, 466.0 ], [ -19.4572, 63.65757, 466.0 ], [ -19.45724, 63.65757, 466.0 ], [ -19.45734, 63.65755, 465.0 ], [ -19.45741, 63.65751, 463.0 ], [ -19.4575, 63.65749, 463.0 ], [ -19.4576, 63.65747, 464.0 ], [ -19.4577, 63.65746, 464.0 ], [ -19.4578, 63.65745, 464.0 ], [ -19.45791, 63.65743, 465.0 ], [ -19.45802, 63.65742, 465.0 ], [ -19.45812, 63.65743, 465.0 ], [ -19.45823, 63.65744, 464.0 ], [ -19.45831, 63.65748, 462.0 ], [ -19.45838, 63.65751, 461.0 ], [ -19.45844, 63.65755, 462.0 ], [ -19.45848, 63.65757, 462.0 ], [ -19.45856, 63.6576, 463.0 ], [ -19.45862, 63.65764, 464.0 ], [ -19.45868, 63.65768, 464.0 ], [ -19.45875, 63.65771, 465.0 ], [ -19.45881, 63.65776, 465.0 ], [ -19.45886, 63.6578, 466.0 ], [ -19.45891, 63.65784, 466.0 ], [ -19.45898, 63.65787, 466.0 ], [ -19.45906, 63.6579, 466.0 ], [ -19.45914, 63.65793, 466.0 ], [ -19.45922, 63.65796, 466.0 ], [ -19.4593, 63.658, 465.0 ], [ -19.4594, 63.65802, 465.0 ], [ -19.45948, 63.65805, 464.0 ], [ -19.45957, 63.65807, 463.0 ], [ -19.45967, 63.6581, 462.0 ], [ -19.45976, 63.65812, 461.0 ], [ -19.45986, 63.65814, 460.0 ], [ -19.45996, 63.65815, 459.0 ], [ -19.46005, 63.65818, 458.0 ], [ -19.46016, 63.65818, 457.0 ], [ -19.46026, 63.6582, 456.0 ], [ -19.46032, 63.65824, 455.0 ], [ -19.46031, 63.65828, 455.0 ], [ -19.4603, 63.65833, 454.0 ], [ -19.46031, 63.65838, 457.0 ], [ -19.46034, 63.65842, 459.0 ], [ -19.46042, 63.65845, 460.0 ], [ -19.46052, 63.65846, 459.0 ], [ -19.4606, 63.65849, 460.0 ], [ -19.46062, 63.65849, 459.0 ], [ -19.46067, 63.65851, 460.0 ], [ -19.46072, 63.65855, 462.0 ], [ -19.46078, 63.65859, 463.0 ], [ -19.46083, 63.65863, 465.0 ], [ -19.46087, 63.65867, 466.0 ], [ -19.46092, 63.65871, 468.0 ], [ -19.46099, 63.65875, 469.0 ], [ -19.46106, 63.65878, 469.0 ], [ -19.46115, 63.65882, 470.0 ], [ -19.46124, 63.65884, 469.0 ], [ -19.46128, 63.65885, 469.0 ], [ -19.46127, 63.65885, 469.0 ], [ -19.46134, 63.65889, 470.0 ], [ -19.46141, 63.65892, 470.0 ], [ -19.46149, 63.65895, 470.0 ], [ -19.46158, 63.65898, 469.0 ], [ -19.46168, 63.659, 468.0 ], [ -19.46175, 63.65902, 467.0 ], [ -19.46184, 63.65904, 466.0 ], [ -19.46193, 63.65906, 465.0 ], [ -19.46203, 63.65908, 463.0 ], [ -19.46214, 63.65909, 461.0 ], [ -19.46225, 63.65909, 459.0 ], [ -19.46235, 63.65909, 456.0 ], [ -19.46245, 63.65911, 455.0 ], [ -19.46254, 63.65912, 453.0 ], [ -19.46255, 63.65913, 453.0 ], [ -19.46261, 63.65917, 453.0 ], [ -19.46266, 63.65921, 455.0 ], [ -19.46271, 63.65925, 457.0 ], [ -19.46276, 63.6593, 460.0 ], [ -19.46279, 63.65934, 462.0 ], [ -19.46284, 63.65939, 465.0 ], [ -19.46289, 63.65941, 466.0 ], [ -19.46295, 63.65945, 468.0 ], [ -19.46302, 63.65949, 470.0 ], [ -19.46308, 63.65952, 471.0 ], [ -19.46316, 63.65956, 473.0 ], [ -19.46321, 63.6596, 475.0 ], [ -19.46324, 63.65965, 479.0 ], [ -19.46327, 63.65969, 482.0 ], [ -19.46327, 63.65974, 486.0 ], [ -19.46328, 63.65978, 489.0 ], [ -19.46327, 63.65978, 489.0 ], [ -19.46327, 63.65982, 492.0 ], [ -19.46332, 63.65987, 495.0 ], [ -19.46333, 63.65992, 499.0 ], [ -19.46336, 63.65996, 502.0 ], [ -19.46339, 63.66001, 504.0 ], [ -19.46343, 63.66005, 504.0 ], [ -19.46344, 63.66006, 505.0 ], [ -19.46345, 63.66011, 506.0 ], [ -19.4635, 63.66015, 506.0 ], [ -19.46359, 63.66018, 505.0 ], [ -19.46368, 63.6602, 503.0 ], [ -19.46377, 63.66023, 501.0 ], [ -19.46387, 63.66024, 499.0 ], [ -19.46396, 63.66026, 497.0 ], [ -19.46402, 63.6603, 497.0 ], [ -19.46408, 63.66033, 497.0 ], [ -19.46413, 63.66037, 497.0 ], [ -19.46417, 63.66041, 498.0 ], [ -19.46423, 63.66045, 497.0 ], [ -19.46429, 63.66049, 497.0 ], [ -19.46435, 63.66051, 496.0 ], [ -19.46437, 63.66052, 495.0 ], [ -19.46445, 63.66056, 495.0 ], [ -19.46452, 63.66059, 494.0 ], [ -19.46461, 63.66061, 492.0 ], [ -19.46471, 63.66063, 490.0 ], [ -19.46478, 63.66066, 489.0 ], [ -19.46487, 63.66069, 488.0 ], [ -19.46494, 63.66072, 488.0 ], [ -19.46491, 63.66077, 492.0 ], [ -19.4649, 63.66081, 495.0 ], [ -19.46494, 63.66086, 496.0 ], [ -19.46499, 63.6609, 496.0 ], [ -19.46502, 63.66094, 496.0 ], [ -19.46505, 63.66096, 496.0 ], [ -19.46508, 63.66101, 497.0 ], [ -19.46514, 63.66105, 497.0 ], [ -19.46523, 63.66108, 495.0 ], [ -19.46532, 63.6611, 493.0 ], [ -19.46539, 63.66113, 493.0 ], [ -19.46546, 63.66117, 492.0 ], [ -19.46552, 63.6612, 492.0 ], [ -19.46555, 63.66123, 492.0 ], [ -19.46559, 63.66126, 492.0 ], [ -19.46566, 63.66129, 491.0 ], [ -19.46569, 63.66134, 492.0 ], [ -19.46571, 63.66138, 493.0 ], [ -19.46576, 63.66143, 494.0 ], [ -19.46584, 63.66146, 493.0 ], [ -19.46586, 63.66147, 492.0 ], [ -19.46591, 63.66151, 493.0 ], [ -19.46595, 63.66155, 493.0 ], [ -19.46594, 63.6616, 495.0 ], [ -19.46593, 63.66164, 497.0 ], [ -19.46596, 63.66169, 499.0 ], [ -19.46606, 63.66168, 496.0 ], [ -19.46615, 63.66166, 493.0 ], [ -19.46624, 63.66164, 490.0 ], [ -19.46635, 63.66163, 487.0 ], [ -19.46645, 63.66162, 485.0 ], [ -19.46655, 63.66162, 482.0 ], [ -19.4666, 63.66162, 481.0 ], [ -19.4667, 63.66163, 479.0 ], [ -19.4668, 63.66164, 477.0 ], [ -19.4669, 63.66163, 474.0 ], [ -19.46696, 63.66159, 471.0 ], [ -19.46703, 63.66155, 468.0 ], [ -19.46708, 63.66151, 465.0 ], [ -19.46716, 63.66148, 461.0 ], [ -19.46725, 63.66146, 458.0 ], [ -19.46735, 63.66146, 456.0 ], [ -19.46746, 63.66146, 453.0 ], [ -19.46754, 63.66148, 452.0 ], [ -19.4676, 63.66152, 453.0 ], [ -19.46767, 63.66155, 453.0 ], [ -19.46776, 63.66158, 453.0 ], [ -19.46786, 63.6616, 452.0 ], [ -19.46795, 63.66161, 450.0 ], [ -19.46798, 63.66162, 450.0 ], [ -19.46803, 63.66162, 449.0 ], [ -19.46813, 63.66159, 446.0 ], [ -19.46821, 63.66157, 444.0 ], [ -19.46831, 63.66155, 441.0 ], [ -19.46842, 63.66154, 439.0 ], [ -19.46852, 63.66153, 437.0 ], [ -19.46863, 63.66153, 435.0 ], [ -19.46872, 63.66154, 434.0 ], [ -19.46883, 63.66155, 432.0 ], [ -19.46893, 63.66155, 430.0 ], [ -19.46894, 63.66155, 430.0 ], [ -19.46904, 63.66156, 428.0 ], [ -19.46913, 63.66158, 427.0 ], [ -19.46923, 63.66159, 425.0 ], [ -19.46933, 63.66161, 424.0 ], [ -19.46938, 63.66162, 423.0 ], [ -19.46947, 63.66164, 422.0 ], [ -19.46955, 63.66167, 420.0 ], [ -19.46962, 63.66171, 422.0 ], [ -19.46966, 63.66175, 424.0 ], [ -19.46971, 63.66179, 426.0 ], [ -19.46977, 63.66183, 428.0 ], [ -19.4698, 63.66185, 428.0 ], [ -19.4698, 63.66187, 429.0 ], [ -19.46986, 63.66191, 431.0 ], [ -19.4699, 63.66195, 433.0 ], [ -19.46993, 63.66199, 435.0 ], [ -19.46996, 63.66204, 437.0 ], [ -19.47004, 63.66207, 438.0 ], [ -19.47013, 63.66209, 437.0 ], [ -19.47018, 63.66214, 439.0 ], [ -19.4702, 63.66216, 439.0 ], [ -19.4702, 63.66221, 442.0 ], [ -19.47019, 63.66225, 444.0 ], [ -19.47015, 63.6623, 448.0 ], [ -19.47008, 63.66233, 452.0 ], [ -19.46999, 63.66236, 456.0 ], [ -19.47001, 63.6624, 458.0 ], [ -19.47012, 63.66242, 455.0 ], [ -19.4702, 63.66244, 453.0 ], [ -19.47025, 63.66246, 452.0 ], [ -19.47029, 63.66251, 453.0 ], [ -19.47037, 63.66254, 452.0 ], [ -19.47044, 63.66257, 451.0 ], [ -19.47051, 63.66261, 451.0 ], [ -19.47059, 63.66264, 450.0 ], [ -19.47067, 63.66267, 450.0 ], [ -19.47075, 63.6627, 450.0 ], [ -19.47084, 63.66272, 448.0 ], [ -19.47087, 63.66273, 448.0 ], [ -19.47096, 63.66276, 447.0 ], [ -19.47102, 63.6628, 447.0 ], [ -19.47106, 63.66284, 449.0 ], [ -19.47111, 63.66288, 449.0 ], [ -19.47115, 63.66292, 451.0 ], [ -19.47117, 63.66297, 453.0 ], [ -19.47121, 63.66302, 454.0 ], [ -19.47128, 63.66305, 453.0 ], [ -19.47136, 63.66308, 450.0 ], [ -19.47138, 63.66309, 449.0 ], [ -19.47145, 63.66312, 447.0 ], [ -19.47154, 63.66314, 443.0 ], [ -19.47163, 63.66317, 439.0 ], [ -19.47165, 63.66319, 439.0 ], [ -19.47165, 63.66324, 441.0 ], [ -19.47165, 63.66328, 443.0 ], [ -19.47159, 63.66332, 449.0 ], [ -19.47152, 63.66336, 456.0 ], [ -19.47145, 63.66339, 462.0 ], [ -19.47139, 63.66343, 467.0 ], [ -19.47133, 63.66347, 473.0 ], [ -19.47127, 63.66351, 478.0 ], [ -19.4712, 63.66354, 483.0 ], [ -19.47112, 63.66357, 488.0 ], [ -19.47115, 63.66362, 488.0 ], [ -19.47124, 63.66364, 484.0 ], [ -19.47135, 63.66364, 478.0 ], [ -19.47145, 63.66364, 472.0 ], [ -19.47156, 63.66364, 466.0 ], [ -19.47166, 63.66364, 461.0 ], [ -19.47175, 63.66362, 455.0 ], [ -19.47184, 63.6636, 449.0 ], [ -19.47194, 63.66358, 443.0 ], [ -19.47196, 63.66357, 442.0 ], [ -19.472, 63.66359, 440.0 ], [ -19.4721, 63.66359, 435.0 ], [ -19.4722, 63.6636, 430.0 ], [ -19.4723, 63.66363, 427.0 ], [ -19.47238, 63.66365, 424.0 ], [ -19.4725, 63.66366, 418.0 ], [ -19.4726, 63.66366, 415.0 ], [ -19.47271, 63.66365, 412.0 ], [ -19.47275, 63.66365, 411.0 ], [ -19.47285, 63.66366, 408.0 ], [ -19.47295, 63.66368, 406.0 ], [ -19.47305, 63.6637, 404.0 ], [ -19.4731, 63.66372, 403.0 ], [ -19.47317, 63.66376, 402.0 ], [ -19.47318, 63.66377, 402.0 ], [ -19.47319, 63.66377, 401.0 ], [ -19.47319, 63.66382, 402.0 ], [ -19.47321, 63.66386, 402.0 ], [ -19.47323, 63.66391, 402.0 ], [ -19.47328, 63.66395, 401.0 ], [ -19.47334, 63.66399, 399.0 ], [ -19.47339, 63.66403, 398.0 ], [ -19.47339, 63.66404, 398.0 ], [ -19.47339, 63.66409, 399.0 ], [ -19.47344, 63.66414, 398.0 ], [ -19.4735, 63.66417, 397.0 ], [ -19.47358, 63.66421, 397.0 ], [ -19.47366, 63.66423, 396.0 ], [ -19.47376, 63.66424, 394.0 ], [ -19.47386, 63.66427, 392.0 ], [ -19.47389, 63.66428, 392.0 ], [ -19.47389, 63.66433, 393.0 ], [ -19.47386, 63.66437, 394.0 ], [ -19.4738, 63.66441, 397.0 ], [ -19.47373, 63.66445, 400.0 ], [ -19.47369, 63.66449, 402.0 ], [ -19.47364, 63.66453, 404.0 ], [ -19.47354, 63.66456, 408.0 ], [ -19.47345, 63.66458, 412.0 ], [ -19.47342, 63.6646, 413.0 ], [ -19.47341, 63.66462, 414.0 ], [ -19.47339, 63.66467, 417.0 ], [ -19.4734, 63.66471, 418.0 ], [ -19.47339, 63.66476, 420.0 ], [ -19.47338, 63.6648, 422.0 ], [ -19.4734, 63.66485, 422.0 ], [ -19.4734, 63.6649, 424.0 ], [ -19.4734, 63.66494, 426.0 ], [ -19.47343, 63.66499, 426.0 ], [ -19.47345, 63.66504, 428.0 ], [ -19.47346, 63.66508, 431.0 ], [ -19.47345, 63.66513, 435.0 ], [ -19.47342, 63.66518, 440.0 ], [ -19.47338, 63.66522, 444.0 ], [ -19.47339, 63.66525, 446.0 ], [ -19.4734, 63.6653, 449.0 ], [ -19.47346, 63.66534, 449.0 ], [ -19.4735, 63.66538, 450.0 ], [ -19.47352, 63.66543, 453.0 ], [ -19.47352, 63.66548, 457.0 ], [ -19.47351, 63.66552, 460.0 ], [ -19.47349, 63.66557, 464.0 ], [ -19.47348, 63.66557, 465.0 ], [ -19.47347, 63.66558, 466.0 ], [ -19.47347, 63.66563, 469.0 ], [ -19.47347, 63.66567, 472.0 ], [ -19.47347, 63.66572, 476.0 ], [ -19.47355, 63.66576, 475.0 ], [ -19.47359, 63.6658, 476.0 ], [ -19.47362, 63.66584, 477.0 ], [ -19.47363, 63.66585, 476.0 ], [ -19.47363, 63.6659, 476.0 ], [ -19.47363, 63.66594, 476.0 ], [ -19.47363, 63.66599, 476.0 ], [ -19.4736, 63.66603, 477.0 ], [ -19.47352, 63.66606, 481.0 ], [ -19.47345, 63.6661, 483.0 ], [ -19.47342, 63.66613, 485.0 ], [ -19.47343, 63.66614, 484.0 ], [ -19.47348, 63.66618, 482.0 ], [ -19.47354, 63.66622, 479.0 ], [ -19.4736, 63.66627, 477.0 ], [ -19.47365, 63.66631, 475.0 ], [ -19.47371, 63.66635, 473.0 ], [ -19.47377, 63.66639, 471.0 ], [ -19.47385, 63.66642, 468.0 ], [ -19.47388, 63.66643, 467.0 ], [ -19.47389, 63.66644, 467.0 ], [ -19.47399, 63.66646, 464.0 ], [ -19.47407, 63.66648, 461.0 ], [ -19.47413, 63.66652, 460.0 ], [ -19.47417, 63.66656, 459.0 ], [ -19.47423, 63.6666, 458.0 ], [ -19.47428, 63.66665, 457.0 ], [ -19.47431, 63.66669, 456.0 ], [ -19.47426, 63.66673, 458.0 ], [ -19.47429, 63.66678, 458.0 ], [ -19.47434, 63.66682, 457.0 ], [ -19.47435, 63.66683, 457.0 ], [ -19.47444, 63.66685, 455.0 ], [ -19.47454, 63.66688, 453.0 ], [ -19.47463, 63.6669, 452.0 ], [ -19.47472, 63.66693, 450.0 ], [ -19.47477, 63.66697, 450.0 ], [ -19.47482, 63.66702, 450.0 ], [ -19.47488, 63.66705, 450.0 ], [ -19.47495, 63.66709, 450.0 ], [ -19.47501, 63.66711, 450.0 ], [ -19.47509, 63.66713, 450.0 ], [ -19.47517, 63.66716, 450.0 ], [ -19.47525, 63.66719, 450.0 ], [ -19.47532, 63.66723, 451.0 ], [ -19.4754, 63.66726, 452.0 ], [ -19.47545, 63.66729, 453.0 ], [ -19.47549, 63.66734, 455.0 ], [ -19.47552, 63.66738, 456.0 ], [ -19.47554, 63.66743, 458.0 ], [ -19.47559, 63.66747, 460.0 ], [ -19.47566, 63.6675, 461.0 ], [ -19.47573, 63.66754, 460.0 ], [ -19.47576, 63.66757, 460.0 ], [ -19.47582, 63.66761, 459.0 ], [ -19.47587, 63.66765, 458.0 ], [ -19.47593, 63.66769, 457.0 ], [ -19.47597, 63.66773, 456.0 ], [ -19.47596, 63.66778, 455.0 ], [ -19.4759, 63.66782, 455.0 ], [ -19.47582, 63.66785, 455.0 ], [ -19.47572, 63.66787, 455.0 ], [ -19.47561, 63.66788, 456.0 ], [ -19.47552, 63.66789, 456.0 ], [ -19.47543, 63.66792, 455.0 ], [ -19.47532, 63.66791, 456.0 ], [ -19.47522, 63.66789, 456.0 ], [ -19.47512, 63.66789, 457.0 ], [ -19.47503, 63.66791, 456.0 ], [ -19.47493, 63.66792, 457.0 ], [ -19.47487, 63.66793, 457.0 ], [ -19.4748, 63.66796, 457.0 ], [ -19.47475, 63.668, 456.0 ], [ -19.47466, 63.66803, 456.0 ], [ -19.47459, 63.66806, 456.0 ], [ -19.47457, 63.66808, 456.0 ], [ -19.47458, 63.66809, 455.0 ], [ -19.47461, 63.66813, 455.0 ], [ -19.47466, 63.66817, 454.0 ], [ -19.47472, 63.66822, 453.0 ], [ -19.47477, 63.66826, 452.0 ], [ -19.47481, 63.6683, 451.0 ], [ -19.47487, 63.66834, 451.0 ], [ -19.47491, 63.66837, 449.0 ], [ -19.47495, 63.66841, 447.0 ], [ -19.47501, 63.66845, 446.0 ], [ -19.47506, 63.66849, 444.0 ], [ -19.4751, 63.66854, 442.0 ], [ -19.47513, 63.66858, 440.0 ], [ -19.47518, 63.66863, 438.0 ], [ -19.47522, 63.66867, 437.0 ], [ -19.47527, 63.66872, 435.0 ], [ -19.47531, 63.66876, 434.0 ], [ -19.47533, 63.66879, 432.0 ], [ -19.47534, 63.66879, 432.0 ], [ -19.47534, 63.66884, 431.0 ], [ -19.47537, 63.66889, 429.0 ], [ -19.4754, 63.66894, 427.0 ], [ -19.47543, 63.66899, 425.0 ], [ -19.47545, 63.66904, 423.0 ], [ -19.47547, 63.66908, 422.0 ], [ -19.47549, 63.66913, 420.0 ], [ -19.47552, 63.66917, 419.0 ], [ -19.47557, 63.66921, 417.0 ], [ -19.47557, 63.66922, 416.0 ], [ -19.47563, 63.66926, 414.0 ], [ -19.4757, 63.6693, 412.0 ], [ -19.47576, 63.66934, 411.0 ], [ -19.47582, 63.66935, 410.0 ], [ -19.47586, 63.66936, 410.0 ], [ -19.47598, 63.66936, 410.0 ], [ -19.47608, 63.66936, 411.0 ], [ -19.47619, 63.66936, 411.0 ], [ -19.4763, 63.66935, 413.0 ], [ -19.47641, 63.66935, 413.0 ], [ -19.47651, 63.66933, 415.0 ], [ -19.47662, 63.66932, 416.0 ], [ -19.47674, 63.66932, 416.0 ], [ -19.47686, 63.66932, 417.0 ], [ -19.47696, 63.66932, 418.0 ], [ -19.47706, 63.66932, 418.0 ], [ -19.47717, 63.66931, 419.0 ], [ -19.47728, 63.6693, 420.0 ], [ -19.47738, 63.66929, 421.0 ], [ -19.47746, 63.66928, 422.0 ], [ -19.47756, 63.66928, 423.0 ], [ -19.47765, 63.66925, 425.0 ], [ -19.47775, 63.66923, 426.0 ], [ -19.47784, 63.66921, 428.0 ], [ -19.47795, 63.66918, 430.0 ], [ -19.47804, 63.66917, 431.0 ], [ -19.47814, 63.66916, 432.0 ], [ -19.47825, 63.66915, 432.0 ], [ -19.47835, 63.66914, 433.0 ], [ -19.47847, 63.66914, 433.0 ], [ -19.47857, 63.66914, 434.0 ], [ -19.47868, 63.66913, 435.0 ], [ -19.47878, 63.66913, 435.0 ], [ -19.47884, 63.66913, 435.0 ], [ -19.47889, 63.66913, 435.0 ], [ -19.47898, 63.66915, 436.0 ], [ -19.47909, 63.66916, 436.0 ], [ -19.47919, 63.66918, 436.0 ], [ -19.47928, 63.6692, 435.0 ], [ -19.47935, 63.66923, 433.0 ], [ -19.47944, 63.66926, 432.0 ], [ -19.47953, 63.66928, 430.0 ], [ -19.47963, 63.6693, 429.0 ], [ -19.47972, 63.66932, 428.0 ], [ -19.47982, 63.66934, 428.0 ], [ -19.47992, 63.66935, 427.0 ], [ -19.48, 63.66936, 426.0 ], [ -19.4801, 63.66937, 426.0 ], [ -19.48019, 63.66939, 425.0 ], [ -19.48028, 63.66942, 424.0 ], [ -19.48037, 63.66944, 423.0 ], [ -19.48045, 63.66946, 422.0 ], [ -19.48055, 63.66948, 422.0 ], [ -19.48065, 63.66949, 421.0 ], [ -19.48074, 63.66951, 420.0 ], [ -19.48081, 63.66955, 420.0 ], [ -19.48088, 63.66959, 419.0 ], [ -19.48092, 63.66963, 418.0 ], [ -19.48097, 63.66967, 418.0 ], [ -19.48105, 63.6697, 417.0 ], [ -19.48113, 63.66973, 417.0 ], [ -19.48118, 63.66976, 417.0 ], [ -19.48128, 63.66976, 417.0 ], [ -19.48139, 63.66975, 417.0 ], [ -19.48141, 63.66975, 417.0 ], [ -19.48138, 63.66979, 417.0 ], [ -19.48143, 63.66983, 417.0 ], [ -19.48154, 63.66983, 417.0 ], [ -19.48164, 63.66983, 417.0 ], [ -19.48173, 63.66986, 417.0 ], [ -19.48179, 63.66989, 416.0 ], [ -19.48186, 63.66992, 416.0 ], [ -19.48192, 63.66996, 416.0 ], [ -19.48194, 63.66996, 416.0 ], [ -19.48198, 63.66997, 415.0 ], [ -19.48208, 63.66998, 415.0 ], [ -19.48215, 63.67001, 414.0 ], [ -19.48223, 63.67004, 413.0 ], [ -19.48232, 63.67006, 412.0 ], [ -19.48242, 63.67008, 411.0 ], [ -19.4825, 63.67011, 410.0 ], [ -19.48258, 63.67013, 409.0 ], [ -19.48268, 63.67014, 408.0 ], [ -19.48278, 63.67016, 408.0 ], [ -19.48281, 63.67021, 406.0 ], [ -19.48282, 63.67025, 405.0 ], [ -19.48283, 63.67029, 404.0 ], [ -19.48281, 63.67029, 404.0 ], [ -19.48283, 63.67044, 401.0 ], [ -19.48284, 63.67053, 399.0 ], [ -19.48287, 63.6707, 395.0 ], [ -19.48288, 63.67081, 392.0 ], [ -19.48285, 63.67093, 389.0 ], [ -19.4828, 63.67097, 388.0 ], [ -19.48278, 63.67098, 387.0 ], [ -19.48278, 63.67103, 386.0 ], [ -19.48278, 63.67107, 385.0 ], [ -19.48279, 63.67112, 384.0 ], [ -19.48283, 63.67116, 383.0 ], [ -19.48289, 63.6712, 383.0 ], [ -19.48298, 63.67122, 383.0 ], [ -19.48307, 63.67125, 383.0 ], [ -19.48316, 63.67127, 383.0 ], [ -19.48323, 63.6713, 383.0 ], [ -19.48325, 63.67131, 383.0 ], [ -19.48326, 63.67131, 383.0 ], [ -19.48339, 63.67139, 382.0 ], [ -19.48363, 63.67151, 380.0 ], [ -19.48375, 63.67157, 380.0 ], [ -19.48374, 63.67157, 380.0 ], [ -19.48378, 63.67162, 379.0 ], [ -19.48377, 63.67166, 378.0 ], [ -19.48374, 63.67171, 376.0 ], [ -19.48374, 63.67176, 375.0 ], [ -19.48374, 63.6718, 374.0 ], [ -19.48377, 63.67185, 374.0 ], [ -19.48377, 63.67186, 373.0 ], [ -19.48377, 63.67191, 372.0 ], [ -19.48373, 63.67195, 371.0 ], [ -19.48369, 63.672, 369.0 ], [ -19.48366, 63.67204, 368.0 ], [ -19.48364, 63.67208, 367.0 ], [ -19.48359, 63.67213, 366.0 ], [ -19.48358, 63.67217, 365.0 ], [ -19.4836, 63.67223, 363.0 ], [ -19.4836, 63.67224, 363.0 ], [ -19.4836, 63.67225, 363.0 ], [ -19.48364, 63.6723, 362.0 ], [ -19.48368, 63.67234, 362.0 ], [ -19.48375, 63.67238, 361.0 ], [ -19.48383, 63.67241, 361.0 ], [ -19.48389, 63.67245, 361.0 ], [ -19.48393, 63.67246, 361.0 ], [ -19.48401, 63.67249, 361.0 ], [ -19.48407, 63.67253, 361.0 ], [ -19.48414, 63.67256, 362.0 ], [ -19.48425, 63.67257, 363.0 ], [ -19.48435, 63.67258, 364.0 ], [ -19.48443, 63.67261, 364.0 ], [ -19.4845, 63.67264, 365.0 ], [ -19.48457, 63.67267, 365.0 ], [ -19.48464, 63.6727, 366.0 ], [ -19.48472, 63.67274, 366.0 ], [ -19.48481, 63.67275, 367.0 ], [ -19.48491, 63.67277, 368.0 ], [ -19.48496, 63.67279, 368.0 ], [ -19.48496, 63.67284, 368.0 ], [ -19.48498, 63.67289, 368.0 ], [ -19.48501, 63.67294, 369.0 ], [ -19.48503, 63.67298, 369.0 ], [ -19.48503, 63.67304, 369.0 ], [ -19.48504, 63.67309, 369.0 ], [ -19.48504, 63.67311, 369.0 ], [ -19.48503, 63.67311, 368.0 ], [ -19.48502, 63.67316, 368.0 ], [ -19.485, 63.67321, 368.0 ], [ -19.48498, 63.67326, 367.0 ], [ -19.48497, 63.67331, 367.0 ], [ -19.48498, 63.67336, 366.0 ], [ -19.48504, 63.67339, 366.0 ], [ -19.4851, 63.67343, 366.0 ], [ -19.4851, 63.67344, 366.0 ], [ -19.48511, 63.67348, 365.0 ], [ -19.48513, 63.67353, 364.0 ], [ -19.48516, 63.67357, 363.0 ], [ -19.48516, 63.67362, 361.0 ], [ -19.48515, 63.67367, 360.0 ], [ -19.48511, 63.67372, 358.0 ], [ -19.48509, 63.67376, 356.0 ], [ -19.48509, 63.6738, 355.0 ], [ -19.48508, 63.6738, 355.0 ], [ -19.48527, 63.67392, 354.0 ], [ -19.4855, 63.67401, 355.0 ], [ -19.48577, 63.67405, 358.0 ], [ -19.4861, 63.67412, 360.0 ], [ -19.48635, 63.6742, 361.0 ], [ -19.48645, 63.67428, 360.0 ], [ -19.48651, 63.67433, 359.0 ], [ -19.48655, 63.67452, 353.0 ], [ -19.48659, 63.67467, 349.0 ], [ -19.48657, 63.67467, 349.0 ], [ -19.48653, 63.67471, 347.0 ], [ -19.4865, 63.67476, 345.0 ], [ -19.4865, 63.67481, 343.0 ], [ -19.4865, 63.67485, 342.0 ], [ -19.48651, 63.67486, 342.0 ], [ -19.48651, 63.67491, 340.0 ], [ -19.48644, 63.67494, 338.0 ], [ -19.48635, 63.67497, 336.0 ], [ -19.48628, 63.675, 334.0 ], [ -19.48623, 63.67504, 332.0 ], [ -19.48624, 63.67506, 331.0 ], [ -19.48624, 63.6751, 330.0 ], [ -19.48626, 63.67515, 329.0 ], [ -19.48624, 63.6752, 328.0 ], [ -19.48614, 63.67521, 326.0 ], [ -19.48604, 63.67522, 324.0 ], [ -19.48597, 63.67525, 322.0 ], [ -19.4859, 63.67529, 320.0 ], [ -19.48588, 63.6753, 319.0 ], [ -19.48585, 63.6753, 319.0 ], [ -19.48579, 63.67534, 317.0 ], [ -19.48576, 63.67538, 315.0 ], [ -19.48572, 63.67542, 314.0 ], [ -19.48567, 63.67547, 312.0 ], [ -19.48558, 63.67549, 310.0 ], [ -19.48548, 63.67551, 308.0 ], [ -19.48537, 63.67551, 306.0 ], [ -19.48532, 63.67552, 305.0 ], [ -19.48522, 63.67552, 304.0 ], [ -19.48511, 63.67552, 302.0 ], [ -19.48501, 63.67551, 301.0 ], [ -19.48491, 63.67552, 299.0 ], [ -19.48482, 63.67556, 297.0 ], [ -19.48474, 63.67558, 295.0 ], [ -19.48463, 63.67559, 294.0 ], [ -19.48453, 63.67558, 293.0 ], [ -19.48445, 63.67558, 292.0 ], [ -19.48433, 63.67559, 290.0 ], [ -19.48422, 63.67561, 288.0 ], [ -19.48413, 63.67562, 287.0 ], [ -19.48403, 63.67564, 285.0 ], [ -19.48393, 63.67565, 284.0 ], [ -19.48383, 63.67566, 282.0 ], [ -19.48372, 63.67566, 281.0 ], [ -19.48361, 63.67566, 279.0 ], [ -19.48358, 63.67567, 279.0 ], [ -19.48348, 63.67569, 277.0 ], [ -19.48338, 63.67571, 275.0 ], [ -19.48329, 63.67573, 274.0 ], [ -19.4832, 63.67576, 272.0 ], [ -19.48311, 63.67579, 270.0 ], [ -19.48305, 63.67583, 268.0 ], [ -19.48298, 63.67586, 266.0 ], [ -19.48292, 63.6759, 264.0 ], [ -19.48291, 63.6759, 264.0 ], [ -19.48292, 63.67591, 264.0 ], [ -19.4828, 63.676, 260.0 ], [ -19.48269, 63.6761, 255.0 ], [ -19.48255, 63.67622, 251.0 ], [ -19.48246, 63.67635, 247.0 ], [ -19.48241, 63.67642, 245.0 ], [ -19.48237, 63.67656, 242.0 ], [ -19.48218, 63.67665, 240.0 ], [ -19.48212, 63.67668, 240.0 ], [ -19.4819, 63.67679, 240.0 ], [ -19.48189, 63.67679, 240.0 ], [ -19.48179, 63.67684, 240.0 ], [ -19.48169, 63.67698, 240.0 ], [ -19.48193, 63.67706, 240.0 ], [ -19.48203, 63.67721, 240.0 ], [ -19.48206, 63.67726, 240.0 ], [ -19.48212, 63.67731, 240.0 ], [ -19.48243, 63.67756, 240.0 ], [ -19.48272, 63.67783, 240.0 ], [ -19.48278, 63.67788, 240.0 ], [ -19.48294, 63.67801, 240.0 ], [ -19.48292, 63.67802, 240.0 ] ] ] } }
]
}
