{
"type": "FeatureCollection",
"name": "bison_way_to_indian_staircase_to_sheltowee_trace",
"crs": { "type": "name", "properties": { "name": "urn:ogc:def:crs:OGC:1.3:CRS84" } },
"features": [
{ "type": "Feature", "properties": { "Name": "Bison Way to Indian Staircase to Sheltowee Trace Trail" }, "geometry": { "type": "MultiLineString", "coordinates": [ [ [ -83.6095, 37.83689, 237.0 ], [ -83.60938, 37.83702, 237.0 ], [ -83.6092, 37.83735, 243.0 ], [ -83.60913, 37.8375, 247.0 ], [ -83.60905, 37.83767, 250.0 ], [ -83.60896, 37.83791, 254.0 ], [ -83.60891, 37.83809, 256.0 ], [ -83.60889, 37.83826, 260.0 ], [ -83.60884, 37.83843, 262.0 ], [ -83.60888, 37.83869, 266.0 ], [ -83.60895, 37.83902, 266.0 ], [ -83.60901, 37.83919, 266.0 ], [ -83.60925, 37.83956, 267.0 ], [ -83.6095, 37.83979, 269.0 ], [ -83.60964, 37.84008, 269.0 ], [ -83.60988, 37.84047, 269.0 ], [ -83.61016, 37.84077, 265.0 ], [ -83.61054, 37.84093, 268.0 ], [ -83.61092, 37.84143, 265.0 ], [ -83.61113, 37.84166, 265.0 ], [ -83.61154, 37.84195, 271.0 ], [ -83.61155, 37.84219, 266.0 ], [ -83.61159, 37.84233, 266.0 ], [ -83.61139, 37.84255, 268.0 ], [ -83.61134, 37.84272, 271.0 ], [ -83.61157, 37.84277, 271.0 ], [ -83.61194, 37.84295, 276.0 ], [ -83.61251, 37.84336, 285.0 ], [ -83.61321, 37.84376, 289.0 ], [ -83.6135, 37.8442, 288.0 ], [ -83.61389, 37.84449, 290.0 ], [ -83.61415, 37.84438, 290.0 ], [ -83.61444, 37.84453, 294.0 ], [ -83.61497, 37.84494, 305.0 ], [ -83.61533, 37.84529, 313.0 ], [ -83.61555, 37.84563, 321.0 ], [ -83.61555, 37.84582, 326.0 ], [ -83.61576, 37.84605, 333.0 ], [ -83.61574, 37.84638, 345.0 ], [ -83.61607, 37.84674, 357.0 ], [ -83.61624, 37.84677, 356.0 ], [ -83.61676, 37.8471, 367.0 ], [ -83.61729, 37.84712, 362.0 ], [ -83.61749, 37.84719, 359.0 ], [ -83.61771, 37.84737, 366.0 ], [ -83.61822, 37.84743, 369.0 ], [ -83.61887, 37.84754, 372.0 ], [ -83.61925, 37.84754, 374.0 ], [ -83.6194, 37.84729, 373.0 ], [ -83.61912, 37.84617, 369.0 ], [ -83.61853, 37.84535, 351.0 ], [ -83.61803, 37.84485, 355.0 ], [ -83.61796, 37.84468, 358.0 ], [ -83.61796, 37.84455, 359.0 ], [ -83.61825, 37.84427, 367.0 ], [ -83.61841, 37.84396, 371.0 ], [ -83.61839, 37.84372, 369.0 ], [ -83.61817, 37.8434, 368.0 ], [ -83.61794, 37.84315, 368.0 ], [ -83.61778, 37.84294, 370.0 ], [ -83.61758, 37.8427, 370.0 ], [ -83.6173, 37.84262, 368.0 ], [ -83.61724, 37.84255, 367.0 ], [ -83.61767, 37.84217, 356.0 ], [ -83.61742, 37.84206, 351.0 ], [ -83.61744, 37.84189, 344.0 ], [ -83.61748, 37.84164, 337.0 ], [ -83.61748, 37.84139, 330.0 ], [ -83.61753, 37.84081, 316.0 ], [ -83.6176, 37.84057, 314.0 ], [ -83.61755, 37.84033, 314.0 ], [ -83.61781, 37.84011, 313.0 ], [ -83.61803, 37.8402, 312.0 ], [ -83.61818, 37.84032, 309.0 ], [ -83.61827, 37.8407, 303.0 ], [ -83.61827, 37.84095, 306.0 ], [ -83.61836, 37.84139, 315.0 ], [ -83.61876, 37.84151, 310.0 ], [ -83.61879, 37.84178, 317.0 ], [ -83.61907, 37.84189, 314.0 ], [ -83.6197, 37.84199, 305.0 ], [ -83.6198, 37.84216, 307.0 ], [ -83.6196, 37.8424, 313.0 ], [ -83.61951, 37.84273, 318.0 ], [ -83.61958, 37.84288, 319.0 ], [ -83.61992, 37.84288, 315.0 ], [ -83.62017, 37.84298, 313.0 ], [ -83.62007, 37.84323, 316.0 ], [ -83.62004, 37.84343, 318.0 ], [ -83.6203, 37.84365, 311.0 ], [ -83.6203, 37.84388, 313.0 ], [ -83.62032, 37.84412, 315.0 ], [ -83.62011, 37.84438, 319.0 ], [ -83.61998, 37.84453, 320.0 ], [ -83.62015, 37.84469, 322.0 ], [ -83.62044, 37.8448, 319.0 ], [ -83.62093, 37.84516, 320.0 ], [ -83.62115, 37.84505, 321.0 ], [ -83.62118, 37.8447, 319.0 ], [ -83.62135, 37.84399, 315.0 ], [ -83.62159, 37.84353, 314.0 ], [ -83.62198, 37.84349, 317.0 ], [ -83.62224, 37.84348, 318.0 ], [ -83.62247, 37.84338, 319.0 ], [ -83.62252, 37.84327, 320.0 ], [ -83.62231, 37.84298, 318.0 ], [ -83.62182, 37.84256, 315.0 ], [ -83.62182, 37.84233, 313.0 ], [ -83.62207, 37.8422, 315.0 ], [ -83.62253, 37.84217, 319.0 ], [ -83.62283, 37.84177, 321.0 ], [ -83.62293, 37.84155, 327.0 ], [ -83.62254, 37.84153, 318.0 ], [ -83.62234, 37.84143, 316.0 ], [ -83.6222, 37.84128, 319.0 ], [ -83.62166, 37.84107, 317.0 ], [ -83.62149, 37.84092, 315.0 ], [ -83.62144, 37.84061, 315.0 ], [ -83.62126, 37.84032, 310.0 ], [ -83.62121, 37.84017, 306.0 ], [ -83.62137, 37.84006, 306.0 ], [ -83.62165, 37.84005, 309.0 ], [ -83.62214, 37.84011, 314.0 ], [ -83.6223, 37.84006, 315.0 ], [ -83.62235, 37.83983, 312.0 ], [ -83.62252, 37.83958, 314.0 ], [ -83.62248, 37.83944, 315.0 ], [ -83.62236, 37.83929, 316.0 ], [ -83.6219, 37.83907, 312.0 ], [ -83.62136, 37.83887, 307.0 ], [ -83.62114, 37.8387, 308.0 ], [ -83.6206, 37.83869, 298.0 ], [ -83.62028, 37.83858, 294.0 ], [ -83.62, 37.83832, 292.0 ], [ -83.61983, 37.83808, 293.0 ], [ -83.61963, 37.83778, 292.0 ], [ -83.6194, 37.83741, 297.0 ], [ -83.61925, 37.83717, 296.0 ], [ -83.61906, 37.83684, 288.0 ], [ -83.61914, 37.83649, 280.0 ], [ -83.61933, 37.83637, 279.0 ], [ -83.62011, 37.83614, 277.0 ], [ -83.62051, 37.83622, 283.0 ], [ -83.62116, 37.83649, 289.0 ], [ -83.62145, 37.83659, 288.0 ], [ -83.62171, 37.83677, 291.0 ], [ -83.622, 37.83736, 301.0 ], [ -83.62265, 37.83764, 299.0 ], [ -83.62322, 37.83786, 307.0 ], [ -83.62366, 37.83837, 310.0 ], [ -83.62386, 37.83909, 319.0 ], [ -83.6241, 37.83963, 320.0 ], [ -83.62431, 37.83975, 325.0 ], [ -83.6242, 37.83917, 320.0 ], [ -83.62414, 37.83864, 317.0 ], [ -83.62414, 37.8381, 324.0 ], [ -83.62399, 37.8378, 322.0 ], [ -83.62362, 37.83746, 323.0 ], [ -83.62333, 37.83705, 318.0 ], [ -83.62309, 37.83672, 313.0 ], [ -83.62302, 37.83639, 313.0 ], [ -83.62306, 37.83614, 314.0 ], [ -83.62339, 37.83589, 315.0 ], [ -83.62372, 37.83584, 315.0 ], [ -83.62383, 37.83587, 315.0 ], [ -83.62413, 37.83607, 321.0 ], [ -83.62455, 37.83601, 327.0 ], [ -83.62479, 37.83602, 333.0 ], [ -83.62475, 37.83578, 333.0 ], [ -83.62446, 37.83551, 320.0 ], [ -83.62442, 37.83527, 321.0 ], [ -83.62438, 37.83517, 321.0 ], [ -83.62416, 37.835, 314.0 ], [ -83.62391, 37.83484, 312.0 ], [ -83.62363, 37.83451, 308.0 ], [ -83.62353, 37.83423, 311.0 ], [ -83.6235, 37.83393, 311.0 ], [ -83.62332, 37.83374, 303.0 ], [ -83.62325, 37.8334, 299.0 ], [ -83.62347, 37.83296, 302.0 ], [ -83.62349, 37.8327, 299.0 ], [ -83.62358, 37.83246, 299.0 ], [ -83.62391, 37.83215, 295.0 ], [ -83.62416, 37.83229, 298.0 ], [ -83.6243, 37.83283, 312.0 ], [ -83.62471, 37.83312, 313.0 ], [ -83.6252, 37.83329, 315.0 ], [ -83.62517, 37.83303, 312.0 ], [ -83.62504, 37.83262, 305.0 ], [ -83.62504, 37.83204, 297.0 ], [ -83.62482, 37.83134, 289.0 ], [ -83.62467, 37.83083, 280.0 ], [ -83.62478, 37.83033, 272.0 ], [ -83.62503, 37.82996, 272.0 ], [ -83.62508, 37.82968, 270.0 ], [ -83.6251, 37.82942, 269.0 ], [ -83.62516, 37.82913, 266.0 ], [ -83.62512, 37.82887, 262.0 ], [ -83.62489, 37.82859, 250.0 ], [ -83.62484, 37.82818, 243.0 ], [ -83.62465, 37.82798, 237.0 ], [ -83.62422, 37.82784, 232.0 ], [ -83.62392, 37.82777, 236.0 ], [ -83.62422, 37.82784, 232.0 ], [ -83.62465, 37.82798, 237.0 ], [ -83.62484, 37.82818, 243.0 ], [ -83.62489, 37.82859, 250.0 ], [ -83.62512, 37.82887, 262.0 ], [ -83.62516, 37.82913, 266.0 ], [ -83.6251, 37.82942, 269.0 ], [ -83.62508, 37.82968, 270.0 ], [ -83.62503, 37.82996, 272.0 ], [ -83.62478, 37.83033, 272.0 ], [ -83.62467, 37.83083, 280.0 ], [ -83.62482, 37.83134, 289.0 ], [ -83.62504, 37.83204, 297.0 ], [ -83.62504, 37.83262, 305.0 ], [ -83.62517, 37.83303, 312.0 ], [ -83.6252, 37.83329, 315.0 ], [ -83.62471, 37.83312, 313.0 ], [ -83.6243, 37.83283, 312.0 ], [ -83.62416, 37.83229, 298.0 ], [ -83.62391, 37.83215, 295.0 ], [ -83.62358, 37.83246, 299.0 ], [ -83.62349, 37.8327, 299.0 ], [ -83.62347, 37.83296, 302.0 ], [ -83.62325, 37.8334, 299.0 ], [ -83.62332, 37.83374, 303.0 ], [ -83.6235, 37.83393, 311.0 ], [ -83.62353, 37.83423, 311.0 ], [ -83.62363, 37.83451, 308.0 ], [ -83.62391, 37.83484, 312.0 ], [ -83.62416, 37.835, 314.0 ], [ -83.62438, 37.83517, 321.0 ], [ -83.62442, 37.83527, 321.0 ], [ -83.62446, 37.83551, 320.0 ], [ -83.62475, 37.83578, 333.0 ], [ -83.62479, 37.83602, 333.0 ], [ -83.62455, 37.83601, 327.0 ], [ -83.62413, 37.83607, 321.0 ], [ -83.62383, 37.83587, 315.0 ], [ -83.62372, 37.83584, 315.0 ], [ -83.62339, 37.83589, 315.0 ], [ -83.62306, 37.83614, 314.0 ], [ -83.62302, 37.83639, 313.0 ], [ -83.62309, 37.83672, 313.0 ], [ -83.62333, 37.83705, 318.0 ], [ -83.62362, 37.83746, 323.0 ], [ -83.62399, 37.8378, 322.0 ], [ -83.62414, 37.8381, 324.0 ], [ -83.62414, 37.83864, 317.0 ], [ -83.6242, 37.83917, 320.0 ], [ -83.62431, 37.83975, 325.0 ], [ -83.6241, 37.83963, 320.0 ], [ -83.62386, 37.83909, 319.0 ], [ -83.62366, 37.83837, 310.0 ], [ -83.62322, 37.83786, 307.0 ], [ -83.62265, 37.83764, 299.0 ], [ -83.622, 37.83736, 301.0 ], [ -83.62171, 37.83677, 291.0 ], [ -83.62145, 37.83659, 288.0 ], [ -83.62116, 37.83649, 289.0 ], [ -83.62051, 37.83622, 283.0 ], [ -83.62011, 37.83614, 277.0 ], [ -83.61933, 37.83637, 279.0 ], [ -83.61914, 37.83649, 280.0 ], [ -83.61906, 37.83684, 288.0 ], [ -83.61925, 37.83717, 296.0 ], [ -83.6194, 37.83741, 297.0 ], [ -83.61963, 37.83778, 292.0 ], [ -83.61983, 37.83808, 293.0 ], [ -83.62, 37.83832, 292.0 ], [ -83.62028, 37.83858, 294.0 ], [ -83.6206, 37.83869, 298.0 ], [ -83.62114, 37.8387, 308.0 ], [ -83.62136, 37.83887, 307.0 ], [ -83.6219, 37.83907, 312.0 ], [ -83.62236, 37.83929, 316.0 ], [ -83.62248, 37.83944, 315.0 ], [ -83.62252, 37.83958, 314.0 ], [ -83.62235, 37.83983, 312.0 ], [ -83.6223, 37.84006, 315.0 ], [ -83.62214, 37.84011, 314.0 ], [ -83.62165, 37.84005, 309.0 ], [ -83.62137, 37.84006, 306.0 ], [ -83.62121, 37.84017, 306.0 ], [ -83.62126, 37.84032, 310.0 ], [ -83.62144, 37.84061, 315.0 ], [ -83.62149, 37.84092, 315.0 ], [ -83.62166, 37.84107, 317.0 ], [ -83.6222, 37.84128, 319.0 ], [ -83.62234, 37.84143, 316.0 ], [ -83.62254, 37.84153, 318.0 ], [ -83.62293, 37.84155, 327.0 ], [ -83.62283, 37.84177, 321.0 ], [ -83.62253, 37.84217, 319.0 ], [ -83.62207, 37.8422, 315.0 ], [ -83.62182, 37.84233, 313.0 ], [ -83.62182, 37.84256, 315.0 ], [ -83.62231, 37.84298, 318.0 ], [ -83.62252, 37.84327, 320.0 ], [ -83.62247, 37.84338, 319.0 ], [ -83.62224, 37.84348, 318.0 ], [ -83.62198, 37.84349, 317.0 ], [ -83.62159, 37.84353, 314.0 ], [ -83.62135, 37.84399, 315.0 ], [ -83.62118, 37.8447, 319.0 ], [ -83.62115, 37.84505, 321.0 ], [ -83.62093, 37.84516, 320.0 ], [ -83.62044, 37.8448, 319.0 ], [ -83.62015, 37.84469, 322.0 ], [ -83.61998, 37.84453, 320.0 ], [ -83.62011, 37.84438, 319.0 ], [ -83.62032, 37.84412, 315.0 ], [ -83.6203, 37.84388, 313.0 ], [ -83.6203, 37.84365, 311.0 ], [ -83.62004, 37.84343, 318.0 ], [ -83.62007, 37.84323, 316.0 ], [ -83.62017, 37.84298, 313.0 ], [ -83.61992, 37.84288, 315.0 ], [ -83.61958, 37.84288, 319.0 ], [ -83.61951, 37.84273, 318.0 ], [ -83.6196, 37.8424, 313.0 ], [ -83.6198, 37.84216, 307.0 ], [ -83.6197, 37.84199, 305.0 ], [ -83.61907, 37.84189, 314.0 ], [ -83.61879, 37.84178, 317.0 ], [ -83.61876, 37.84151, 310.0 ], [ -83.61836, 37.84139, 315.0 ], [ -83.61827, 37.84095, 306.0 ], [ -83.61827, 37.8407, 303.0 ], [ -83.61818, 37.84032, 309.0 ], [ -83.61803, 37.8402, 312.0 ], [ -83.61781, 37.84011, 313.0 ], [ -83.61755, 37.84033, 314.0 ], [ -83.6176, 37.84057, 314.0 ], [ -83.61753, 37.84081, 316.0 ], [ -83.61748, 37.84139, 330.0 ], [ -83.61748, 37.84164, 337.0 ], [ -83.61744, 37.84189, 344.0 ], [ -83.61742, 37.84206, 351.0 ], [ -83.61767, 37.84217, 356.0 ], [ -83.61724, 37.84255, 367.0 ], [ -83.6173, 37.84262, 368.0 ], [ -83.61758, 37.8427, 370.0 ], [ -83.61778, 37.84294, 370.0 ], [ -83.61794, 37.84315, 368.0 ], [ -83.61817, 37.8434, 368.0 ], [ -83.61839, 37.84372, 369.0 ], [ -83.61841, 37.84396, 371.0 ], [ -83.61825, 37.84427, 367.0 ], [ -83.61796, 37.84455, 359.0 ], [ -83.61796, 37.84468, 358.0 ], [ -83.61803, 37.84485, 355.0 ], [ -83.61853, 37.84535, 351.0 ], [ -83.61912, 37.84617, 369.0 ], [ -83.6194, 37.84729, 373.0 ], [ -83.61925, 37.84754, 374.0 ], [ -83.61887, 37.84754, 372.0 ], [ -83.61822, 37.84743, 369.0 ], [ -83.61771, 37.84737, 366.0 ], [ -83.61749, 37.84719, 359.0 ], [ -83.61729, 37.84712, 362.0 ], [ -83.61676, 37.8471, 367.0 ], [ -83.61624, 37.84677, 356.0 ], [ -83.6161, 37.84675, 357.0 ], [ -83.61611, 37.84673, 356.0 ], [ -83.61592, 37.8467, 357.0 ], [ -83.61589, 37.84665, 356.0 ], [ -83.61575, 37.84674, 359.0 ], [ -83.61561, 37.84688, 362.0 ], [ -83.61557, 37.84705, 367.0 ], [ -83.61559, 37.84718, 372.0 ], [ -83.61559, 37.84727, 375.0 ], [ -83.61552, 37.84738, 379.0 ], [ -83.6154, 37.84744, 379.0 ], [ -83.61528, 37.84746, 378.0 ], [ -83.61509, 37.84748, 375.0 ], [ -83.6149, 37.84749, 373.0 ], [ -83.61478, 37.84743, 371.0 ], [ -83.61466, 37.84737, 369.0 ], [ -83.61456, 37.8473, 368.0 ], [ -83.61451, 37.84723, 366.0 ], [ -83.61441, 37.84717, 365.0 ], [ -83.6143, 37.84711, 364.0 ], [ -83.61417, 37.84707, 364.0 ], [ -83.61406, 37.84707, 366.0 ], [ -83.61397, 37.84708, 369.0 ], [ -83.61385, 37.84708, 371.0 ], [ -83.61376, 37.84705, 372.0 ], [ -83.61368, 37.84701, 372.0 ], [ -83.61363, 37.84694, 371.0 ], [ -83.61358, 37.84685, 369.0 ], [ -83.61355, 37.84678, 367.0 ], [ -83.61353, 37.84671, 366.0 ], [ -83.61347, 37.84665, 365.0 ], [ -83.61341, 37.84662, 366.0 ], [ -83.61331, 37.84658, 366.0 ], [ -83.61325, 37.84657, 366.0 ], [ -83.61313, 37.84657, 367.0 ], [ -83.61304, 37.84657, 366.0 ], [ -83.61296, 37.84656, 365.0 ], [ -83.61284, 37.84652, 362.0 ], [ -83.61279, 37.84648, 361.0 ], [ -83.61274, 37.84644, 360.0 ], [ -83.61272, 37.84638, 359.0 ], [ -83.6127, 37.84631, 359.0 ], [ -83.6127, 37.84625, 359.0 ], [ -83.6127, 37.84624, 359.0 ], [ -83.61268, 37.84613, 359.0 ], [ -83.6126, 37.84604, 358.0 ], [ -83.61253, 37.84595, 360.0 ], [ -83.61246, 37.84587, 362.0 ], [ -83.61239, 37.84578, 363.0 ], [ -83.61227, 37.84566, 364.0 ], [ -83.61217, 37.8456, 366.0 ], [ -83.61206, 37.84553, 366.0 ], [ -83.61196, 37.84548, 366.0 ], [ -83.61185, 37.84544, 363.0 ], [ -83.61176, 37.84541, 361.0 ], [ -83.61171, 37.84535, 360.0 ], [ -83.61166, 37.84531, 360.0 ], [ -83.61156, 37.84526, 357.0 ], [ -83.61144, 37.8452, 354.0 ], [ -83.61138, 37.84514, 353.0 ], [ -83.61131, 37.84507, 352.0 ], [ -83.61126, 37.84501, 351.0 ], [ -83.61125, 37.84495, 350.0 ], [ -83.61121, 37.8449, 348.0 ], [ -83.61118, 37.84483, 346.0 ], [ -83.61116, 37.84476, 344.0 ], [ -83.61118, 37.84469, 341.0 ], [ -83.61125, 37.84462, 338.0 ], [ -83.61139, 37.84454, 333.0 ], [ -83.61147, 37.84447, 329.0 ], [ -83.61156, 37.84439, 326.0 ], [ -83.61165, 37.84436, 324.0 ], [ -83.61173, 37.84429, 321.0 ], [ -83.61182, 37.84424, 319.0 ], [ -83.61192, 37.84422, 317.0 ], [ -83.61207, 37.84421, 314.0 ], [ -83.61216, 37.84425, 312.0 ], [ -83.61226, 37.8443, 309.0 ], [ -83.61237, 37.84433, 305.0 ], [ -83.61249, 37.84433, 302.0 ], [ -83.61259, 37.84432, 300.0 ], [ -83.61268, 37.8443, 298.0 ], [ -83.61277, 37.84425, 297.0 ], [ -83.61287, 37.84419, 295.0 ], [ -83.61297, 37.84416, 294.0 ], [ -83.61308, 37.84411, 292.0 ], [ -83.61317, 37.84409, 291.0 ], [ -83.61326, 37.84409, 290.0 ], [ -83.61339, 37.84408, 288.0 ], [ -83.61337, 37.84401, 288.0 ], [ -83.61337, 37.84396, 288.0 ], [ -83.61335, 37.8439, 288.0 ], [ -83.61333, 37.84383, 288.0 ], [ -83.61329, 37.84376, 288.0 ], [ -83.61322, 37.8437, 289.0 ], [ -83.61316, 37.84366, 290.0 ], [ -83.61311, 37.84371, 290.0 ], [ -83.61251, 37.84336, 285.0 ], [ -83.61194, 37.84295, 276.0 ], [ -83.61157, 37.84277, 271.0 ], [ -83.61134, 37.84272, 271.0 ], [ -83.61139, 37.84255, 268.0 ], [ -83.61159, 37.84233, 266.0 ], [ -83.61155, 37.84219, 266.0 ], [ -83.61154, 37.84195, 271.0 ], [ -83.61113, 37.84166, 265.0 ], [ -83.61092, 37.84143, 265.0 ], [ -83.61054, 37.84093, 268.0 ], [ -83.61016, 37.84077, 265.0 ], [ -83.60988, 37.84047, 269.0 ], [ -83.60964, 37.84008, 269.0 ], [ -83.6095, 37.83979, 269.0 ], [ -83.60925, 37.83956, 267.0 ], [ -83.60901, 37.83919, 266.0 ], [ -83.60895, 37.83902, 266.0 ], [ -83.60888, 37.83869, 266.0 ], [ -83.60884, 37.83843, 262.0 ], [ -83.60889, 37.83826, 260.0 ], [ -83.60891, 37.83809, 256.0 ], [ -83.60896, 37.83791, 254.0 ], [ -83.60905, 37.83767, 250.0 ], [ -83.60913, 37.8375, 247.0 ], [ -83.6092, 37.83735, 243.0 ], [ -83.60938, 37.83702, 237.0 ], [ -83.6095, 37.83689, 237.0 ] ] ] } }
]
}
