{
"type": "FeatureCollection",
"name": "Double_Arch_Trail",
"crs": { "type": "name", "properties": { "name": "urn:ogc:def:crs:OGC:1.3:CRS84" } },
"features": [
{ "type": "Feature", "properties": { "Name": "Double Arch Trail" }, "geometry": { "type": "MultiLineString", "coordinates": [ [ [ -83.68112, 37.82018, 400.0 ], [ -83.68115, 37.8202, 400.0 ], [ -83.68118, 37.8202, 400.0 ], [ -83.68124, 37.82023, 400.0 ], [ -83.6813, 37.82026, 400.0 ], [ -83.68136, 37.8203, 400.0 ], [ -83.68142, 37.82032, 400.0 ], [ -83.68148, 37.82037, 400.0 ], [ -83.68155, 37.82037, 400.0 ], [ -83.68162, 37.82039, 400.0 ], [ -83.68169, 37.8204, 400.0 ], [ -83.68176, 37.82041, 400.0 ], [ -83.68182, 37.82043, 401.0 ], [ -83.6819, 37.82044, 401.0 ], [ -83.68198, 37.82043, 402.0 ], [ -83.68204, 37.82041, 403.0 ], [ -83.68209, 37.82037, 404.0 ], [ -83.68213, 37.82032, 405.0 ], [ -83.68221, 37.82031, 406.0 ], [ -83.68226, 37.82028, 406.0 ], [ -83.68234, 37.82027, 406.0 ], [ -83.68238, 37.82023, 405.0 ], [ -83.68243, 37.82019, 405.0 ], [ -83.68248, 37.82015, 405.0 ], [ -83.68253, 37.82012, 404.0 ], [ -83.6826, 37.8201, 403.0 ], [ -83.68268, 37.82009, 402.0 ], [ -83.68276, 37.82009, 401.0 ], [ -83.68282, 37.82013, 400.0 ], [ -83.68287, 37.82017, 400.0 ], [ -83.68289, 37.82022, 399.0 ], [ -83.68292, 37.82027, 399.0 ], [ -83.68296, 37.82032, 399.0 ], [ -83.683, 37.82037, 398.0 ], [ -83.68305, 37.82041, 398.0 ], [ -83.6831, 37.82046, 398.0 ], [ -83.68316, 37.82051, 398.0 ], [ -83.68321, 37.82055, 398.0 ], [ -83.68326, 37.8206, 398.0 ], [ -83.68331, 37.82065, 398.0 ], [ -83.68337, 37.82068, 399.0 ], [ -83.68343, 37.82073, 400.0 ], [ -83.68349, 37.82074, 400.0 ], [ -83.68356, 37.82076, 401.0 ], [ -83.68363, 37.82077, 402.0 ], [ -83.6837, 37.82078, 402.0 ], [ -83.68377, 37.82079, 402.0 ], [ -83.68384, 37.82081, 402.0 ], [ -83.6839, 37.82083, 402.0 ], [ -83.68397, 37.82085, 402.0 ], [ -83.68404, 37.82087, 401.0 ], [ -83.68411, 37.82088, 401.0 ], [ -83.68418, 37.8209, 400.0 ], [ -83.68425, 37.82091, 400.0 ], [ -83.68431, 37.82092, 399.0 ], [ -83.68439, 37.82094, 399.0 ], [ -83.68445, 37.82095, 399.0 ], [ -83.68452, 37.82096, 399.0 ], [ -83.68459, 37.82098, 399.0 ], [ -83.68466, 37.82099, 399.0 ], [ -83.68474, 37.82099, 399.0 ], [ -83.68481, 37.82099, 399.0 ], [ -83.68489, 37.821, 399.0 ], [ -83.68497, 37.82099, 400.0 ], [ -83.68505, 37.82098, 400.0 ], [ -83.68513, 37.82097, 400.0 ], [ -83.68521, 37.82096, 400.0 ], [ -83.68528, 37.82094, 400.0 ], [ -83.68535, 37.82092, 400.0 ], [ -83.68542, 37.8209, 400.0 ], [ -83.68549, 37.82089, 400.0 ], [ -83.68555, 37.82086, 400.0 ], [ -83.68562, 37.82084, 400.0 ], [ -83.68569, 37.82082, 400.0 ], [ -83.68575, 37.82079, 399.0 ], [ -83.68581, 37.82077, 399.0 ], [ -83.68587, 37.82074, 399.0 ], [ -83.68592, 37.8207, 399.0 ], [ -83.68597, 37.82067, 398.0 ], [ -83.68601, 37.82063, 398.0 ], [ -83.68605, 37.82058, 398.0 ], [ -83.68609, 37.82054, 397.0 ], [ -83.68613, 37.82049, 397.0 ], [ -83.68616, 37.82043, 397.0 ], [ -83.68619, 37.82038, 397.0 ], [ -83.68621, 37.82032, 397.0 ], [ -83.68624, 37.82027, 396.0 ], [ -83.68627, 37.82021, 396.0 ], [ -83.6863, 37.82016, 396.0 ], [ -83.68633, 37.8201, 396.0 ], [ -83.68636, 37.82005, 396.0 ], [ -83.68639, 37.82, 396.0 ], [ -83.68645, 37.81997, 396.0 ], [ -83.68651, 37.81994, 396.0 ], [ -83.68657, 37.81992, 396.0 ], [ -83.68663, 37.81989, 397.0 ], [ -83.6867, 37.81987, 397.0 ], [ -83.68677, 37.81985, 398.0 ], [ -83.68683, 37.81982, 398.0 ], [ -83.6869, 37.8198, 399.0 ], [ -83.68697, 37.81979, 399.0 ], [ -83.68703, 37.81976, 400.0 ], [ -83.68709, 37.81973, 400.0 ], [ -83.68716, 37.81971, 401.0 ], [ -83.68723, 37.81969, 402.0 ], [ -83.68729, 37.81967, 402.0 ], [ -83.68736, 37.81965, 402.0 ], [ -83.68743, 37.81963, 403.0 ], [ -83.6875, 37.81961, 403.0 ], [ -83.68756, 37.81958, 403.0 ], [ -83.68763, 37.81956, 404.0 ], [ -83.68769, 37.81954, 404.0 ], [ -83.68775, 37.81953, 405.0 ], [ -83.68782, 37.81954, 404.0 ], [ -83.68789, 37.81956, 404.0 ], [ -83.68795, 37.81958, 403.0 ], [ -83.68802, 37.81959, 403.0 ], [ -83.68809, 37.81962, 402.0 ], [ -83.68815, 37.81965, 401.0 ], [ -83.6882, 37.81969, 400.0 ], [ -83.68826, 37.81973, 398.0 ], [ -83.68831, 37.81977, 398.0 ], [ -83.68835, 37.81982, 398.0 ], [ -83.68839, 37.81987, 398.0 ], [ -83.68842, 37.81992, 398.0 ], [ -83.68846, 37.81997, 399.0 ], [ -83.68848, 37.82002, 399.0 ], [ -83.68852, 37.82006, 398.0 ], [ -83.68855, 37.82011, 398.0 ], [ -83.68857, 37.82016, 398.0 ], [ -83.68858, 37.82021, 398.0 ], [ -83.6886, 37.82026, 398.0 ], [ -83.6886, 37.82032, 399.0 ], [ -83.68861, 37.82037, 399.0 ], [ -83.68861, 37.82042, 399.0 ], [ -83.68863, 37.82047, 399.0 ], [ -83.68864, 37.82052, 399.0 ], [ -83.68866, 37.82057, 399.0 ], [ -83.68866, 37.82063, 399.0 ], [ -83.68868, 37.82068, 399.0 ], [ -83.68869, 37.82073, 399.0 ], [ -83.68871, 37.82078, 400.0 ], [ -83.68873, 37.82083, 400.0 ], [ -83.68875, 37.82088, 400.0 ], [ -83.68877, 37.82093, 400.0 ], [ -83.6888, 37.82098, 400.0 ], [ -83.68882, 37.82103, 400.0 ], [ -83.68885, 37.82108, 400.0 ], [ -83.68888, 37.82113, 401.0 ], [ -83.68892, 37.82117, 400.0 ], [ -83.68896, 37.82122, 399.0 ], [ -83.689, 37.82126, 399.0 ], [ -83.68901, 37.82127, 399.0 ], [ -83.68907, 37.8213, 398.0 ], [ -83.68912, 37.82134, 398.0 ], [ -83.68918, 37.82138, 397.0 ], [ -83.68924, 37.82141, 396.0 ], [ -83.6893, 37.82145, 395.0 ], [ -83.68935, 37.82149, 395.0 ], [ -83.6894, 37.82154, 395.0 ], [ -83.68944, 37.82159, 395.0 ], [ -83.68948, 37.82164, 395.0 ], [ -83.68951, 37.82168, 395.0 ], [ -83.68955, 37.82173, 394.0 ], [ -83.68957, 37.82178, 395.0 ], [ -83.68961, 37.82183, 395.0 ], [ -83.68964, 37.82188, 396.0 ], [ -83.68966, 37.82193, 397.0 ], [ -83.68972, 37.82198, 397.0 ], [ -83.68978, 37.82201, 398.0 ], [ -83.68984, 37.82202, 398.0 ], [ -83.68991, 37.82205, 399.0 ], [ -83.68998, 37.82206, 399.0 ], [ -83.69005, 37.82208, 399.0 ], [ -83.69012, 37.82209, 399.0 ], [ -83.69019, 37.8221, 399.0 ], [ -83.69025, 37.82211, 399.0 ], [ -83.69032, 37.82213, 399.0 ], [ -83.69038, 37.82218, 399.0 ], [ -83.69044, 37.82221, 399.0 ], [ -83.69047, 37.82226, 399.0 ], [ -83.69052, 37.82231, 398.0 ], [ -83.69053, 37.82236, 399.0 ], [ -83.69055, 37.82241, 399.0 ], [ -83.69055, 37.82246, 399.0 ], [ -83.69056, 37.82251, 399.0 ], [ -83.69056, 37.82256, 399.0 ], [ -83.69057, 37.82262, 399.0 ], [ -83.69055, 37.82267, 399.0 ], [ -83.69056, 37.82272, 399.0 ], [ -83.69056, 37.82277, 398.0 ], [ -83.69055, 37.82283, 399.0 ], [ -83.69054, 37.82288, 399.0 ], [ -83.69054, 37.82293, 399.0 ], [ -83.69053, 37.82299, 399.0 ], [ -83.69052, 37.82304, 399.0 ], [ -83.69051, 37.8231, 399.0 ], [ -83.69051, 37.82315, 399.0 ], [ -83.6905, 37.8232, 400.0 ], [ -83.69049, 37.82326, 400.0 ], [ -83.69048, 37.82331, 401.0 ], [ -83.69047, 37.82336, 401.0 ], [ -83.69045, 37.82342, 400.0 ], [ -83.69044, 37.82347, 400.0 ], [ -83.69043, 37.82352, 399.0 ], [ -83.69042, 37.82358, 399.0 ], [ -83.69042, 37.82363, 398.0 ], [ -83.69041, 37.82368, 398.0 ], [ -83.6904, 37.82374, 398.0 ], [ -83.69039, 37.82379, 398.0 ], [ -83.69039, 37.82384, 398.0 ], [ -83.69038, 37.8239, 398.0 ], [ -83.69037, 37.82395, 399.0 ], [ -83.69036, 37.824, 399.0 ], [ -83.69034, 37.82406, 400.0 ], [ -83.69032, 37.82411, 400.0 ], [ -83.69029, 37.82417, 400.0 ], [ -83.69026, 37.82423, 400.0 ], [ -83.69022, 37.82427, 400.0 ], [ -83.69018, 37.82432, 400.0 ], [ -83.69015, 37.82436, 400.0 ], [ -83.6901, 37.8244, 399.0 ], [ -83.69005, 37.82444, 399.0 ], [ -83.69, 37.82448, 399.0 ], [ -83.68994, 37.8245, 399.0 ], [ -83.68988, 37.82453, 398.0 ], [ -83.68982, 37.82456, 398.0 ], [ -83.68975, 37.82458, 398.0 ], [ -83.68968, 37.8246, 397.0 ], [ -83.68961, 37.82461, 397.0 ], [ -83.68953, 37.82462, 397.0 ], [ -83.68946, 37.82464, 396.0 ], [ -83.68939, 37.82466, 396.0 ], [ -83.68932, 37.82468, 396.0 ], [ -83.68925, 37.8247, 396.0 ], [ -83.68918, 37.82471, 395.0 ], [ -83.6891, 37.82471, 395.0 ], [ -83.68903, 37.82471, 395.0 ], [ -83.68895, 37.82471, 394.0 ], [ -83.68888, 37.8247, 394.0 ], [ -83.6888, 37.8247, 392.0 ], [ -83.68874, 37.82473, 392.0 ], [ -83.68867, 37.82475, 391.0 ], [ -83.6886, 37.82477, 390.0 ], [ -83.68855, 37.8248, 390.0 ], [ -83.68847, 37.82481, 388.0 ], [ -83.68842, 37.82484, 388.0 ], [ -83.68837, 37.82488, 388.0 ], [ -83.68832, 37.82492, 388.0 ], [ -83.68827, 37.82495, 388.0 ], [ -83.68823, 37.825, 388.0 ], [ -83.68818, 37.82504, 388.0 ], [ -83.68813, 37.82507, 388.0 ], [ -83.68808, 37.82511, 388.0 ], [ -83.68803, 37.82515, 388.0 ], [ -83.68798, 37.82518, 388.0 ], [ -83.68794, 37.82522, 389.0 ], [ -83.68789, 37.82526, 389.0 ], [ -83.68785, 37.8253, 389.0 ], [ -83.68781, 37.82535, 390.0 ], [ -83.68776, 37.82539, 389.0 ], [ -83.68774, 37.82543, 389.0 ], [ -83.6877, 37.82547, 389.0 ], [ -83.6877, 37.82552, 390.0 ], [ -83.68767, 37.82556, 390.0 ], [ -83.68768, 37.82562, 390.0 ], [ -83.68766, 37.82567, 390.0 ], [ -83.68765, 37.82573, 390.0 ], [ -83.68766, 37.82578, 390.0 ], [ -83.68766, 37.82583, 390.0 ], [ -83.68765, 37.82588, 390.0 ], [ -83.68765, 37.82594, 389.0 ], [ -83.68766, 37.82599, 389.0 ], [ -83.68765, 37.82604, 389.0 ], [ -83.68763, 37.82609, 389.0 ], [ -83.68762, 37.82615, 388.0 ], [ -83.68759, 37.8262, 387.0 ], [ -83.68757, 37.82626, 386.0 ], [ -83.68754, 37.82632, 386.0 ], [ -83.68751, 37.82637, 386.0 ], [ -83.68748, 37.82643, 385.0 ], [ -83.68746, 37.82648, 385.0 ], [ -83.68743, 37.82654, 385.0 ], [ -83.6874, 37.82659, 385.0 ], [ -83.68739, 37.82665, 386.0 ], [ -83.68738, 37.8267, 386.0 ], [ -83.68736, 37.82676, 386.0 ], [ -83.68735, 37.82681, 387.0 ], [ -83.68736, 37.82686, 387.0 ], [ -83.68734, 37.82692, 387.0 ], [ -83.68733, 37.82697, 388.0 ], [ -83.68734, 37.82702, 387.0 ], [ -83.68734, 37.82707, 387.0 ], [ -83.68735, 37.82712, 386.0 ], [ -83.68735, 37.82718, 386.0 ], [ -83.68737, 37.82723, 385.0 ], [ -83.68734, 37.82728, 385.0 ], [ -83.68733, 37.82734, 384.0 ], [ -83.6873, 37.82739, 384.0 ], [ -83.68727, 37.82745, 383.0 ], [ -83.68726, 37.82748, 382.0 ], [ -83.68725, 37.8275, 382.0 ], [ -83.68722, 37.82756, 383.0 ], [ -83.68719, 37.82761, 383.0 ], [ -83.68716, 37.82767, 384.0 ], [ -83.68714, 37.82773, 385.0 ], [ -83.68711, 37.82778, 386.0 ], [ -83.68708, 37.82784, 387.0 ], [ -83.68705, 37.82789, 387.0 ], [ -83.68702, 37.82795, 387.0 ], [ -83.68699, 37.82799, 388.0 ], [ -83.68695, 37.82804, 388.0 ], [ -83.68691, 37.82809, 387.0 ], [ -83.68687, 37.82813, 386.0 ], [ -83.68683, 37.82818, 385.0 ], [ -83.6868, 37.82824, 384.0 ], [ -83.68678, 37.82829, 384.0 ], [ -83.68675, 37.82835, 383.0 ], [ -83.68672, 37.8284, 383.0 ], [ -83.68668, 37.82845, 383.0 ], [ -83.68664, 37.82849, 383.0 ], [ -83.6866, 37.82854, 383.0 ], [ -83.68657, 37.82859, 383.0 ], [ -83.68653, 37.82863, 383.0 ], [ -83.6865, 37.82869, 384.0 ], [ -83.68649, 37.82874, 384.0 ], [ -83.68648, 37.8288, 385.0 ], [ -83.68646, 37.82885, 385.0 ], [ -83.68647, 37.8289, 385.0 ], [ -83.68647, 37.82896, 386.0 ], [ -83.68648, 37.82901, 386.0 ], [ -83.68648, 37.82903, 387.0 ], [ -83.68648, 37.82906, 387.0 ], [ -83.6865, 37.82911, 387.0 ], [ -83.68651, 37.82916, 388.0 ], [ -83.68656, 37.82921, 389.0 ], [ -83.68659, 37.82926, 390.0 ], [ -83.68665, 37.8293, 390.0 ], [ -83.6867, 37.82935, 390.0 ], [ -83.68675, 37.8294, 390.0 ], [ -83.68681, 37.82944, 390.0 ], [ -83.68686, 37.82949, 390.0 ], [ -83.6869, 37.82954, 390.0 ], [ -83.68694, 37.82958, 389.0 ], [ -83.68695, 37.82964, 390.0 ], [ -83.68696, 37.82969, 390.0 ], [ -83.68696, 37.82974, 390.0 ], [ -83.68696, 37.82979, 390.0 ], [ -83.68695, 37.82985, 390.0 ], [ -83.68694, 37.8299, 391.0 ], [ -83.68693, 37.82995, 390.0 ], [ -83.68692, 37.83001, 390.0 ], [ -83.68691, 37.83006, 390.0 ], [ -83.68689, 37.83012, 389.0 ], [ -83.6869, 37.83017, 389.0 ], [ -83.68687, 37.83022, 388.0 ], [ -83.68683, 37.83027, 388.0 ], [ -83.68675, 37.83028, 387.0 ], [ -83.68668, 37.8303, 387.0 ], [ -83.68661, 37.83032, 387.0 ], [ -83.68659, 37.83036, 386.0 ], [ -83.6866, 37.83041, 386.0 ], [ -83.68662, 37.83046, 386.0 ], [ -83.68667, 37.83051, 386.0 ], [ -83.6867, 37.83056, 385.0 ], [ -83.68676, 37.8306, 384.0 ], [ -83.68681, 37.83065, 383.0 ], [ -83.68684, 37.8307, 382.0 ], [ -83.68682, 37.83074, 381.0 ], [ -83.68677, 37.83078, 380.0 ], [ -83.68672, 37.83082, 379.0 ], [ -83.68668, 37.83086, 378.0 ], [ -83.6866, 37.83087, 377.0 ], [ -83.68655, 37.8309, 376.0 ], [ -83.68647, 37.83091, 375.0 ], [ -83.68643, 37.83096, 373.0 ], [ -83.6864, 37.83101, 371.0 ], [ -83.68639, 37.83106, 369.0 ], [ -83.68642, 37.83111, 368.0 ], [ -83.68644, 37.83116, 366.0 ], [ -83.68648, 37.83121, 365.0 ], [ -83.6865, 37.83126, 364.0 ], [ -83.68651, 37.83129, 363.0 ], [ -83.68652, 37.83131, 363.0 ], [ -83.68656, 37.83136, 361.0 ], [ -83.68659, 37.83141, 360.0 ], [ -83.68661, 37.83146, 359.0 ], [ -83.68666, 37.83151, 358.0 ], [ -83.68667, 37.83156, 357.0 ], [ -83.68668, 37.83161, 355.0 ], [ -83.68668, 37.83166, 354.0 ], [ -83.68668, 37.83171, 353.0 ], [ -83.68667, 37.83177, 353.0 ], [ -83.68666, 37.83182, 352.0 ], [ -83.68665, 37.83187, 352.0 ], [ -83.68662, 37.83193, 351.0 ], [ -83.68659, 37.83199, 350.0 ], [ -83.68657, 37.83204, 349.0 ], [ -83.68654, 37.8321, 348.0 ], [ -83.68651, 37.83215, 347.0 ], [ -83.68648, 37.83221, 346.0 ], [ -83.68645, 37.83227, 345.0 ], [ -83.68643, 37.83232, 345.0 ], [ -83.68641, 37.83237, 345.0 ], [ -83.6864, 37.83243, 345.0 ], [ -83.68639, 37.83248, 345.0 ], [ -83.68638, 37.83254, 345.0 ], [ -83.68637, 37.83259, 345.0 ], [ -83.68634, 37.83265, 345.0 ], [ -83.68631, 37.8327, 344.0 ], [ -83.68627, 37.83275, 343.0 ], [ -83.68623, 37.83279, 342.0 ], [ -83.68619, 37.83284, 341.0 ], [ -83.68616, 37.83289, 340.0 ], [ -83.68612, 37.83293, 339.0 ], [ -83.68609, 37.83299, 339.0 ], [ -83.68606, 37.83304, 339.0 ], [ -83.68603, 37.8331, 339.0 ], [ -83.686, 37.83315, 339.0 ], [ -83.68597, 37.8332, 339.0 ], [ -83.68591, 37.83323, 338.0 ], [ -83.68586, 37.83326, 338.0 ], [ -83.6858, 37.83329, 337.0 ], [ -83.68575, 37.83333, 336.0 ], [ -83.68569, 37.83336, 336.0 ], [ -83.68564, 37.8334, 335.0 ], [ -83.68558, 37.83342, 334.0 ], [ -83.68553, 37.83346, 334.0 ], [ -83.68548, 37.83349, 333.0 ], [ -83.68544, 37.83353, 333.0 ], [ -83.68541, 37.83359, 333.0 ], [ -83.68541, 37.83364, 335.0 ], [ -83.68541, 37.83369, 336.0 ], [ -83.68539, 37.83374, 337.0 ], [ -83.68535, 37.83378, 337.0 ], [ -83.6853, 37.83381, 337.0 ], [ -83.68524, 37.83384, 337.0 ], [ -83.68519, 37.83388, 338.0 ], [ -83.68513, 37.8339, 338.0 ], [ -83.68506, 37.83392, 338.0 ], [ -83.68499, 37.83394, 338.0 ], [ -83.68492, 37.83396, 338.0 ], [ -83.68484, 37.83397, 337.0 ], [ -83.68476, 37.83398, 337.0 ], [ -83.68469, 37.834, 337.0 ], [ -83.68461, 37.83401, 336.0 ], [ -83.68456, 37.83404, 336.0 ], [ -83.6845, 37.83407, 336.0 ], [ -83.68446, 37.83412, 337.0 ], [ -83.68443, 37.83417, 337.0 ], [ -83.68442, 37.83423, 339.0 ], [ -83.68444, 37.83428, 340.0 ], [ -83.68444, 37.83433, 342.0 ], [ -83.68445, 37.83438, 343.0 ], [ -83.68445, 37.83443, 344.0 ], [ -83.68446, 37.83448, 345.0 ], [ -83.68445, 37.83454, 345.0 ], [ -83.68445, 37.83459, 346.0 ], [ -83.68445, 37.83464, 346.0 ], [ -83.68444, 37.8347, 346.0 ], [ -83.68443, 37.83475, 346.0 ], [ -83.68442, 37.8348, 346.0 ], [ -83.68438, 37.83485, 345.0 ], [ -83.68434, 37.8349, 344.0 ], [ -83.6843, 37.83494, 343.0 ], [ -83.68425, 37.83498, 341.0 ], [ -83.68419, 37.83501, 339.0 ], [ -83.68415, 37.83504, 338.0 ], [ -83.6841, 37.83508, 336.0 ], [ -83.68404, 37.83511, 334.0 ], [ -83.68399, 37.83514, 333.0 ], [ -83.68398, 37.83516, 332.0 ], [ -83.68395, 37.83519, 331.0 ], [ -83.6839, 37.83523, 329.0 ], [ -83.68387, 37.83528, 328.0 ], [ -83.68388, 37.83534, 329.0 ], [ -83.68386, 37.83539, 329.0 ], [ -83.68387, 37.83544, 330.0 ], [ -83.68387, 37.83549, 330.0 ], [ -83.68388, 37.83555, 331.0 ], [ -83.68388, 37.8356, 332.0 ], [ -83.6839, 37.83565, 333.0 ], [ -83.68387, 37.8357, 333.0 ], [ -83.68386, 37.83576, 334.0 ], [ -83.68385, 37.83581, 334.0 ], [ -83.68383, 37.83587, 334.0 ], [ -83.68384, 37.83592, 335.0 ], [ -83.68385, 37.83597, 337.0 ], [ -83.68386, 37.83602, 338.0 ], [ -83.68384, 37.83608, 338.0 ], [ -83.68383, 37.83613, 338.0 ], [ -83.6838, 37.83619, 338.0 ], [ -83.68377, 37.83624, 337.0 ], [ -83.68376, 37.83629, 337.0 ], [ -83.68374, 37.83635, 337.0 ], [ -83.68375, 37.8364, 337.0 ], [ -83.68376, 37.83645, 339.0 ], [ -83.68377, 37.8365, 339.0 ], [ -83.68375, 37.83656, 340.0 ], [ -83.68374, 37.83661, 340.0 ], [ -83.68371, 37.83667, 340.0 ], [ -83.68368, 37.83672, 339.0 ], [ -83.68365, 37.83678, 339.0 ], [ -83.68363, 37.83683, 338.0 ], [ -83.6836, 37.83689, 337.0 ], [ -83.68357, 37.83695, 336.0 ], [ -83.68357, 37.83697, 336.0 ], [ -83.68356, 37.837, 335.0 ], [ -83.68354, 37.83706, 334.0 ], [ -83.68355, 37.83711, 334.0 ], [ -83.68357, 37.83716, 335.0 ], [ -83.68359, 37.83721, 335.0 ], [ -83.68361, 37.83726, 336.0 ], [ -83.68363, 37.83731, 337.0 ], [ -83.68365, 37.83736, 338.0 ], [ -83.68366, 37.83741, 339.0 ], [ -83.68367, 37.83746, 339.0 ], [ -83.68365, 37.83751, 339.0 ], [ -83.68364, 37.83757, 340.0 ], [ -83.68361, 37.83762, 340.0 ], [ -83.68358, 37.83768, 340.0 ], [ -83.68355, 37.83774, 341.0 ], [ -83.68353, 37.83779, 341.0 ], [ -83.6835, 37.83785, 341.0 ], [ -83.68347, 37.8379, 341.0 ], [ -83.68344, 37.83796, 340.0 ], [ -83.68344, 37.83801, 341.0 ], [ -83.68347, 37.83806, 342.0 ], [ -83.68352, 37.83811, 342.0 ], [ -83.68358, 37.83814, 343.0 ], [ -83.68363, 37.83819, 344.0 ], [ -83.6837, 37.8382, 346.0 ], [ -83.68376, 37.83823, 347.0 ], [ -83.68383, 37.83824, 349.0 ], [ -83.68389, 37.83829, 351.0 ], [ -83.68394, 37.83832, 351.0 ], [ -83.684, 37.83837, 351.0 ], [ -83.68405, 37.83842, 350.0 ], [ -83.6841, 37.83846, 350.0 ], [ -83.68416, 37.83851, 350.0 ], [ -83.68421, 37.83855, 350.0 ], [ -83.68424, 37.8386, 349.0 ], [ -83.68428, 37.83865, 347.0 ], [ -83.68431, 37.8387, 346.0 ], [ -83.68434, 37.83874, 345.0 ], [ -83.68442, 37.83874, 345.0 ], [ -83.6845, 37.83873, 344.0 ], [ -83.68458, 37.83872, 344.0 ], [ -83.68465, 37.8387, 343.0 ], [ -83.68469, 37.83866, 343.0 ], [ -83.6847, 37.83861, 344.0 ], [ -83.6847, 37.83855, 345.0 ], [ -83.68469, 37.8385, 345.0 ], [ -83.68469, 37.83845, 346.0 ], [ -83.68469, 37.8384, 346.0 ], [ -83.6847, 37.83834, 347.0 ], [ -83.68474, 37.8383, 346.0 ], [ -83.68478, 37.83826, 344.0 ], [ -83.68482, 37.83821, 343.0 ], [ -83.68486, 37.83817, 342.0 ], [ -83.68489, 37.83811, 341.0 ], [ -83.68492, 37.83805, 340.0 ], [ -83.68492, 37.838, 340.0 ], [ -83.68489, 37.83795, 340.0 ], [ -83.68484, 37.83791, 342.0 ], [ -83.68478, 37.83787, 343.0 ], [ -83.68473, 37.83783, 344.0 ], [ -83.68466, 37.83781, 346.0 ], [ -83.68459, 37.83779, 347.0 ], [ -83.68452, 37.83777, 348.0 ], [ -83.68446, 37.83775, 349.0 ], [ -83.68439, 37.83773, 349.0 ], [ -83.68434, 37.83769, 349.0 ], [ -83.68428, 37.83765, 349.0 ], [ -83.68423, 37.83761, 349.0 ], [ -83.68417, 37.83756, 349.0 ], [ -83.68412, 37.83751, 348.0 ], [ -83.68406, 37.83748, 347.0 ], [ -83.684, 37.83749, 347.0 ], [ -83.68396, 37.83753, 347.0 ], [ -83.68395, 37.83758, 347.0 ], [ -83.68395, 37.83764, 348.0 ], [ -83.68396, 37.83769, 348.0 ], [ -83.68396, 37.83774, 349.0 ], [ -83.68397, 37.83779, 350.0 ], [ -83.68397, 37.83785, 351.0 ], [ -83.68399, 37.8379, 351.0 ], [ -83.684, 37.83795, 352.0 ], [ -83.68403, 37.838, 353.0 ], [ -83.68406, 37.83802, 353.0 ], [ -83.68403, 37.838, 353.0 ], [ -83.684, 37.83795, 352.0 ], [ -83.68399, 37.8379, 351.0 ], [ -83.68397, 37.83785, 351.0 ], [ -83.68397, 37.83779, 350.0 ], [ -83.68396, 37.83774, 349.0 ], [ -83.68396, 37.83769, 348.0 ], [ -83.68395, 37.83764, 348.0 ], [ -83.68395, 37.83758, 347.0 ], [ -83.68396, 37.83753, 347.0 ], [ -83.684, 37.83749, 347.0 ], [ -83.68406, 37.83748, 347.0 ], [ -83.68412, 37.83751, 348.0 ], [ -83.68417, 37.83756, 349.0 ], [ -83.68423, 37.83761, 349.0 ], [ -83.68428, 37.83765, 349.0 ], [ -83.68434, 37.83769, 349.0 ], [ -83.68439, 37.83773, 349.0 ], [ -83.68446, 37.83775, 349.0 ], [ -83.68452, 37.83777, 348.0 ], [ -83.68459, 37.83779, 347.0 ], [ -83.68466, 37.83781, 346.0 ], [ -83.68473, 37.83783, 344.0 ], [ -83.68478, 37.83787, 343.0 ], [ -83.68484, 37.83791, 342.0 ], [ -83.68489, 37.83795, 340.0 ], [ -83.68492, 37.838, 340.0 ], [ -83.68492, 37.83805, 340.0 ], [ -83.68489, 37.83811, 341.0 ], [ -83.68486, 37.83817, 342.0 ], [ -83.68482, 37.83821, 343.0 ], [ -83.68478, 37.83826, 344.0 ], [ -83.68474, 37.8383, 346.0 ], [ -83.6847, 37.83834, 347.0 ], [ -83.68469, 37.8384, 346.0 ], [ -83.68469, 37.83845, 346.0 ], [ -83.68469, 37.8385, 345.0 ], [ -83.6847, 37.83855, 345.0 ], [ -83.6847, 37.83861, 344.0 ], [ -83.68469, 37.83866, 343.0 ], [ -83.68465, 37.8387, 343.0 ], [ -83.68458, 37.83872, 344.0 ], [ -83.6845, 37.83873, 344.0 ], [ -83.68442, 37.83874, 345.0 ], [ -83.68434, 37.83874, 345.0 ], [ -83.68431, 37.8387, 346.0 ], [ -83.68428, 37.83865, 347.0 ], [ -83.68424, 37.8386, 349.0 ], [ -83.68421, 37.83855, 350.0 ], [ -83.68416, 37.83851, 350.0 ], [ -83.6841, 37.83846, 350.0 ], [ -83.68405, 37.83842, 350.0 ], [ -83.684, 37.83837, 351.0 ], [ -83.68394, 37.83832, 351.0 ], [ -83.68389, 37.83829, 351.0 ], [ -83.68383, 37.83824, 349.0 ], [ -83.68376, 37.83823, 347.0 ], [ -83.6837, 37.8382, 346.0 ], [ -83.68363, 37.83819, 344.0 ], [ -83.68358, 37.83814, 343.0 ], [ -83.68352, 37.83811, 342.0 ], [ -83.68347, 37.83806, 342.0 ], [ -83.68344, 37.83801, 341.0 ], [ -83.68344, 37.83796, 340.0 ], [ -83.68347, 37.8379, 341.0 ], [ -83.6835, 37.83785, 341.0 ], [ -83.68353, 37.83779, 341.0 ], [ -83.68355, 37.83774, 341.0 ], [ -83.68358, 37.83768, 340.0 ], [ -83.68361, 37.83762, 340.0 ], [ -83.68364, 37.83757, 340.0 ], [ -83.68365, 37.83751, 339.0 ], [ -83.68367, 37.83746, 339.0 ], [ -83.68366, 37.83741, 339.0 ], [ -83.68365, 37.83736, 338.0 ], [ -83.68363, 37.83731, 337.0 ], [ -83.68361, 37.83726, 336.0 ], [ -83.68359, 37.83721, 335.0 ], [ -83.68357, 37.83716, 335.0 ], [ -83.68355, 37.83711, 334.0 ], [ -83.68354, 37.83706, 334.0 ], [ -83.68356, 37.837, 335.0 ], [ -83.68357, 37.83697, 336.0 ], [ -83.68357, 37.83695, 336.0 ], [ -83.6836, 37.83689, 337.0 ], [ -83.68363, 37.83683, 338.0 ], [ -83.68365, 37.83678, 339.0 ], [ -83.68368, 37.83672, 339.0 ], [ -83.68371, 37.83667, 340.0 ], [ -83.68374, 37.83661, 340.0 ], [ -83.68375, 37.83656, 340.0 ], [ -83.68377, 37.8365, 339.0 ], [ -83.68376, 37.83645, 339.0 ], [ -83.68375, 37.8364, 337.0 ], [ -83.68374, 37.83635, 337.0 ], [ -83.68376, 37.83629, 337.0 ], [ -83.68377, 37.83624, 337.0 ], [ -83.6838, 37.83619, 338.0 ], [ -83.68383, 37.83613, 338.0 ], [ -83.68384, 37.83608, 338.0 ], [ -83.68386, 37.83602, 338.0 ], [ -83.68385, 37.83597, 337.0 ], [ -83.68384, 37.83592, 335.0 ], [ -83.68383, 37.83587, 334.0 ], [ -83.68385, 37.83581, 334.0 ], [ -83.68386, 37.83576, 334.0 ], [ -83.68387, 37.8357, 333.0 ], [ -83.6839, 37.83565, 333.0 ], [ -83.68388, 37.8356, 332.0 ], [ -83.68388, 37.83555, 331.0 ], [ -83.68387, 37.83549, 330.0 ], [ -83.68387, 37.83544, 330.0 ], [ -83.68386, 37.83539, 329.0 ], [ -83.68388, 37.83534, 329.0 ], [ -83.68387, 37.83528, 328.0 ], [ -83.6839, 37.83523, 329.0 ], [ -83.68395, 37.83519, 331.0 ], [ -83.68398, 37.83516, 332.0 ], [ -83.68399, 37.83514, 333.0 ], [ -83.68404, 37.83511, 334.0 ], [ -83.6841, 37.83508, 336.0 ], [ -83.68415, 37.83504, 338.0 ], [ -83.68419, 37.83501, 339.0 ], [ -83.68425, 37.83498, 341.0 ], [ -83.6843, 37.83494, 343.0 ], [ -83.68434, 37.8349, 344.0 ], [ -83.68438, 37.83485, 345.0 ], [ -83.68442, 37.8348, 346.0 ], [ -83.68443, 37.83475, 346.0 ], [ -83.68444, 37.8347, 346.0 ], [ -83.68445, 37.83464, 346.0 ], [ -83.68445, 37.83459, 346.0 ], [ -83.68445, 37.83454, 345.0 ], [ -83.68446, 37.83448, 345.0 ], [ -83.68445, 37.83443, 344.0 ], [ -83.68445, 37.83438, 343.0 ], [ -83.68444, 37.83433, 342.0 ], [ -83.68444, 37.83428, 340.0 ], [ -83.68442, 37.83423, 339.0 ], [ -83.68443, 37.83417, 337.0 ], [ -83.68446, 37.83412, 337.0 ], [ -83.6845, 37.83407, 336.0 ], [ -83.68456, 37.83404, 336.0 ], [ -83.68461, 37.83401, 336.0 ], [ -83.68469, 37.834, 337.0 ], [ -83.68476, 37.83398, 337.0 ], [ -83.68484, 37.83397, 337.0 ], [ -83.68492, 37.83396, 338.0 ], [ -83.68499, 37.83394, 338.0 ], [ -83.68506, 37.83392, 338.0 ], [ -83.68513, 37.8339, 338.0 ], [ -83.68519, 37.83388, 338.0 ], [ -83.68524, 37.83384, 337.0 ], [ -83.6853, 37.83381, 337.0 ], [ -83.68535, 37.83378, 337.0 ], [ -83.68539, 37.83374, 337.0 ], [ -83.68541, 37.83369, 336.0 ], [ -83.68541, 37.83364, 335.0 ], [ -83.68541, 37.83359, 333.0 ], [ -83.68544, 37.83353, 333.0 ], [ -83.68548, 37.83349, 333.0 ], [ -83.68553, 37.83346, 334.0 ], [ -83.68558, 37.83342, 334.0 ], [ -83.68564, 37.8334, 335.0 ], [ -83.68569, 37.83336, 336.0 ], [ -83.68575, 37.83333, 336.0 ], [ -83.6858, 37.83329, 337.0 ], [ -83.68586, 37.83326, 338.0 ], [ -83.68591, 37.83323, 338.0 ], [ -83.68597, 37.8332, 339.0 ], [ -83.686, 37.83315, 339.0 ], [ -83.68603, 37.8331, 339.0 ], [ -83.68606, 37.83304, 339.0 ], [ -83.68609, 37.83299, 339.0 ], [ -83.68612, 37.83293, 339.0 ], [ -83.68616, 37.83289, 340.0 ], [ -83.68619, 37.83284, 341.0 ], [ -83.68623, 37.83279, 342.0 ], [ -83.68627, 37.83275, 343.0 ], [ -83.68631, 37.8327, 344.0 ], [ -83.68634, 37.83265, 345.0 ], [ -83.68637, 37.83259, 345.0 ], [ -83.68638, 37.83254, 345.0 ], [ -83.68639, 37.83248, 345.0 ], [ -83.6864, 37.83243, 345.0 ], [ -83.68641, 37.83237, 345.0 ], [ -83.68643, 37.83232, 345.0 ], [ -83.68645, 37.83227, 345.0 ], [ -83.68648, 37.83221, 346.0 ], [ -83.68651, 37.83215, 347.0 ], [ -83.68654, 37.8321, 348.0 ], [ -83.68657, 37.83204, 349.0 ], [ -83.68659, 37.83199, 350.0 ], [ -83.68662, 37.83193, 351.0 ], [ -83.68665, 37.83187, 352.0 ], [ -83.68666, 37.83182, 352.0 ], [ -83.68667, 37.83177, 353.0 ], [ -83.68668, 37.83171, 353.0 ], [ -83.68668, 37.83166, 354.0 ], [ -83.68668, 37.83161, 355.0 ], [ -83.68667, 37.83156, 357.0 ], [ -83.68666, 37.83151, 358.0 ], [ -83.68661, 37.83146, 359.0 ], [ -83.68659, 37.83141, 360.0 ], [ -83.68656, 37.83136, 361.0 ], [ -83.68652, 37.83131, 363.0 ], [ -83.68651, 37.83129, 363.0 ], [ -83.6865, 37.83126, 364.0 ], [ -83.68648, 37.83121, 365.0 ], [ -83.68644, 37.83116, 366.0 ], [ -83.68642, 37.83111, 368.0 ], [ -83.68639, 37.83106, 369.0 ], [ -83.6864, 37.83101, 371.0 ], [ -83.68643, 37.83096, 373.0 ], [ -83.68647, 37.83091, 375.0 ], [ -83.68655, 37.8309, 376.0 ], [ -83.6866, 37.83087, 377.0 ], [ -83.68668, 37.83086, 378.0 ], [ -83.68672, 37.83082, 379.0 ], [ -83.68677, 37.83078, 380.0 ], [ -83.68682, 37.83074, 381.0 ], [ -83.68684, 37.8307, 382.0 ], [ -83.68681, 37.83065, 383.0 ], [ -83.68676, 37.8306, 384.0 ], [ -83.6867, 37.83056, 385.0 ], [ -83.68667, 37.83051, 386.0 ], [ -83.68662, 37.83046, 386.0 ], [ -83.6866, 37.83041, 386.0 ], [ -83.68659, 37.83036, 386.0 ], [ -83.68661, 37.83032, 387.0 ], [ -83.68668, 37.8303, 387.0 ], [ -83.68675, 37.83028, 387.0 ], [ -83.68683, 37.83027, 388.0 ], [ -83.68687, 37.83022, 388.0 ], [ -83.6869, 37.83017, 389.0 ], [ -83.68689, 37.83012, 389.0 ], [ -83.68691, 37.83006, 390.0 ], [ -83.68692, 37.83001, 390.0 ], [ -83.68693, 37.82995, 390.0 ], [ -83.68694, 37.8299, 391.0 ], [ -83.68695, 37.82985, 390.0 ], [ -83.68696, 37.82979, 390.0 ], [ -83.68696, 37.82974, 390.0 ], [ -83.68696, 37.82969, 390.0 ], [ -83.68695, 37.82964, 390.0 ], [ -83.68694, 37.82958, 389.0 ], [ -83.6869, 37.82954, 390.0 ], [ -83.68686, 37.82949, 390.0 ], [ -83.68681, 37.82944, 390.0 ], [ -83.68675, 37.8294, 390.0 ], [ -83.6867, 37.82935, 390.0 ], [ -83.68665, 37.8293, 390.0 ], [ -83.68659, 37.82926, 390.0 ], [ -83.68656, 37.82921, 389.0 ], [ -83.68651, 37.82916, 388.0 ], [ -83.6865, 37.82911, 387.0 ], [ -83.68648, 37.82906, 387.0 ], [ -83.68648, 37.82903, 387.0 ], [ -83.68648, 37.82901, 386.0 ], [ -83.68647, 37.82896, 386.0 ], [ -83.68647, 37.8289, 385.0 ], [ -83.68646, 37.82885, 385.0 ], [ -83.68648, 37.8288, 385.0 ], [ -83.68649, 37.82874, 384.0 ], [ -83.6865, 37.82869, 384.0 ], [ -83.68653, 37.82863, 383.0 ], [ -83.68657, 37.82859, 383.0 ], [ -83.6866, 37.82854, 383.0 ], [ -83.68664, 37.82849, 383.0 ], [ -83.68668, 37.82845, 383.0 ], [ -83.68672, 37.8284, 383.0 ], [ -83.68675, 37.82835, 383.0 ], [ -83.68678, 37.82829, 384.0 ], [ -83.6868, 37.82824, 384.0 ], [ -83.68683, 37.82818, 385.0 ], [ -83.68687, 37.82813, 386.0 ], [ -83.68691, 37.82809, 387.0 ], [ -83.68695, 37.82804, 388.0 ], [ -83.68699, 37.82799, 388.0 ], [ -83.68702, 37.82795, 387.0 ], [ -83.68705, 37.82789, 387.0 ], [ -83.68708, 37.82784, 387.0 ], [ -83.68711, 37.82778, 386.0 ], [ -83.68714, 37.82773, 385.0 ], [ -83.68716, 37.82767, 384.0 ], [ -83.68719, 37.82761, 383.0 ], [ -83.68722, 37.82756, 383.0 ], [ -83.68725, 37.8275, 382.0 ], [ -83.68726, 37.82748, 382.0 ], [ -83.68727, 37.82745, 383.0 ], [ -83.6873, 37.82739, 384.0 ], [ -83.68733, 37.82734, 384.0 ], [ -83.68734, 37.82728, 385.0 ], [ -83.68737, 37.82723, 385.0 ], [ -83.68735, 37.82718, 386.0 ], [ -83.68735, 37.82712, 386.0 ], [ -83.68734, 37.82707, 387.0 ], [ -83.68734, 37.82702, 387.0 ], [ -83.68733, 37.82697, 388.0 ], [ -83.68734, 37.82692, 387.0 ], [ -83.68736, 37.82686, 387.0 ], [ -83.68735, 37.82681, 387.0 ], [ -83.68736, 37.82676, 386.0 ], [ -83.68738, 37.8267, 386.0 ], [ -83.68739, 37.82665, 386.0 ], [ -83.6874, 37.82659, 385.0 ], [ -83.68743, 37.82654, 385.0 ], [ -83.68746, 37.82648, 385.0 ], [ -83.68748, 37.82643, 385.0 ], [ -83.68751, 37.82637, 386.0 ], [ -83.68754, 37.82632, 386.0 ], [ -83.68757, 37.82626, 386.0 ], [ -83.68759, 37.8262, 387.0 ], [ -83.68762, 37.82615, 388.0 ], [ -83.68763, 37.82609, 389.0 ], [ -83.68765, 37.82604, 389.0 ], [ -83.68766, 37.82599, 389.0 ], [ -83.68765, 37.82594, 389.0 ], [ -83.68765, 37.82588, 390.0 ], [ -83.68766, 37.82583, 390.0 ], [ -83.68766, 37.82578, 390.0 ], [ -83.68765, 37.82573, 390.0 ], [ -83.68766, 37.82567, 390.0 ], [ -83.68768, 37.82562, 390.0 ], [ -83.68767, 37.82556, 390.0 ], [ -83.6877, 37.82552, 390.0 ], [ -83.6877, 37.82547, 389.0 ], [ -83.68774, 37.82543, 389.0 ], [ -83.68776, 37.82539, 389.0 ], [ -83.68781, 37.82535, 390.0 ], [ -83.68785, 37.8253, 389.0 ], [ -83.68789, 37.82526, 389.0 ], [ -83.68794, 37.82522, 389.0 ], [ -83.68798, 37.82518, 388.0 ], [ -83.68803, 37.82515, 388.0 ], [ -83.68808, 37.82511, 388.0 ], [ -83.68813, 37.82507, 388.0 ], [ -83.68818, 37.82504, 388.0 ], [ -83.68823, 37.825, 388.0 ], [ -83.68827, 37.82495, 388.0 ], [ -83.68832, 37.82492, 388.0 ], [ -83.68837, 37.82488, 388.0 ], [ -83.68842, 37.82484, 388.0 ], [ -83.68847, 37.82481, 388.0 ], [ -83.68855, 37.8248, 390.0 ], [ -83.6886, 37.82477, 390.0 ], [ -83.68867, 37.82475, 391.0 ], [ -83.68874, 37.82473, 392.0 ], [ -83.6888, 37.8247, 392.0 ], [ -83.68888, 37.8247, 394.0 ], [ -83.68895, 37.82471, 394.0 ], [ -83.68903, 37.82471, 395.0 ], [ -83.6891, 37.82471, 395.0 ], [ -83.68918, 37.82471, 395.0 ], [ -83.68925, 37.8247, 396.0 ], [ -83.68932, 37.82468, 396.0 ], [ -83.68939, 37.82466, 396.0 ], [ -83.68946, 37.82464, 396.0 ], [ -83.68953, 37.82462, 397.0 ], [ -83.68961, 37.82461, 397.0 ], [ -83.68968, 37.8246, 397.0 ], [ -83.68975, 37.82458, 398.0 ], [ -83.68982, 37.82456, 398.0 ], [ -83.68988, 37.82453, 398.0 ], [ -83.68994, 37.8245, 399.0 ], [ -83.69, 37.82448, 399.0 ], [ -83.69005, 37.82444, 399.0 ], [ -83.6901, 37.8244, 399.0 ], [ -83.69015, 37.82436, 400.0 ], [ -83.69018, 37.82432, 400.0 ], [ -83.69022, 37.82427, 400.0 ], [ -83.69026, 37.82423, 400.0 ], [ -83.69029, 37.82417, 400.0 ], [ -83.69032, 37.82411, 400.0 ], [ -83.69034, 37.82406, 400.0 ], [ -83.69036, 37.824, 399.0 ], [ -83.69037, 37.82395, 399.0 ], [ -83.69038, 37.8239, 398.0 ], [ -83.69039, 37.82384, 398.0 ], [ -83.69039, 37.82379, 398.0 ], [ -83.6904, 37.82374, 398.0 ], [ -83.69041, 37.82368, 398.0 ], [ -83.69042, 37.82363, 398.0 ], [ -83.69042, 37.82358, 399.0 ], [ -83.69043, 37.82352, 399.0 ], [ -83.69044, 37.82347, 400.0 ], [ -83.69045, 37.82342, 400.0 ], [ -83.69047, 37.82336, 401.0 ], [ -83.69048, 37.82331, 401.0 ], [ -83.69049, 37.82326, 400.0 ], [ -83.6905, 37.8232, 400.0 ], [ -83.69051, 37.82315, 399.0 ], [ -83.69051, 37.8231, 399.0 ], [ -83.69052, 37.82304, 399.0 ], [ -83.69053, 37.82299, 399.0 ], [ -83.69054, 37.82293, 399.0 ], [ -83.69054, 37.82288, 399.0 ], [ -83.69055, 37.82283, 399.0 ], [ -83.69056, 37.82277, 398.0 ], [ -83.69056, 37.82272, 399.0 ], [ -83.69055, 37.82267, 399.0 ], [ -83.69057, 37.82262, 399.0 ], [ -83.69056, 37.82256, 399.0 ], [ -83.69056, 37.82251, 399.0 ], [ -83.69055, 37.82246, 399.0 ], [ -83.69055, 37.82241, 399.0 ], [ -83.69053, 37.82236, 399.0 ], [ -83.69052, 37.82231, 398.0 ], [ -83.69047, 37.82226, 399.0 ], [ -83.69044, 37.82221, 399.0 ], [ -83.69038, 37.82218, 399.0 ], [ -83.69032, 37.82213, 399.0 ], [ -83.69025, 37.82211, 399.0 ], [ -83.69019, 37.8221, 399.0 ], [ -83.69012, 37.82209, 399.0 ], [ -83.69005, 37.82208, 399.0 ], [ -83.68998, 37.82206, 399.0 ], [ -83.68991, 37.82205, 399.0 ], [ -83.68984, 37.82202, 398.0 ], [ -83.68978, 37.82201, 398.0 ], [ -83.68972, 37.82198, 397.0 ], [ -83.68966, 37.82193, 397.0 ], [ -83.68964, 37.82188, 396.0 ], [ -83.68961, 37.82183, 395.0 ], [ -83.68957, 37.82178, 395.0 ], [ -83.68955, 37.82173, 394.0 ], [ -83.68951, 37.82168, 395.0 ], [ -83.68948, 37.82164, 395.0 ], [ -83.68944, 37.82159, 395.0 ], [ -83.6894, 37.82154, 395.0 ], [ -83.68935, 37.82149, 395.0 ], [ -83.6893, 37.82145, 395.0 ], [ -83.68924, 37.82141, 396.0 ], [ -83.68918, 37.82138, 397.0 ], [ -83.68912, 37.82134, 398.0 ], [ -83.68907, 37.8213, 398.0 ], [ -83.68901, 37.82127, 399.0 ], [ -83.689, 37.82126, 399.0 ], [ -83.68896, 37.82122, 399.0 ], [ -83.68892, 37.82117, 400.0 ], [ -83.68888, 37.82113, 401.0 ], [ -83.68885, 37.82108, 400.0 ], [ -83.68882, 37.82103, 400.0 ], [ -83.6888, 37.82098, 400.0 ], [ -83.68877, 37.82093, 400.0 ], [ -83.68875, 37.82088, 400.0 ], [ -83.68873, 37.82083, 400.0 ], [ -83.68871, 37.82078, 400.0 ], [ -83.68869, 37.82073, 399.0 ], [ -83.68868, 37.82068, 399.0 ], [ -83.68866, 37.82063, 399.0 ], [ -83.68866, 37.82057, 399.0 ], [ -83.68864, 37.82052, 399.0 ], [ -83.68863, 37.82047, 399.0 ], [ -83.68861, 37.82042, 399.0 ], [ -83.68861, 37.82037, 399.0 ], [ -83.6886, 37.82032, 399.0 ], [ -83.6886, 37.82026, 398.0 ], [ -83.68858, 37.82021, 398.0 ], [ -83.68857, 37.82016, 398.0 ], [ -83.68855, 37.82011, 398.0 ], [ -83.68852, 37.82006, 398.0 ], [ -83.68848, 37.82002, 399.0 ], [ -83.68846, 37.81997, 399.0 ], [ -83.68842, 37.81992, 398.0 ], [ -83.68839, 37.81987, 398.0 ], [ -83.68835, 37.81982, 398.0 ], [ -83.68831, 37.81977, 398.0 ], [ -83.68826, 37.81973, 398.0 ], [ -83.6882, 37.81969, 400.0 ], [ -83.68815, 37.81965, 401.0 ], [ -83.68809, 37.81962, 402.0 ], [ -83.68802, 37.81959, 403.0 ], [ -83.68795, 37.81958, 403.0 ], [ -83.68789, 37.81956, 404.0 ], [ -83.68782, 37.81954, 404.0 ], [ -83.68775, 37.81953, 405.0 ], [ -83.68769, 37.81954, 404.0 ], [ -83.68763, 37.81956, 404.0 ], [ -83.68756, 37.81958, 403.0 ], [ -83.6875, 37.81961, 403.0 ], [ -83.68743, 37.81963, 403.0 ], [ -83.68736, 37.81965, 402.0 ], [ -83.68729, 37.81967, 402.0 ], [ -83.68723, 37.81969, 402.0 ], [ -83.68716, 37.81971, 401.0 ], [ -83.68709, 37.81973, 400.0 ], [ -83.68703, 37.81976, 400.0 ], [ -83.68697, 37.81979, 399.0 ], [ -83.6869, 37.8198, 399.0 ], [ -83.68683, 37.81982, 398.0 ], [ -83.68677, 37.81985, 398.0 ], [ -83.6867, 37.81987, 397.0 ], [ -83.68663, 37.81989, 397.0 ], [ -83.68657, 37.81992, 396.0 ], [ -83.68651, 37.81994, 396.0 ], [ -83.68645, 37.81997, 396.0 ], [ -83.68639, 37.82, 396.0 ], [ -83.68636, 37.82005, 396.0 ], [ -83.68633, 37.8201, 396.0 ], [ -83.6863, 37.82016, 396.0 ], [ -83.68627, 37.82021, 396.0 ], [ -83.68624, 37.82027, 396.0 ], [ -83.68621, 37.82032, 397.0 ], [ -83.68619, 37.82038, 397.0 ], [ -83.68616, 37.82043, 397.0 ], [ -83.68613, 37.82049, 397.0 ], [ -83.68609, 37.82054, 397.0 ], [ -83.68605, 37.82058, 398.0 ], [ -83.68601, 37.82063, 398.0 ], [ -83.68597, 37.82067, 398.0 ], [ -83.68592, 37.8207, 399.0 ], [ -83.68587, 37.82074, 399.0 ], [ -83.68581, 37.82077, 399.0 ], [ -83.68575, 37.82079, 399.0 ], [ -83.68569, 37.82082, 400.0 ], [ -83.68562, 37.82084, 400.0 ], [ -83.68555, 37.82086, 400.0 ], [ -83.68549, 37.82089, 400.0 ], [ -83.68542, 37.8209, 400.0 ], [ -83.68535, 37.82092, 400.0 ], [ -83.68528, 37.82094, 400.0 ], [ -83.68521, 37.82096, 400.0 ], [ -83.68513, 37.82097, 400.0 ], [ -83.68505, 37.82098, 400.0 ], [ -83.68497, 37.82099, 400.0 ], [ -83.68489, 37.821, 399.0 ], [ -83.68481, 37.82099, 399.0 ], [ -83.68474, 37.82099, 399.0 ], [ -83.68466, 37.82099, 399.0 ], [ -83.68459, 37.82098, 399.0 ], [ -83.68452, 37.82096, 399.0 ], [ -83.68445, 37.82095, 399.0 ], [ -83.68439, 37.82094, 399.0 ], [ -83.68431, 37.82092, 399.0 ], [ -83.68425, 37.82091, 400.0 ], [ -83.68418, 37.8209, 400.0 ], [ -83.68411, 37.82088, 401.0 ], [ -83.68404, 37.82087, 401.0 ], [ -83.68397, 37.82085, 402.0 ], [ -83.6839, 37.82083, 402.0 ], [ -83.68384, 37.82081, 402.0 ], [ -83.68377, 37.82079, 402.0 ], [ -83.6837, 37.82078, 402.0 ], [ -83.68363, 37.82077, 402.0 ], [ -83.68356, 37.82076, 401.0 ], [ -83.68349, 37.82074, 400.0 ], [ -83.68343, 37.82073, 400.0 ], [ -83.68337, 37.82068, 399.0 ], [ -83.68331, 37.82065, 398.0 ], [ -83.68326, 37.8206, 398.0 ], [ -83.68321, 37.82055, 398.0 ], [ -83.68316, 37.82051, 398.0 ], [ -83.6831, 37.82046, 398.0 ], [ -83.68305, 37.82041, 398.0 ], [ -83.683, 37.82037, 398.0 ], [ -83.68296, 37.82032, 399.0 ], [ -83.68292, 37.82027, 399.0 ], [ -83.68289, 37.82022, 399.0 ], [ -83.68287, 37.82017, 400.0 ], [ -83.68282, 37.82013, 400.0 ], [ -83.68276, 37.82009, 401.0 ], [ -83.68268, 37.82009, 402.0 ], [ -83.6826, 37.8201, 403.0 ], [ -83.68253, 37.82012, 404.0 ], [ -83.68248, 37.82015, 405.0 ], [ -83.68243, 37.82019, 405.0 ], [ -83.68238, 37.82023, 405.0 ], [ -83.68234, 37.82027, 406.0 ], [ -83.68226, 37.82028, 406.0 ], [ -83.68221, 37.82031, 406.0 ], [ -83.68213, 37.82032, 405.0 ], [ -83.68209, 37.82037, 404.0 ], [ -83.68204, 37.82041, 403.0 ], [ -83.68198, 37.82043, 402.0 ], [ -83.6819, 37.82044, 401.0 ], [ -83.68182, 37.82043, 401.0 ], [ -83.68176, 37.82041, 400.0 ], [ -83.68169, 37.8204, 400.0 ], [ -83.68162, 37.82039, 400.0 ], [ -83.68155, 37.82037, 400.0 ], [ -83.68148, 37.82037, 400.0 ], [ -83.68142, 37.82032, 400.0 ], [ -83.68136, 37.8203, 400.0 ], [ -83.6813, 37.82026, 400.0 ], [ -83.68124, 37.82023, 400.0 ], [ -83.68118, 37.8202, 400.0 ], [ -83.68115, 37.8202, 400.0 ], [ -83.68112, 37.82018, 400.0 ] ] ] } }
]
}
