{
"type": "FeatureCollection",
"name": "Star_Gap_and_Skyview_Arch_Trail",
"crs": { "type": "name", "properties": { "name": "urn:ogc:def:crs:OGC:1.3:CRS84" } },
"features": [
{ "type": "Feature", "properties": { "Name": "Star Gap and Skyview Arch Trail" }, "geometry": { "type": "MultiLineString", "coordinates": [ [ [ -83.68263, 37.81977, 402.0 ], [ -83.68264, 37.81976, 402.0 ], [ -83.68266, 37.81981, 402.0 ], [ -83.68273, 37.82003, 402.0 ], [ -83.68297, 37.8204, 399.0 ], [ -83.68305, 37.8205, 398.0 ], [ -83.68311, 37.82055, 398.0 ], [ -83.68316, 37.8206, 398.0 ], [ -83.68322, 37.82066, 398.0 ], [ -83.68328, 37.8207, 398.0 ], [ -83.68336, 37.82072, 399.0 ], [ -83.68347, 37.82075, 400.0 ], [ -83.68354, 37.82077, 401.0 ], [ -83.68361, 37.82079, 401.0 ], [ -83.68368, 37.82081, 402.0 ], [ -83.68376, 37.82083, 402.0 ], [ -83.68385, 37.82084, 402.0 ], [ -83.68394, 37.82086, 402.0 ], [ -83.684, 37.82087, 401.0 ], [ -83.68408, 37.82089, 401.0 ], [ -83.68412, 37.8209, 401.0 ], [ -83.68417, 37.82091, 400.0 ], [ -83.68426, 37.82093, 400.0 ], [ -83.68433, 37.82095, 399.0 ], [ -83.68438, 37.82103, 399.0 ], [ -83.68441, 37.82111, 399.0 ], [ -83.68442, 37.8212, 400.0 ], [ -83.68441, 37.82129, 400.0 ], [ -83.68435, 37.8214, 400.0 ], [ -83.68431, 37.8215, 400.0 ], [ -83.68429, 37.82163, 400.0 ], [ -83.6843, 37.82174, 399.0 ], [ -83.68431, 37.82189, 398.0 ], [ -83.68436, 37.82204, 397.0 ], [ -83.68437, 37.82217, 395.0 ], [ -83.68437, 37.82228, 394.0 ], [ -83.68439, 37.82242, 393.0 ], [ -83.68444, 37.82262, 392.0 ], [ -83.68453, 37.82272, 390.0 ], [ -83.68461, 37.82282, 388.0 ], [ -83.68462, 37.82293, 385.0 ], [ -83.68466, 37.82308, 381.0 ], [ -83.68462, 37.82293, 385.0 ], [ -83.68461, 37.82282, 388.0 ], [ -83.68453, 37.82272, 390.0 ], [ -83.68444, 37.82262, 392.0 ], [ -83.68439, 37.82242, 393.0 ], [ -83.68437, 37.82228, 394.0 ], [ -83.68437, 37.82217, 395.0 ], [ -83.68436, 37.82204, 397.0 ], [ -83.68431, 37.82189, 398.0 ], [ -83.6843, 37.82174, 399.0 ], [ -83.68429, 37.82163, 400.0 ], [ -83.68431, 37.8215, 400.0 ], [ -83.68435, 37.8214, 400.0 ], [ -83.68441, 37.82129, 400.0 ], [ -83.68442, 37.8212, 400.0 ], [ -83.68441, 37.82111, 399.0 ], [ -83.68438, 37.82103, 399.0 ], [ -83.68433, 37.82095, 399.0 ], [ -83.68441, 37.82096, 399.0 ], [ -83.68448, 37.82098, 399.0 ], [ -83.68457, 37.82098, 399.0 ], [ -83.68466, 37.821, 399.0 ], [ -83.68473, 37.821, 399.0 ], [ -83.6848, 37.82099, 399.0 ], [ -83.68488, 37.82098, 399.0 ], [ -83.68496, 37.82096, 399.0 ], [ -83.68542, 37.82091, 400.0 ], [ -83.6855, 37.82089, 400.0 ], [ -83.68557, 37.82087, 400.0 ], [ -83.68566, 37.82082, 400.0 ], [ -83.68573, 37.82079, 399.0 ], [ -83.68582, 37.82075, 399.0 ], [ -83.68588, 37.82069, 399.0 ], [ -83.68593, 37.82065, 398.0 ], [ -83.68598, 37.8206, 398.0 ], [ -83.68602, 37.82054, 397.0 ], [ -83.68606, 37.8205, 397.0 ], [ -83.68613, 37.82042, 397.0 ], [ -83.68617, 37.82036, 397.0 ], [ -83.68621, 37.8203, 397.0 ], [ -83.68625, 37.82025, 396.0 ], [ -83.68628, 37.82017, 396.0 ], [ -83.68631, 37.82012, 396.0 ], [ -83.68635, 37.82006, 395.0 ], [ -83.68641, 37.82001, 396.0 ], [ -83.68646, 37.81997, 396.0 ], [ -83.68653, 37.81993, 396.0 ], [ -83.6866, 37.8199, 396.0 ], [ -83.68667, 37.81988, 397.0 ], [ -83.68675, 37.81985, 397.0 ], [ -83.68683, 37.81983, 398.0 ], [ -83.68693, 37.81983, 399.0 ], [ -83.687, 37.8198, 399.0 ], [ -83.6871, 37.81976, 400.0 ], [ -83.68754, 37.81959, 403.0 ], [ -83.68763, 37.81957, 404.0 ], [ -83.6877, 37.81957, 404.0 ], [ -83.6878, 37.81958, 404.0 ], [ -83.68788, 37.81958, 404.0 ], [ -83.68796, 37.8196, 403.0 ], [ -83.68805, 37.81962, 403.0 ], [ -83.68812, 37.81965, 402.0 ], [ -83.6882, 37.81968, 400.0 ], [ -83.68826, 37.81973, 398.0 ], [ -83.68831, 37.81978, 398.0 ], [ -83.68836, 37.81983, 398.0 ], [ -83.68841, 37.81989, 398.0 ], [ -83.68847, 37.81994, 398.0 ], [ -83.68853, 37.82, 398.0 ], [ -83.68857, 37.82006, 398.0 ], [ -83.68859, 37.82012, 398.0 ], [ -83.68861, 37.82017, 398.0 ], [ -83.68864, 37.82025, 398.0 ], [ -83.68865, 37.82032, 398.0 ], [ -83.68866, 37.82038, 398.0 ], [ -83.68866, 37.82045, 398.0 ], [ -83.68867, 37.82053, 399.0 ], [ -83.68868, 37.82059, 399.0 ], [ -83.68868, 37.82067, 399.0 ], [ -83.68868, 37.82073, 400.0 ], [ -83.68868, 37.8208, 400.0 ], [ -83.68869, 37.82086, 400.0 ], [ -83.68871, 37.82093, 400.0 ], [ -83.68876, 37.82099, 400.0 ], [ -83.68878, 37.82106, 400.0 ], [ -83.68881, 37.82111, 400.0 ], [ -83.68884, 37.82116, 401.0 ], [ -83.68891, 37.82122, 400.0 ], [ -83.68896, 37.82126, 400.0 ], [ -83.68905, 37.82128, 398.0 ], [ -83.68912, 37.82133, 398.0 ], [ -83.68919, 37.82137, 397.0 ], [ -83.68924, 37.82142, 396.0 ], [ -83.68931, 37.82147, 395.0 ], [ -83.68939, 37.82154, 395.0 ], [ -83.68945, 37.8216, 395.0 ], [ -83.68949, 37.82164, 394.0 ], [ -83.68952, 37.82169, 395.0 ], [ -83.68956, 37.82175, 395.0 ], [ -83.6896, 37.82182, 395.0 ], [ -83.68964, 37.82189, 396.0 ], [ -83.68967, 37.82195, 397.0 ], [ -83.68971, 37.82201, 397.0 ], [ -83.69015, 37.8221, 399.0 ], [ -83.69033, 37.82205, 398.0 ], [ -83.69046, 37.82201, 396.0 ], [ -83.69055, 37.82201, 395.0 ], [ -83.69064, 37.82188, 394.0 ], [ -83.69066, 37.8218, 393.0 ], [ -83.69069, 37.8217, 393.0 ], [ -83.69074, 37.82161, 393.0 ], [ -83.69079, 37.82153, 393.0 ], [ -83.69083, 37.82144, 393.0 ], [ -83.69086, 37.82133, 392.0 ], [ -83.69092, 37.82124, 392.0 ], [ -83.69096, 37.82117, 392.0 ], [ -83.69099, 37.82112, 392.0 ], [ -83.69104, 37.82106, 391.0 ], [ -83.69113, 37.82102, 391.0 ], [ -83.69123, 37.82098, 391.0 ], [ -83.69129, 37.82095, 392.0 ], [ -83.69138, 37.82093, 393.0 ], [ -83.69147, 37.82094, 394.0 ], [ -83.69159, 37.82097, 396.0 ], [ -83.69169, 37.821, 397.0 ], [ -83.69178, 37.82103, 397.0 ], [ -83.69192, 37.82104, 398.0 ], [ -83.69207, 37.82104, 399.0 ], [ -83.69226, 37.82101, 400.0 ], [ -83.69244, 37.82101, 401.0 ], [ -83.69256, 37.82103, 402.0 ], [ -83.69271, 37.82105, 403.0 ], [ -83.69285, 37.82109, 403.0 ], [ -83.69298, 37.82114, 403.0 ], [ -83.69307, 37.82118, 403.0 ], [ -83.69324, 37.82127, 401.0 ], [ -83.69334, 37.82134, 401.0 ], [ -83.69342, 37.82142, 401.0 ], [ -83.69354, 37.8215, 401.0 ], [ -83.69365, 37.82155, 401.0 ], [ -83.69379, 37.8216, 400.0 ], [ -83.69402, 37.82159, 401.0 ], [ -83.69413, 37.82157, 401.0 ], [ -83.69433, 37.82149, 401.0 ], [ -83.69453, 37.8214, 402.0 ], [ -83.69465, 37.82127, 402.0 ], [ -83.69475, 37.82113, 400.0 ], [ -83.69489, 37.82099, 401.0 ], [ -83.69501, 37.82084, 400.0 ], [ -83.69512, 37.82076, 399.0 ], [ -83.69544, 37.82061, 401.0 ], [ -83.69552, 37.82059, 402.0 ], [ -83.69557, 37.82059, 402.0 ], [ -83.69566, 37.82064, 403.0 ], [ -83.69573, 37.82071, 403.0 ], [ -83.69579, 37.8208, 402.0 ], [ -83.69581, 37.82085, 401.0 ], [ -83.69582, 37.82094, 400.0 ], [ -83.69583, 37.82107, 399.0 ], [ -83.69584, 37.82119, 398.0 ], [ -83.69584, 37.82132, 398.0 ], [ -83.69587, 37.82148, 396.0 ], [ -83.6959, 37.82158, 394.0 ], [ -83.6959, 37.82169, 393.0 ], [ -83.69592, 37.82178, 391.0 ], [ -83.69597, 37.82187, 389.0 ], [ -83.69608, 37.82189, 387.0 ], [ -83.69621, 37.82192, 382.0 ], [ -83.69626, 37.822, 380.0 ], [ -83.69625, 37.82217, 378.0 ], [ -83.6962, 37.82238, 377.0 ], [ -83.69619, 37.82251, 376.0 ], [ -83.69617, 37.82266, 375.0 ], [ -83.69618, 37.82274, 375.0 ], [ -83.69617, 37.82266, 375.0 ], [ -83.69619, 37.82251, 376.0 ], [ -83.6962, 37.82238, 377.0 ], [ -83.69625, 37.82217, 378.0 ], [ -83.69626, 37.822, 380.0 ], [ -83.69621, 37.82192, 382.0 ], [ -83.69608, 37.82189, 387.0 ], [ -83.69597, 37.82187, 389.0 ], [ -83.69592, 37.82178, 391.0 ], [ -83.6959, 37.82169, 393.0 ], [ -83.6959, 37.82158, 394.0 ], [ -83.69587, 37.82148, 396.0 ], [ -83.69584, 37.82132, 398.0 ], [ -83.69584, 37.82119, 398.0 ], [ -83.69583, 37.82107, 399.0 ], [ -83.69582, 37.82094, 400.0 ], [ -83.69581, 37.82085, 401.0 ], [ -83.69579, 37.8208, 402.0 ], [ -83.69573, 37.82071, 403.0 ], [ -83.69566, 37.82064, 403.0 ], [ -83.69557, 37.82059, 402.0 ], [ -83.69567, 37.82051, 403.0 ], [ -83.69577, 37.82044, 405.0 ], [ -83.69591, 37.82036, 406.0 ], [ -83.69609, 37.82029, 408.0 ], [ -83.6963, 37.82028, 407.0 ], [ -83.69641, 37.82027, 406.0 ], [ -83.69658, 37.82026, 406.0 ], [ -83.69673, 37.82026, 406.0 ], [ -83.69681, 37.82023, 406.0 ], [ -83.69691, 37.82026, 406.0 ], [ -83.69703, 37.82029, 405.0 ], [ -83.69715, 37.82037, 404.0 ], [ -83.69727, 37.82044, 402.0 ], [ -83.69739, 37.82056, 401.0 ], [ -83.69751, 37.82065, 398.0 ], [ -83.69765, 37.82072, 396.0 ], [ -83.69778, 37.82077, 395.0 ], [ -83.69793, 37.82086, 393.0 ], [ -83.69809, 37.82095, 392.0 ], [ -83.69823, 37.82104, 392.0 ], [ -83.69836, 37.82113, 392.0 ], [ -83.6984, 37.82122, 391.0 ], [ -83.69844, 37.82134, 390.0 ], [ -83.69843, 37.82149, 387.0 ], [ -83.69845, 37.82162, 383.0 ], [ -83.69852, 37.82172, 381.0 ], [ -83.69859, 37.82181, 380.0 ], [ -83.69871, 37.82187, 380.0 ], [ -83.69887, 37.82194, 382.0 ], [ -83.69901, 37.82197, 381.0 ], [ -83.69916, 37.82206, 379.0 ], [ -83.69929, 37.82209, 379.0 ], [ -83.69955, 37.8222, 380.0 ], [ -83.69965, 37.82223, 380.0 ], [ -83.69975, 37.82221, 380.0 ], [ -83.6999, 37.82215, 380.0 ], [ -83.70007, 37.82209, 380.0 ], [ -83.70017, 37.82202, 381.0 ], [ -83.7003, 37.82194, 382.0 ], [ -83.70052, 37.82193, 382.0 ], [ -83.70058, 37.82194, 382.0 ], [ -83.7007, 37.82196, 381.0 ], [ -83.70091, 37.82203, 379.0 ], [ -83.70107, 37.82209, 377.0 ], [ -83.70126, 37.82214, 377.0 ], [ -83.70138, 37.82217, 378.0 ], [ -83.7015, 37.82223, 379.0 ], [ -83.70159, 37.82227, 379.0 ], [ -83.70171, 37.82229, 380.0 ], [ -83.70185, 37.82228, 382.0 ], [ -83.70212, 37.82221, 384.0 ], [ -83.70228, 37.82218, 385.0 ], [ -83.70246, 37.82212, 386.0 ], [ -83.70258, 37.82209, 386.0 ], [ -83.70267, 37.82217, 388.0 ], [ -83.70276, 37.82225, 390.0 ], [ -83.70288, 37.82233, 390.0 ], [ -83.703, 37.8224, 390.0 ], [ -83.7031, 37.82245, 390.0 ], [ -83.7032, 37.82249, 389.0 ], [ -83.70332, 37.82252, 388.0 ], [ -83.70342, 37.82256, 386.0 ], [ -83.70351, 37.82261, 385.0 ], [ -83.70359, 37.82269, 385.0 ], [ -83.70364, 37.82278, 384.0 ], [ -83.70367, 37.8229, 382.0 ], [ -83.70369, 37.82301, 380.0 ], [ -83.70371, 37.82312, 378.0 ], [ -83.70371, 37.82321, 377.0 ], [ -83.70369, 37.82333, 376.0 ], [ -83.70367, 37.82344, 374.0 ], [ -83.70359, 37.82357, 371.0 ], [ -83.70356, 37.82367, 372.0 ], [ -83.70355, 37.82374, 374.0 ], [ -83.70355, 37.82386, 377.0 ], [ -83.70356, 37.82396, 379.0 ], [ -83.7036, 37.82401, 381.0 ], [ -83.70362, 37.82412, 384.0 ], [ -83.70363, 37.8242, 386.0 ], [ -83.70365, 37.82426, 387.0 ], [ -83.70367, 37.82434, 388.0 ], [ -83.70351, 37.82442, 386.0 ], [ -83.70336, 37.8245, 383.0 ], [ -83.70325, 37.82469, 380.0 ], [ -83.70319, 37.82482, 378.0 ], [ -83.7031, 37.82493, 376.0 ], [ -83.70304, 37.82505, 374.0 ], [ -83.7031, 37.82493, 376.0 ], [ -83.70319, 37.82482, 378.0 ], [ -83.70325, 37.82469, 380.0 ], [ -83.70336, 37.8245, 383.0 ], [ -83.70351, 37.82442, 386.0 ], [ -83.70367, 37.82434, 388.0 ], [ -83.70378, 37.82437, 389.0 ], [ -83.70387, 37.8244, 391.0 ], [ -83.70401, 37.82439, 391.0 ], [ -83.70416, 37.82441, 392.0 ], [ -83.70425, 37.82443, 393.0 ], [ -83.70439, 37.82445, 395.0 ], [ -83.70455, 37.82447, 395.0 ], [ -83.70485, 37.82445, 392.0 ], [ -83.70495, 37.82437, 390.0 ], [ -83.70507, 37.82428, 386.0 ], [ -83.70518, 37.82421, 384.0 ], [ -83.70529, 37.82415, 382.0 ], [ -83.70535, 37.82411, 380.0 ], [ -83.70538, 37.82416, 380.0 ], [ -83.70538, 37.82421, 379.0 ], [ -83.70541, 37.82426, 378.0 ], [ -83.70542, 37.82431, 377.0 ], [ -83.70542, 37.82436, 376.0 ], [ -83.70542, 37.82441, 375.0 ], [ -83.70541, 37.82445, 375.0 ], [ -83.70539, 37.8245, 374.0 ], [ -83.70536, 37.82456, 373.0 ], [ -83.70534, 37.82461, 372.0 ], [ -83.70533, 37.82466, 370.0 ], [ -83.7053, 37.8247, 370.0 ], [ -83.7053, 37.82471, 370.0 ], [ -83.70529, 37.82476, 369.0 ], [ -83.70526, 37.82481, 369.0 ], [ -83.70522, 37.82484, 369.0 ], [ -83.70518, 37.82489, 370.0 ], [ -83.70523, 37.82486, 369.0 ], [ -83.70527, 37.82481, 369.0 ], [ -83.7053, 37.82477, 368.0 ], [ -83.70531, 37.82473, 369.0 ], [ -83.70532, 37.82468, 370.0 ], [ -83.70534, 37.82464, 371.0 ], [ -83.70537, 37.82459, 371.0 ], [ -83.70538, 37.82455, 372.0 ], [ -83.70539, 37.8245, 374.0 ], [ -83.7054, 37.82445, 375.0 ], [ -83.70541, 37.82441, 376.0 ], [ -83.70542, 37.82436, 376.0 ], [ -83.70542, 37.82434, 376.0 ], [ -83.70542, 37.82432, 377.0 ], [ -83.70542, 37.82427, 377.0 ], [ -83.70541, 37.82423, 378.0 ], [ -83.70539, 37.82418, 379.0 ], [ -83.70539, 37.82413, 379.0 ], [ -83.70539, 37.82412, 379.0 ], [ -83.70537, 37.8241, 380.0 ], [ -83.70549, 37.82402, 376.0 ], [ -83.70562, 37.82395, 373.0 ], [ -83.7057, 37.82389, 372.0 ], [ -83.70575, 37.8238, 371.0 ], [ -83.70575, 37.82373, 370.0 ], [ -83.70583, 37.82363, 370.0 ], [ -83.70588, 37.82356, 369.0 ], [ -83.70592, 37.82351, 369.0 ], [ -83.706, 37.82349, 370.0 ], [ -83.70612, 37.82343, 372.0 ], [ -83.70624, 37.82337, 375.0 ], [ -83.70635, 37.82332, 378.0 ], [ -83.70645, 37.82327, 379.0 ], [ -83.70658, 37.82319, 382.0 ], [ -83.70668, 37.82316, 384.0 ], [ -83.7068, 37.82315, 384.0 ], [ -83.70688, 37.82315, 384.0 ], [ -83.70701, 37.82319, 384.0 ], [ -83.7071, 37.82325, 383.0 ], [ -83.70721, 37.82332, 383.0 ], [ -83.70733, 37.82339, 382.0 ], [ -83.70747, 37.82343, 382.0 ], [ -83.70759, 37.82348, 382.0 ], [ -83.7077, 37.8235, 382.0 ], [ -83.7078, 37.82355, 383.0 ], [ -83.7079, 37.82361, 384.0 ], [ -83.70803, 37.82369, 387.0 ], [ -83.70814, 37.82371, 390.0 ], [ -83.70827, 37.82375, 394.0 ], [ -83.70842, 37.82382, 398.0 ], [ -83.70849, 37.82388, 400.0 ], [ -83.70855, 37.82395, 400.0 ], [ -83.70866, 37.82401, 400.0 ], [ -83.70877, 37.82402, 400.0 ], [ -83.70893, 37.82401, 400.0 ], [ -83.70909, 37.82401, 400.0 ], [ -83.70924, 37.82403, 401.0 ], [ -83.70941, 37.82402, 400.0 ], [ -83.70954, 37.82403, 399.0 ], [ -83.70966, 37.8241, 401.0 ], [ -83.7098, 37.82415, 402.0 ], [ -83.7099, 37.82419, 402.0 ], [ -83.71, 37.82422, 402.0 ], [ -83.71012, 37.82422, 402.0 ], [ -83.71027, 37.82424, 403.0 ], [ -83.71038, 37.82423, 401.0 ], [ -83.71055, 37.82424, 399.0 ], [ -83.71066, 37.82425, 396.0 ], [ -83.71079, 37.82431, 393.0 ], [ -83.71087, 37.82443, 391.0 ], [ -83.71097, 37.82453, 387.0 ], [ -83.71107, 37.82466, 383.0 ], [ -83.71114, 37.82476, 382.0 ], [ -83.71125, 37.82485, 383.0 ], [ -83.71139, 37.82497, 385.0 ], [ -83.71147, 37.82512, 386.0 ], [ -83.71152, 37.82526, 386.0 ], [ -83.71154, 37.82542, 386.0 ], [ -83.71155, 37.82557, 387.0 ], [ -83.71153, 37.82574, 387.0 ], [ -83.71147, 37.82587, 387.0 ], [ -83.71141, 37.82599, 386.0 ], [ -83.71133, 37.82609, 386.0 ], [ -83.71119, 37.82614, 387.0 ], [ -83.71109, 37.82617, 387.0 ], [ -83.71094, 37.82618, 386.0 ], [ -83.71075, 37.82623, 384.0 ], [ -83.71054, 37.82627, 381.0 ], [ -83.71031, 37.82632, 376.0 ], [ -83.71004, 37.82636, 375.0 ], [ -83.70986, 37.82645, 372.0 ], [ -83.70966, 37.82658, 371.0 ], [ -83.70954, 37.82663, 371.0 ], [ -83.70966, 37.82658, 371.0 ], [ -83.70986, 37.82645, 372.0 ], [ -83.71004, 37.82636, 375.0 ], [ -83.71031, 37.82632, 376.0 ], [ -83.71054, 37.82627, 381.0 ], [ -83.71075, 37.82623, 384.0 ], [ -83.71094, 37.82618, 386.0 ], [ -83.71109, 37.82617, 387.0 ], [ -83.71119, 37.82614, 387.0 ], [ -83.71133, 37.82609, 386.0 ], [ -83.71141, 37.82599, 386.0 ], [ -83.71147, 37.82587, 387.0 ], [ -83.71153, 37.82574, 387.0 ], [ -83.71155, 37.82557, 387.0 ], [ -83.71154, 37.82542, 386.0 ], [ -83.71152, 37.82526, 386.0 ], [ -83.71147, 37.82512, 386.0 ], [ -83.71139, 37.82497, 385.0 ], [ -83.71125, 37.82485, 383.0 ], [ -83.71114, 37.82476, 382.0 ], [ -83.71107, 37.82466, 383.0 ], [ -83.71097, 37.82453, 387.0 ], [ -83.71087, 37.82443, 391.0 ], [ -83.71079, 37.82431, 393.0 ], [ -83.71066, 37.82425, 396.0 ], [ -83.71055, 37.82424, 399.0 ], [ -83.71038, 37.82423, 401.0 ], [ -83.71027, 37.82424, 403.0 ], [ -83.71012, 37.82422, 402.0 ], [ -83.71, 37.82422, 402.0 ], [ -83.7099, 37.82419, 402.0 ], [ -83.7098, 37.82415, 402.0 ], [ -83.70966, 37.8241, 401.0 ], [ -83.70954, 37.82403, 399.0 ], [ -83.70942, 37.82402, 400.0 ], [ -83.70924, 37.82403, 401.0 ], [ -83.70909, 37.82401, 400.0 ], [ -83.70893, 37.82401, 400.0 ], [ -83.70877, 37.82402, 400.0 ], [ -83.70866, 37.82401, 400.0 ], [ -83.70855, 37.82395, 400.0 ], [ -83.70849, 37.82388, 400.0 ], [ -83.70842, 37.82382, 398.0 ], [ -83.70827, 37.82375, 394.0 ], [ -83.70814, 37.82371, 390.0 ], [ -83.70803, 37.82369, 387.0 ], [ -83.7079, 37.82361, 384.0 ], [ -83.7078, 37.82355, 383.0 ], [ -83.7077, 37.8235, 382.0 ], [ -83.70759, 37.82348, 382.0 ], [ -83.70747, 37.82343, 382.0 ], [ -83.70733, 37.82339, 382.0 ], [ -83.70721, 37.82332, 383.0 ], [ -83.7071, 37.82325, 383.0 ], [ -83.70701, 37.82319, 384.0 ], [ -83.70688, 37.82315, 384.0 ], [ -83.7068, 37.82315, 384.0 ], [ -83.70668, 37.82316, 384.0 ], [ -83.70658, 37.82319, 382.0 ], [ -83.70645, 37.82327, 379.0 ], [ -83.70635, 37.82332, 378.0 ], [ -83.70624, 37.82337, 375.0 ], [ -83.70612, 37.82343, 372.0 ], [ -83.706, 37.82349, 370.0 ], [ -83.70592, 37.82351, 369.0 ], [ -83.70588, 37.82356, 369.0 ], [ -83.70583, 37.82363, 370.0 ], [ -83.70575, 37.82373, 370.0 ], [ -83.70575, 37.8238, 371.0 ], [ -83.7057, 37.82389, 372.0 ], [ -83.70561, 37.82396, 374.0 ], [ -83.70549, 37.82402, 376.0 ], [ -83.70529, 37.82415, 382.0 ], [ -83.70518, 37.82421, 384.0 ], [ -83.70507, 37.82428, 386.0 ], [ -83.70495, 37.82437, 390.0 ], [ -83.70485, 37.82445, 392.0 ], [ -83.70455, 37.82447, 395.0 ], [ -83.70439, 37.82445, 395.0 ], [ -83.70425, 37.82443, 393.0 ], [ -83.70416, 37.82441, 392.0 ], [ -83.70401, 37.82439, 391.0 ], [ -83.70387, 37.8244, 391.0 ], [ -83.70378, 37.82437, 389.0 ], [ -83.70367, 37.82434, 388.0 ], [ -83.70365, 37.82426, 387.0 ], [ -83.70363, 37.8242, 386.0 ], [ -83.70362, 37.82412, 384.0 ], [ -83.7036, 37.82401, 381.0 ], [ -83.70356, 37.82396, 379.0 ], [ -83.70355, 37.82386, 377.0 ], [ -83.70355, 37.82374, 374.0 ], [ -83.70356, 37.82367, 372.0 ], [ -83.70359, 37.82357, 371.0 ], [ -83.70367, 37.82344, 374.0 ], [ -83.70369, 37.82333, 376.0 ], [ -83.70371, 37.82321, 377.0 ], [ -83.70371, 37.82312, 378.0 ], [ -83.70369, 37.82301, 380.0 ], [ -83.70367, 37.8229, 382.0 ], [ -83.70364, 37.82278, 384.0 ], [ -83.70359, 37.82269, 385.0 ], [ -83.70351, 37.82261, 385.0 ], [ -83.70342, 37.82256, 386.0 ], [ -83.70332, 37.82252, 388.0 ], [ -83.7032, 37.82249, 389.0 ], [ -83.7031, 37.82245, 390.0 ], [ -83.703, 37.8224, 390.0 ], [ -83.70288, 37.82233, 390.0 ], [ -83.70276, 37.82225, 390.0 ], [ -83.70267, 37.82217, 388.0 ], [ -83.70258, 37.82209, 386.0 ], [ -83.70246, 37.82212, 386.0 ], [ -83.70228, 37.82218, 385.0 ], [ -83.70212, 37.82221, 384.0 ], [ -83.70185, 37.82228, 382.0 ], [ -83.70171, 37.82229, 380.0 ], [ -83.70159, 37.82227, 379.0 ], [ -83.7015, 37.82223, 379.0 ], [ -83.70138, 37.82217, 378.0 ], [ -83.70126, 37.82214, 377.0 ], [ -83.70107, 37.82209, 377.0 ], [ -83.70091, 37.82203, 379.0 ], [ -83.7007, 37.82196, 381.0 ], [ -83.70052, 37.82193, 382.0 ], [ -83.7003, 37.82194, 382.0 ], [ -83.70017, 37.82202, 381.0 ], [ -83.70007, 37.82209, 380.0 ], [ -83.6999, 37.82215, 380.0 ], [ -83.69975, 37.82221, 380.0 ], [ -83.69965, 37.82223, 380.0 ], [ -83.69955, 37.8222, 380.0 ], [ -83.69929, 37.82209, 379.0 ], [ -83.69916, 37.82206, 379.0 ], [ -83.69901, 37.82197, 381.0 ], [ -83.69887, 37.82194, 382.0 ], [ -83.69871, 37.82187, 380.0 ], [ -83.69859, 37.82181, 380.0 ], [ -83.69852, 37.82172, 381.0 ], [ -83.69845, 37.82162, 383.0 ], [ -83.69843, 37.82149, 387.0 ], [ -83.69844, 37.82134, 390.0 ], [ -83.6984, 37.82122, 391.0 ], [ -83.69836, 37.82113, 392.0 ], [ -83.69823, 37.82104, 392.0 ], [ -83.69809, 37.82095, 392.0 ], [ -83.69793, 37.82086, 393.0 ], [ -83.69778, 37.82077, 395.0 ], [ -83.69765, 37.82072, 396.0 ], [ -83.69751, 37.82065, 398.0 ], [ -83.69739, 37.82056, 401.0 ], [ -83.69727, 37.82044, 402.0 ], [ -83.69715, 37.82037, 404.0 ], [ -83.69703, 37.82029, 405.0 ], [ -83.69691, 37.82026, 406.0 ], [ -83.69681, 37.82023, 406.0 ], [ -83.69673, 37.82026, 406.0 ], [ -83.69658, 37.82026, 406.0 ], [ -83.69641, 37.82027, 406.0 ], [ -83.6963, 37.82028, 407.0 ], [ -83.69609, 37.82029, 408.0 ], [ -83.69591, 37.82036, 406.0 ], [ -83.69577, 37.82044, 405.0 ], [ -83.69567, 37.82051, 403.0 ], [ -83.69557, 37.82059, 402.0 ], [ -83.69552, 37.82059, 402.0 ], [ -83.69544, 37.82061, 401.0 ], [ -83.69512, 37.82076, 399.0 ], [ -83.69501, 37.82084, 400.0 ], [ -83.69489, 37.82099, 401.0 ], [ -83.69475, 37.82113, 400.0 ], [ -83.69465, 37.82127, 402.0 ], [ -83.69453, 37.8214, 402.0 ], [ -83.69433, 37.82149, 401.0 ], [ -83.69413, 37.82157, 401.0 ], [ -83.69402, 37.82159, 401.0 ], [ -83.69379, 37.8216, 400.0 ], [ -83.69365, 37.82155, 401.0 ], [ -83.69354, 37.8215, 401.0 ], [ -83.69342, 37.82142, 401.0 ], [ -83.69334, 37.82134, 401.0 ], [ -83.69324, 37.82127, 401.0 ], [ -83.69307, 37.82118, 403.0 ], [ -83.69298, 37.82114, 403.0 ], [ -83.69285, 37.82109, 403.0 ], [ -83.69271, 37.82105, 403.0 ], [ -83.69256, 37.82103, 402.0 ], [ -83.69244, 37.82101, 401.0 ], [ -83.69226, 37.82101, 400.0 ], [ -83.69207, 37.82104, 399.0 ], [ -83.69192, 37.82104, 398.0 ], [ -83.69178, 37.82103, 397.0 ], [ -83.69169, 37.821, 397.0 ], [ -83.69159, 37.82097, 396.0 ], [ -83.69147, 37.82094, 394.0 ], [ -83.69138, 37.82093, 393.0 ], [ -83.69129, 37.82095, 392.0 ], [ -83.69123, 37.82098, 391.0 ], [ -83.69113, 37.82102, 391.0 ], [ -83.69104, 37.82106, 391.0 ], [ -83.69099, 37.82112, 392.0 ], [ -83.69092, 37.82124, 392.0 ], [ -83.69086, 37.82133, 392.0 ], [ -83.69083, 37.82144, 393.0 ], [ -83.69079, 37.82153, 393.0 ], [ -83.69074, 37.82161, 393.0 ], [ -83.69069, 37.8217, 393.0 ], [ -83.69066, 37.8218, 393.0 ], [ -83.69064, 37.82188, 394.0 ], [ -83.69055, 37.82201, 395.0 ], [ -83.69046, 37.82201, 396.0 ], [ -83.69033, 37.82205, 398.0 ], [ -83.69015, 37.8221, 399.0 ], [ -83.68971, 37.82201, 397.0 ], [ -83.68967, 37.82195, 397.0 ], [ -83.68964, 37.82189, 396.0 ], [ -83.6896, 37.82182, 395.0 ], [ -83.68956, 37.82175, 395.0 ], [ -83.68952, 37.82169, 395.0 ], [ -83.68949, 37.82164, 394.0 ], [ -83.68945, 37.8216, 395.0 ], [ -83.68939, 37.82154, 395.0 ], [ -83.68931, 37.82147, 395.0 ], [ -83.68924, 37.82142, 396.0 ], [ -83.68919, 37.82137, 397.0 ], [ -83.68912, 37.82133, 398.0 ], [ -83.68905, 37.82128, 398.0 ], [ -83.68896, 37.82126, 400.0 ], [ -83.68891, 37.82122, 400.0 ], [ -83.68884, 37.82116, 401.0 ], [ -83.68881, 37.82111, 400.0 ], [ -83.68878, 37.82106, 400.0 ], [ -83.68876, 37.82099, 400.0 ], [ -83.68871, 37.82093, 400.0 ], [ -83.68869, 37.82086, 400.0 ], [ -83.68868, 37.8208, 400.0 ], [ -83.68868, 37.82073, 400.0 ], [ -83.68868, 37.82067, 399.0 ], [ -83.68868, 37.82059, 399.0 ], [ -83.68867, 37.82053, 399.0 ], [ -83.68866, 37.82045, 398.0 ], [ -83.68866, 37.82038, 398.0 ], [ -83.68865, 37.82032, 398.0 ], [ -83.68864, 37.82025, 398.0 ], [ -83.68861, 37.82017, 398.0 ], [ -83.68859, 37.82012, 398.0 ], [ -83.68857, 37.82006, 398.0 ], [ -83.68853, 37.82, 398.0 ], [ -83.68847, 37.81994, 398.0 ], [ -83.68841, 37.81989, 398.0 ], [ -83.68836, 37.81983, 398.0 ], [ -83.68831, 37.81978, 398.0 ], [ -83.68826, 37.81973, 398.0 ], [ -83.6882, 37.81968, 400.0 ], [ -83.68812, 37.81965, 402.0 ], [ -83.68805, 37.81962, 403.0 ], [ -83.68796, 37.8196, 403.0 ], [ -83.68788, 37.81958, 404.0 ], [ -83.6878, 37.81958, 404.0 ], [ -83.6877, 37.81957, 404.0 ], [ -83.68763, 37.81957, 404.0 ], [ -83.68754, 37.81959, 403.0 ], [ -83.6871, 37.81976, 400.0 ], [ -83.687, 37.8198, 399.0 ], [ -83.68693, 37.81983, 399.0 ], [ -83.68683, 37.81983, 398.0 ], [ -83.68675, 37.81985, 397.0 ], [ -83.68667, 37.81988, 397.0 ], [ -83.6866, 37.8199, 396.0 ], [ -83.68653, 37.81993, 396.0 ], [ -83.68646, 37.81997, 396.0 ], [ -83.68641, 37.82001, 396.0 ], [ -83.68635, 37.82006, 395.0 ], [ -83.68631, 37.82012, 396.0 ], [ -83.68628, 37.82017, 396.0 ], [ -83.68625, 37.82025, 396.0 ], [ -83.68621, 37.8203, 397.0 ], [ -83.68617, 37.82036, 397.0 ], [ -83.68613, 37.82042, 397.0 ], [ -83.68606, 37.8205, 397.0 ], [ -83.68602, 37.82054, 397.0 ], [ -83.68598, 37.8206, 398.0 ], [ -83.68593, 37.82065, 398.0 ], [ -83.68588, 37.82069, 399.0 ], [ -83.68582, 37.82075, 399.0 ], [ -83.68573, 37.82079, 399.0 ], [ -83.68566, 37.82082, 400.0 ], [ -83.68557, 37.82087, 400.0 ], [ -83.6855, 37.82089, 400.0 ], [ -83.68542, 37.82091, 400.0 ], [ -83.68496, 37.82096, 399.0 ], [ -83.68488, 37.82098, 399.0 ], [ -83.6848, 37.82099, 399.0 ], [ -83.68473, 37.821, 399.0 ], [ -83.68466, 37.821, 399.0 ], [ -83.68457, 37.82098, 399.0 ], [ -83.68448, 37.82098, 399.0 ], [ -83.68441, 37.82096, 399.0 ], [ -83.68433, 37.82095, 399.0 ], [ -83.68426, 37.82093, 400.0 ], [ -83.6842, 37.82092, 400.0 ], [ -83.68417, 37.82091, 400.0 ], [ -83.68408, 37.82089, 401.0 ], [ -83.684, 37.82087, 401.0 ], [ -83.68394, 37.82086, 402.0 ], [ -83.68385, 37.82084, 402.0 ], [ -83.68376, 37.82083, 402.0 ], [ -83.68368, 37.82081, 402.0 ], [ -83.68361, 37.82079, 401.0 ], [ -83.68354, 37.82077, 401.0 ], [ -83.68347, 37.82075, 400.0 ], [ -83.68336, 37.82072, 399.0 ], [ -83.68328, 37.8207, 398.0 ], [ -83.68322, 37.82066, 398.0 ], [ -83.68316, 37.8206, 398.0 ], [ -83.68311, 37.82055, 398.0 ], [ -83.68305, 37.8205, 398.0 ], [ -83.68297, 37.8204, 399.0 ], [ -83.68273, 37.82003, 402.0 ], [ -83.68266, 37.81981, 402.0 ], [ -83.68264, 37.81976, 402.0 ], [ -83.68263, 37.81977, 402.0 ] ] ] } }
]
}
